{
  "type": "FeatureCollection",
  "features": [
    {
      "type": "Feature",
      "geometry": {
        "type": "LineString",
        "coordinates": [
          [
            -112.931352518903,
            32.3204878242056
          ],
          [
            -112.931912806231,
            32.3194391042759
          ],
          [
            -112.932402604555,
            32.3185222962212
          ],
          [
            -112.932723693878,
            32.3166842012452
          ],
          [
            -112.932932185669,
            32.3154679094921
          ],
          [
            -112.933228921666,
            32.3137654771878
          ],
          [
            -112.933819892748,
            32.3047619071647
          ],
          [
            -112.935929865569,
            32.2950044646131
          ]
        ]
      },
      "properties": {
        "STATE": "AZ",
        "DESCRIPTION": "Fault, sense of displacement unknown or undefined, certain",
        "RuleID": 22,
        "type": "faults"
      }
    },
    {
      "type": "Feature",
      "geometry": {
        "type": "LineString",
        "coordinates": [
          [
            -113.115485605158,
            32.4294116385785
          ],
          [
            -113.112813253731,
            32.4241760131261
          ],
          [
            -113.104872068466,
            32.4119239207886
          ],
          [
            -113.102885959848,
            32.4072605466229
          ],
          [
            -113.101684164915,
            32.4052648954348
          ],
          [
            -113.096391088242,
            32.398485243891
          ],
          [
            -113.092759809504,
            32.3946021186324
          ],
          [
            -113.084064467897,
            32.3871636199574
          ]
        ]
      },
      "properties": {
        "STATE": "AZ",
        "DESCRIPTION": "Fault, sense of displacement unknown or undefined, certain",
        "RuleID": 22,
        "type": "faults"
      }
    },
    {
      "type": "Feature",
      "geometry": {
        "type": "LineString",
        "coordinates": [
          [
            -112.94280211763,
            32.37905534441
          ],
          [
            -112.939268596256,
            32.3732179566124
          ],
          [
            -112.937138736532,
            32.3704186658686
          ],
          [
            -112.936612986732,
            32.3697796163543
          ],
          [
            -112.934996884298,
            32.3671437576631
          ],
          [
            -112.933666503617,
            32.3640412581139
          ],
          [
            -112.93316621297,
            32.3629260338914
          ]
        ]
      },
      "properties": {
        "STATE": "AZ",
        "DESCRIPTION": "Fault, sense of displacement unknown or undefined, certain",
        "RuleID": 22,
        "type": "faults"
      }
    },
    {
      "type": "Feature",
      "geometry": {
        "type": "LineString",
        "coordinates": [
          [
            -112.887117978618,
            32.364403897782
          ],
          [
            -112.893522534505,
            32.3550427533013
          ],
          [
            -112.895115542151,
            32.3518327390304
          ],
          [
            -112.896121435182,
            32.3498017942515
          ]
        ]
      },
      "properties": {
        "STATE": "AZ",
        "DESCRIPTION": "Fault, sense of displacement unknown or undefined, certain",
        "RuleID": 22,
        "type": "faults"
      }
    },
    {
      "type": "Feature",
      "geometry": {
        "type": "LineString",
        "coordinates": [
          [
            -112.643219438421,
            32.3874684451553
          ],
          [
            -112.642720615622,
            32.3829808483069
          ],
          [
            -112.640816963364,
            32.3773434816628
          ],
          [
            -112.640141514712,
            32.3710474416467
          ],
          [
            -112.635353883218,
            32.3615170786748
          ],
          [
            -112.632086199388,
            32.3495495261162
          ]
        ]
      },
      "properties": {
        "STATE": "AZ",
        "DESCRIPTION": "Fault, sense of displacement unknown or undefined, certain",
        "RuleID": 22,
        "type": "faults"
      }
    },
    {
      "type": "Feature",
      "geometry": {
        "type": "LineString",
        "coordinates": [
          [
            -112.848818001951,
            32.3355635094217
          ],
          [
            -112.847454375519,
            32.3373377764817
          ],
          [
            -112.840219283136,
            32.3467426145906
          ]
        ]
      },
      "properties": {
        "STATE": "AZ",
        "DESCRIPTION": "Fault, sense of displacement unknown or undefined, certain",
        "RuleID": 22,
        "type": "faults"
      }
    },
    {
      "type": "Feature",
      "geometry": {
        "type": "LineString",
        "coordinates": [
          [
            -112.928921330097,
            32.3358137186453
          ],
          [
            -112.927419023548,
            32.340445545563
          ],
          [
            -112.925720912115,
            32.3455425837226
          ],
          [
            -112.925439717872,
            32.3463901799122
          ],
          [
            -112.922294817572,
            32.3558249847764
          ],
          [
            -112.921983604326,
            32.3567632239628
          ]
        ]
      },
      "properties": {
        "STATE": "AZ",
        "DESCRIPTION": "Fault, sense of displacement unknown or undefined, certain",
        "RuleID": 22,
        "type": "faults"
      }
    },
    {
      "type": "Feature",
      "geometry": {
        "type": "LineString",
        "coordinates": [
          [
            -112.863979876911,
            32.3047757023717
          ],
          [
            -112.861463342762,
            32.3095029734234
          ],
          [
            -112.854848715847,
            32.3224824431666
          ],
          [
            -112.853371029425,
            32.3254535252382
          ],
          [
            -112.852028434351,
            32.3291779879851
          ],
          [
            -112.848818001951,
            32.3355635094217
          ]
        ]
      },
      "properties": {
        "STATE": "AZ",
        "DESCRIPTION": "Fault, sense of displacement unknown or undefined, certain",
        "RuleID": 22,
        "type": "faults"
      }
    },
    {
      "type": "Feature",
      "geometry": {
        "type": "LineString",
        "coordinates": [
          [
            -112.690967026576,
            32.5670516495571
          ],
          [
            -112.675287327652,
            32.5541924675356
          ],
          [
            -112.670381256881,
            32.5507198713522
          ],
          [
            -112.665850957682,
            32.5469061255204
          ],
          [
            -112.662636565508,
            32.5438910760265
          ],
          [
            -112.659188088541,
            32.5398801238472
          ],
          [
            -112.656461140207,
            32.5377423795119
          ],
          [
            -112.650904132215,
            32.5311229983351
          ],
          [
            -112.647186463394,
            32.5278909007461
          ],
          [
            -112.643451950264,
            32.5253624291349
          ],
          [
            -112.637434005022,
            32.5224644719974
          ],
          [
            -112.627125818272,
            32.5168527875594
          ],
          [
            -112.621778049469,
            32.5128878466924
          ]
        ]
      },
      "properties": {
        "STATE": "AZ",
        "DESCRIPTION": "Fault, sense of displacement unknown or undefined, certain",
        "RuleID": 22,
        "type": "faults"
      }
    },
    {
      "type": "Feature",
      "geometry": {
        "type": "LineString",
        "coordinates": [
          [
            -112.928921330097,
            32.3358137186453
          ],
          [
            -112.929923318151,
            32.3325942863142
          ],
          [
            -112.930135324151,
            32.3313215756192
          ],
          [
            -112.930527833133,
            32.3289818258634
          ],
          [
            -112.931023289945,
            32.3256754321731
          ],
          [
            -112.931391218326,
            32.3236336932624
          ],
          [
            -112.931825192643,
            32.3212639890781
          ],
          [
            -112.931352518903,
            32.3204878242056
          ]
        ]
      },
      "properties": {
        "STATE": "AZ",
        "DESCRIPTION": "Fault, sense of displacement unknown or undefined, certain",
        "RuleID": 22,
        "type": "faults"
      }
    },
    {
      "type": "Feature",
      "geometry": {
        "type": "LineString",
        "coordinates": [
          [
            -112.974121883604,
            32.3472924783711
          ],
          [
            -112.969824481625,
            32.3431725195413
          ],
          [
            -112.968507599928,
            32.3425076240221
          ],
          [
            -112.967126377296,
            32.3418144045058
          ],
          [
            -112.961228581723,
            32.3400437954348
          ],
          [
            -112.945721515641,
            32.336541008827
          ],
          [
            -112.937621996019,
            32.3338945325775
          ],
          [
            -112.933627999129,
            32.3337100537852
          ],
          [
            -112.928921330097,
            32.3358137186453
          ]
        ]
      },
      "properties": {
        "STATE": "AZ",
        "DESCRIPTION": "Fault, sense of displacement unknown or undefined, certain",
        "RuleID": 22,
        "type": "faults"
      }
    },
    {
      "type": "Feature",
      "geometry": {
        "type": "LineString",
        "coordinates": [
          [
            -112.957750071381,
            32.1606718102249
          ],
          [
            -112.957902337618,
            32.1570661882856
          ],
          [
            -112.957223401706,
            32.1444630046733
          ],
          [
            -112.953670661776,
            32.1378998896148
          ],
          [
            -112.950970043062,
            32.1315377334217
          ],
          [
            -112.949078605197,
            32.1245023659808
          ],
          [
            -112.946675044077,
            32.1126674341692
          ]
        ]
      },
      "properties": {
        "STATE": "AZ",
        "DESCRIPTION": "Fault, sense of displacement unknown or undefined, certain",
        "RuleID": 22,
        "type": "faults"
      }
    },
    {
      "type": "Feature",
      "geometry": {
        "type": "LineString",
        "coordinates": [
          [
            -113.136790268726,
            32.4746819548603
          ],
          [
            -113.127400673135,
            32.46999575972
          ],
          [
            -113.125219040805,
            32.4687519655861
          ],
          [
            -113.121297566705,
            32.4657021652201
          ],
          [
            -113.115486276199,
            32.4604000222199
          ],
          [
            -113.112336865458,
            32.4567867995838
          ],
          [
            -113.107419647493,
            32.4487636205986
          ],
          [
            -113.105657964982,
            32.4465203697969
          ],
          [
            -113.100026747165,
            32.4411062096604
          ],
          [
            -113.094852826624,
            32.4372421688178
          ],
          [
            -113.085054001708,
            32.4277388828485
          ],
          [
            -113.077871447294,
            32.4198488565118
          ]
        ]
      },
      "properties": {
        "STATE": "AZ",
        "DESCRIPTION": "Fault, sense of displacement unknown or undefined, certain",
        "RuleID": 22,
        "type": "faults"
      }
    },
    {
      "type": "Feature",
      "geometry": {
        "type": "LineString",
        "coordinates": [
          [
            -112.663113173869,
            32.5019915846765
          ],
          [
            -112.655753058455,
            32.4954750527317
          ],
          [
            -112.645899539613,
            32.4901294102688
          ],
          [
            -112.636261457438,
            32.4823471201041
          ],
          [
            -112.628418925157,
            32.4769445822243
          ],
          [
            -112.612026422039,
            32.4677209767807
          ],
          [
            -112.589791120005,
            32.4537728213708
          ],
          [
            -112.58657046837,
            32.4521808670174
          ],
          [
            -112.58163648874,
            32.4502022113147
          ]
        ]
      },
      "properties": {
        "STATE": "AZ",
        "DESCRIPTION": "Fault, sense of displacement unknown or undefined, certain",
        "RuleID": 22,
        "type": "faults"
      }
    },
    {
      "type": "Feature",
      "geometry": {
        "type": "LineString",
        "coordinates": [
          [
            -112.877904243515,
            32.3829274189926
          ],
          [
            -112.882784159836,
            32.3760157077943
          ],
          [
            -112.884592986831,
            32.3731363123688
          ],
          [
            -112.885105692195,
            32.3723958251264
          ],
          [
            -112.887117978618,
            32.364403897782
          ]
        ]
      },
      "properties": {
        "STATE": "AZ",
        "DESCRIPTION": "Fault, sense of displacement unknown or undefined, certain",
        "RuleID": 22,
        "type": "faults"
      }
    },
    {
      "type": "Feature",
      "geometry": {
        "type": "LineString",
        "coordinates": [
          [
            -112.877904243515,
            32.3829274189926
          ],
          [
            -112.873080462916,
            32.3814749306383
          ],
          [
            -112.864224928337,
            32.3792521664674
          ]
        ]
      },
      "properties": {
        "STATE": "AZ",
        "DESCRIPTION": "Fault, sense of displacement unknown or undefined, certain",
        "RuleID": 22,
        "type": "faults"
      }
    },
    {
      "type": "Feature",
      "geometry": {
        "type": "LineString",
        "coordinates": [
          [
            -112.605105856785,
            32.3901266262355
          ],
          [
            -112.606883504155,
            32.3883090282862
          ],
          [
            -112.607901505578,
            32.3867243408522
          ],
          [
            -112.609135529368,
            32.3832742932504
          ],
          [
            -112.609837385795,
            32.3787599276852
          ],
          [
            -112.608305923525,
            32.3740440637459
          ],
          [
            -112.602460271561,
            32.3609337327901
          ],
          [
            -112.599627482822,
            32.3517694296891
          ],
          [
            -112.595907398432,
            32.3427718675822
          ],
          [
            -112.594650534077,
            32.3384311506972
          ],
          [
            -112.594204394774,
            32.3312231139933
          ],
          [
            -112.595118621917,
            32.3231003886067
          ],
          [
            -112.596042443965,
            32.3205834180918
          ],
          [
            -112.598977531052,
            32.3163339445051
          ]
        ]
      },
      "properties": {
        "STATE": "AZ",
        "DESCRIPTION": "Fault, sense of displacement unknown or undefined, certain",
        "RuleID": 22,
        "type": "faults"
      }
    },
    {
      "type": "Feature",
      "geometry": {
        "type": "LineString",
        "coordinates": [
          [
            -112.715411185282,
            32.2034166228338
          ],
          [
            -112.705114601172,
            32.2012085592632
          ],
          [
            -112.691310850463,
            32.1964872323569
          ],
          [
            -112.685316720457,
            32.1948084277335
          ],
          [
            -112.678015103335,
            32.1936360313713
          ],
          [
            -112.664514972412,
            32.1922992141996
          ]
        ]
      },
      "properties": {
        "STATE": "AZ",
        "DESCRIPTION": "Fault, sense of displacement unknown or undefined, certain",
        "RuleID": 22,
        "type": "faults"
      }
    },
    {
      "type": "Feature",
      "geometry": {
        "type": "LineString",
        "coordinates": [
          [
            -113.109322261298,
            32.4712898700766
          ],
          [
            -113.10626604987,
            32.4676027945792
          ],
          [
            -113.103213481109,
            32.4628603818972
          ],
          [
            -113.099573059319,
            32.4595594201319
          ],
          [
            -113.095651587015,
            32.4572302878646
          ],
          [
            -113.093081559988,
            32.4549574762247
          ],
          [
            -113.085705596496,
            32.4455402650086
          ]
        ]
      },
      "properties": {
        "STATE": "AZ",
        "DESCRIPTION": "Fault, sense of displacement unknown or undefined, certain",
        "RuleID": 22,
        "type": "faults"
      }
    },
    {
      "type": "Feature",
      "geometry": {
        "type": "LineString",
        "coordinates": [
          [
            -112.891020280874,
            32.3919422760858
          ],
          [
            -112.889303104496,
            32.3883828584427
          ],
          [
            -112.888761112257,
            32.3877190448229
          ],
          [
            -112.88661422317,
            32.385897732913
          ],
          [
            -112.884043793698,
            32.3847749458236
          ],
          [
            -112.877904243515,
            32.3829274189926
          ]
        ]
      },
      "properties": {
        "STATE": "AZ",
        "DESCRIPTION": "Fault, sense of displacement unknown or undefined, certain",
        "RuleID": 22,
        "type": "faults"
      }
    },
    {
      "type": "Feature",
      "geometry": {
        "type": "LineString",
        "coordinates": [
          [
            -112.956527452601,
            32.4013345805729
          ],
          [
            -112.952485404827,
            32.3970973945542
          ],
          [
            -112.950199933539,
            32.3940752884017
          ],
          [
            -112.948014579489,
            32.3899535031972
          ],
          [
            -112.946381008417,
            32.3862425437845
          ],
          [
            -112.946054336064,
            32.3854922324244
          ],
          [
            -112.94430774525,
            32.3815056459745
          ],
          [
            -112.94280211763,
            32.37905534441
          ]
        ]
      },
      "properties": {
        "STATE": "AZ",
        "DESCRIPTION": "Fault, sense of displacement unknown or undefined, certain",
        "RuleID": 22,
        "type": "faults"
      }
    },
    {
      "type": "Feature",
      "geometry": {
        "type": "LineString",
        "coordinates": [
          [
            -112.945757593779,
            32.1700499659471
          ],
          [
            -112.945248573305,
            32.162853509489
          ],
          [
            -112.945621041771,
            32.1574541417219
          ],
          [
            -112.945176419723,
            32.151147352388
          ],
          [
            -112.943845468611,
            32.144939863729
          ],
          [
            -112.940336576348,
            32.1350181688304
          ],
          [
            -112.939204649683,
            32.1177112839672
          ]
        ]
      },
      "properties": {
        "STATE": "AZ",
        "DESCRIPTION": "Fault, sense of displacement unknown or undefined, certain",
        "RuleID": 22,
        "type": "faults"
      }
    },
    {
      "type": "Feature",
      "geometry": {
        "type": "LineString",
        "coordinates": [
          [
            -112.913524867287,
            32.3987142432388
          ],
          [
            -112.919208864721,
            32.3994395287778
          ],
          [
            -112.925639415156,
            32.4005229359304
          ],
          [
            -112.931124150988,
            32.4020849992308
          ],
          [
            -112.946447234914,
            32.410101756258
          ],
          [
            -112.949980060093,
            32.4114112701457
          ],
          [
            -112.95572962017,
            32.4136332981862
          ]
        ]
      },
      "properties": {
        "STATE": "AZ",
        "DESCRIPTION": "Normal fault, certain, (U/D designated in source)",
        "RuleID": 43,
        "type": "faults"
      }
    },
    {
      "type": "Feature",
      "geometry": {
        "type": "LineString",
        "coordinates": [
          [
            -112.946237798994,
            32.4293586211618
          ],
          [
            -112.949585918873,
            32.4336315113067
          ],
          [
            -112.951120767791,
            32.438432969713
          ],
          [
            -112.953221001975,
            32.4420711904313
          ],
          [
            -112.957255928805,
            32.4473861744386
          ],
          [
            -112.962168876179,
            32.4521168783131
          ],
          [
            -112.964160017159,
            32.4547667499352
          ],
          [
            -112.968519181008,
            32.4614967777789
          ],
          [
            -112.973023120044,
            32.4696967239332
          ],
          [
            -112.975269151698,
            32.4752149598123
          ],
          [
            -112.976330924431,
            32.4801339468558
          ],
          [
            -112.975627557936,
            32.4844200006628
          ]
        ]
      },
      "properties": {
        "STATE": "AZ",
        "DESCRIPTION": "Normal fault, certain, (U/D designated in source)",
        "RuleID": 43,
        "type": "faults"
      }
    }
  ]
}