{
  "type": "FeatureCollection",
  "features": [
    {
      "type": "Feature",
      "geometry": {
        "type": "LineString",
        "coordinates": [
          [
            -115.22599546219858,
            39.76635909873481
          ],
          [
            -115.22870384415266,
            39.76550075700296
          ],
          [
            -115.23280113741865,
            39.76394796408181
          ],
          [
            -115.23615785597116,
            39.76213629021698
          ],
          [
            -115.23924789885179,
            39.76015628274307
          ],
          [
            -115.24071291543454,
            39.75886295084538
          ],
          [
            -115.24339072771951,
            39.75692127869408
          ]
        ]
      },
      "properties": {
        "fault_name": "Cherry Creek fault zone",
        "age": "late Quaternary",
        "slip_rate": "Less than 0.2 mm/yr"
      }
    },
    {
      "type": "Feature",
      "geometry": {
        "type": "LineString",
        "coordinates": [
          [
            -115.35629202299528,
            39.66486044005223
          ],
          [
            -115.35630753959518,
            39.66170599601517
          ],
          [
            -115.35652084725433,
            39.658989883836846
          ],
          [
            -115.35623136425573,
            39.65638432929934
          ],
          [
            -115.35607078141553,
            39.65445044067539
          ],
          [
            -115.3561546454355,
            39.65214599579109
          ],
          [
            -115.35611685510814,
            39.651177107286095
          ]
        ]
      },
      "properties": {
        "fault_name": "Butte Mountains fault zone",
        "age": "late Quaternary",
        "slip_rate": "Less than 0.2 mm/yr"
      }
    },
    {
      "type": "Feature",
      "geometry": {
        "type": "LineString",
        "coordinates": [
          [
            -115.3542239754471,
            39.60067433531059
          ],
          [
            -115.35395673114165,
            39.59933933623636
          ],
          [
            -115.35330831638977,
            39.59412100596025
          ],
          [
            -115.3530871610483,
            39.59092044996094
          ],
          [
            -115.3530637985627,
            39.58845600622417
          ],
          [
            -115.35314821414828,
            39.585946004991285
          ],
          [
            -115.35345320656027,
            39.58457266881466
          ]
        ]
      },
      "properties": {
        "fault_name": "Butte Mountains fault zone",
        "age": "late Quaternary",
        "slip_rate": "Less than 0.2 mm/yr"
      }
    },
    {
      "type": "Feature",
      "geometry": {
        "type": "LineString",
        "coordinates": [
          [
            -115.3395530800957,
            39.69785778228068
          ],
          [
            -115.33991196333992,
            39.69654944684427
          ],
          [
            -115.33998805244109,
            39.694520003191684
          ],
          [
            -115.34039248566009,
            39.69270777516862
          ],
          [
            -115.34108692739218,
            39.69094554707174
          ],
          [
            -115.34322307262877,
            39.68908775400113
          ],
          [
            -115.34500087271203,
            39.68690162976635
          ],
          [
            -115.3466564507127,
            39.68505939579681
          ],
          [
            -115.34855591861802,
            39.68285049380556
          ],
          [
            -115.3496320419379,
            39.68143548573476
          ],
          [
            -115.35096705343447,
            39.679337145229084
          ],
          [
            -115.35217261859691,
            39.677582690679515
          ],
          [
            -115.35254651089286,
            39.67687324568139
          ]
        ]
      },
      "properties": {
        "fault_name": "Butte Mountains fault zone",
        "age": "late Quaternary",
        "slip_rate": "Less than 0.2 mm/yr"
      }
    },
    {
      "type": "Feature",
      "geometry": {
        "type": "LineString",
        "coordinates": [
          [
            -115.34857050097003,
            39.60174991968541
          ],
          [
            -115.34829546827106,
            39.59965214326502
          ],
          [
            -115.34828821976502,
            39.597603810667415
          ],
          [
            -115.34831097409119,
            39.595456032239966
          ],
          [
            -115.34754035342638,
            39.59172159013959
          ],
          [
            -115.34719698588377,
            39.58968825912587
          ],
          [
            -115.34692974337493,
            39.588673259012054
          ]
        ]
      },
      "properties": {
        "fault_name": "Butte Mountains fault zone",
        "age": "late Quaternary",
        "slip_rate": "Less than 0.2 mm/yr"
      }
    },
    {
      "type": "Feature",
      "geometry": {
        "type": "LineString",
        "coordinates": [
          [
            -115.34631951331086,
            39.57081659121424
          ],
          [
            -115.34695227491889,
            39.56803991968771
          ],
          [
            -115.34763169592111,
            39.56459491686466
          ],
          [
            -115.3477994554021,
            39.56273324895271
          ],
          [
            -115.34782219355857,
            39.55920880432431
          ],
          [
            -115.34777604440747,
            39.55628269184393
          ],
          [
            -115.34769991128883,
            39.55453213716089
          ],
          [
            -115.34776879679976,
            39.55416158068999
          ]
        ]
      },
      "properties": {
        "fault_name": "Butte Mountains fault zone",
        "age": "late Quaternary",
        "slip_rate": "Less than 0.2 mm/yr"
      }
    },
    {
      "type": "Feature",
      "geometry": {
        "type": "LineString",
        "coordinates": [
          [
            -115.34500072808329,
            39.67492773871295
          ],
          [
            -115.34490903075402,
            39.67259662680528
          ],
          [
            -115.3452062338742,
            39.67016273482442
          ],
          [
            -115.34509232120796,
            39.66854551533587
          ],
          [
            -115.34525230487186,
            39.666893843685955
          ],
          [
            -115.34541226158629,
            39.6629838422441
          ],
          [
            -115.34488611742606,
            39.661198291654514
          ],
          [
            -115.34446607508067,
            39.65882218179946
          ],
          [
            -115.3440010460042,
            39.65734162915002
          ]
        ]
      },
      "properties": {
        "fault_name": "Butte Mountains fault zone",
        "age": "late Quaternary",
        "slip_rate": "Less than 0.2 mm/yr"
      }
    },
    {
      "type": "Feature",
      "geometry": {
        "type": "LineString",
        "coordinates": [
          [
            -115.33377668015513,
            39.59479610796378
          ],
          [
            -115.33385275757824,
            39.591851107271104
          ],
          [
            -115.33402051256765,
            39.58959665969819
          ],
          [
            -115.33363158966034,
            39.58754055026771
          ],
          [
            -115.33240319830652,
            39.58549944376901
          ],
          [
            -115.33138092269974,
            39.583363337298344
          ],
          [
            -115.32997696640344,
            39.581135564754184
          ],
          [
            -115.32864913244599,
            39.579480014974955
          ],
          [
            -115.3270240549442,
            39.576718356088456
          ],
          [
            -115.32616956936111,
            39.57528002465702
          ]
        ]
      },
      "properties": {
        "fault_name": "Butte Mountains fault zone",
        "age": "late Quaternary",
        "slip_rate": "Less than 0.2 mm/yr"
      }
    },
    {
      "type": "Feature",
      "geometry": {
        "type": "LineString",
        "coordinates": [
          [
            -115.33032043365905,
            39.591389457064004
          ],
          [
            -115.32980928327925,
            39.58928390279279
          ],
          [
            -115.32867200265481,
            39.58698724284571
          ],
          [
            -115.32764973064126,
            39.585221135105705
          ],
          [
            -115.3265741193611,
            39.58299725019707
          ],
          [
            -115.32551351443774,
            39.58129947689367
          ],
          [
            -115.32372788014692,
            39.578835595208446
          ],
          [
            -115.32306452102199,
            39.57820226486671
          ]
        ]
      },
      "properties": {
        "fault_name": "Butte Mountains fault zone",
        "age": "late Quaternary",
        "slip_rate": "Less than 0.2 mm/yr"
      }
    },
    {
      "type": "Feature",
      "geometry": {
        "type": "LineString",
        "coordinates": [
          [
            -115.35976367200523,
            39.655560417172644
          ],
          [
            -115.35957308723118,
            39.65366819679551
          ],
          [
            -115.35903859592533,
            39.650967644283824
          ],
          [
            -115.35887857183725,
            39.64916653327006
          ],
          [
            -115.35866465062875,
            39.64701931285831
          ]
        ]
      },
      "properties": {
        "fault_name": "Butte Mountains fault zone",
        "age": "late Quaternary",
        "slip_rate": "Less than 0.2 mm/yr"
      }
    },
    {
      "type": "Feature",
      "geometry": {
        "type": "LineString",
        "coordinates": [
          [
            -115.35819961706066,
            39.6451959842678
          ],
          [
            -115.35799346987262,
            39.642662650158414
          ],
          [
            -115.35782566727251,
            39.640999318157014
          ],
          [
            -115.35801620623248,
            39.63920653928041
          ],
          [
            -115.35818396481517,
            39.637276536727235
          ],
          [
            -115.35836728671013,
            39.635689315127216
          ]
        ]
      },
      "properties": {
        "fault_name": "Butte Mountains fault zone",
        "age": "late Quaternary",
        "slip_rate": "Less than 0.2 mm/yr"
      }
    },
    {
      "type": "Feature",
      "geometry": {
        "type": "LineString",
        "coordinates": [
          [
            -115.35289634720385,
            39.616108788751205
          ],
          [
            -115.354132452391,
            39.612904336768715
          ],
          [
            -115.35479632535228,
            39.60996322172356
          ],
          [
            -115.35500963301143,
            39.60729655272971
          ],
          [
            -115.35527683599436,
            39.60509210778203
          ],
          [
            -115.35534570713226,
            39.60345543999802
          ],
          [
            -115.3550706744333,
            39.60133433024671
          ]
        ]
      },
      "properties": {
        "fault_name": "Butte Mountains fault zone",
        "age": "late Quaternary",
        "slip_rate": "Less than 0.2 mm/yr"
      }
    },
    {
      "type": "Feature",
      "geometry": {
        "type": "LineString",
        "coordinates": [
          [
            -115.35410894078508,
            39.55157932809551
          ],
          [
            -115.3546733810242,
            39.550114325791895
          ],
          [
            -115.3549327956136,
            39.54698654576075
          ],
          [
            -115.3549633536046,
            39.54700932567013
          ]
        ]
      },
      "properties": {
        "fault_name": "Butte Mountains fault zone",
        "age": "late Quaternary",
        "slip_rate": "Less than 0.2 mm/yr"
      }
    },
    {
      "type": "Feature",
      "geometry": {
        "type": "LineString",
        "coordinates": [
          [
            -115.34738700112591,
            39.54423602489976
          ],
          [
            -115.34724975292353,
            39.542462134773984
          ],
          [
            -115.34766916734655,
            39.53889546579704
          ],
          [
            -115.34853915695312,
            39.53612212828777
          ],
          [
            -115.34901970801945,
            39.534584903277675
          ],
          [
            -115.34953859019889,
            39.53282212273634
          ],
          [
            -115.35027080698697,
            39.53075489695591
          ],
          [
            -115.35030136228306,
            39.53073212002556
          ]
        ]
      },
      "properties": {
        "fault_name": "Butte Mountains fault zone",
        "age": "late Quaternary",
        "slip_rate": "Less than 0.2 mm/yr"
      }
    },
    {
      "type": "Feature",
      "geometry": {
        "type": "LineString",
        "coordinates": [
          [
            -115.33868285333386,
            39.63491165325939
          ],
          [
            -115.33891172430532,
            39.63274831804009
          ],
          [
            -115.34070450559258,
            39.628994971787115
          ],
          [
            -115.34260452775844,
            39.626629958798105
          ],
          [
            -115.34629679222239,
            39.62181938313297
          ],
          [
            -115.3479523693247,
            39.61990826288865
          ],
          [
            -115.34931850205598,
            39.61859214366716
          ],
          [
            -115.35020351508736,
            39.61779880366781
          ]
        ]
      },
      "properties": {
        "fault_name": "Butte Mountains fault zone",
        "age": "late Quaternary",
        "slip_rate": "Less than 0.2 mm/yr"
      }
    },
    {
      "type": "Feature",
      "geometry": {
        "type": "LineString",
        "coordinates": [
          [
            -115.34776879679976,
            39.55416158068999
          ],
          [
            -115.34778379058018,
            39.55365824720775
          ],
          [
            -115.3474787415743,
            39.550267137275455
          ],
          [
            -115.34761594755587,
            39.54840546922106
          ],
          [
            -115.34773813640079,
            39.545574911046394
          ]
        ]
      },
      "properties": {
        "fault_name": "Butte Mountains fault zone",
        "age": "late Quaternary",
        "slip_rate": "Less than 0.2 mm/yr"
      }
    },
    {
      "type": "Feature",
      "geometry": {
        "type": "LineString",
        "coordinates": [
          [
            -115.34579297658688,
            39.58280659784549
          ],
          [
            -115.34416010709826,
            39.579052714758475
          ],
          [
            -115.34209277640569,
            39.57460494714477
          ],
          [
            -115.33921598459037,
            39.57085495877178
          ],
          [
            -115.33669087063235,
            39.5670671922127
          ],
          [
            -115.334996905823,
            39.56469442117385
          ],
          [
            -115.33406574543716,
            39.562516090755366
          ],
          [
            -115.33199842642267,
            39.55935387569969
          ],
          [
            -115.33129616485604,
            39.55773610228618
          ],
          [
            -115.33057167896928,
            39.5559244377554
          ],
          [
            -115.33053333258478,
            39.554913324666416
          ]
        ]
      },
      "properties": {
        "fault_name": "Butte Mountains fault zone",
        "age": "late Quaternary",
        "slip_rate": "Less than 0.2 mm/yr"
      }
    },
    {
      "type": "Feature",
      "geometry": {
        "type": "LineString",
        "coordinates": [
          [
            -115.3440010460042,
            39.65734162915002
          ],
          [
            -115.34116254936941,
            39.65028053292843
          ]
        ]
      },
      "properties": {
        "fault_name": "Butte Mountains fault zone",
        "age": "late Quaternary",
        "slip_rate": "Less than 0.2 mm/yr"
      }
    },
    {
      "type": "Feature",
      "geometry": {
        "type": "LineString",
        "coordinates": [
          [
            -115.34190152059013,
            39.56317994231187
          ],
          [
            -115.34097091715975,
            39.561184946681095
          ],
          [
            -115.33927694875713,
            39.55844550966543
          ],
          [
            -115.33792631825273,
            39.555363291796226
          ],
          [
            -115.3365834626671,
            39.55195718774236
          ],
          [
            -115.33639288238466,
            39.5502288518363
          ],
          [
            -115.33633176640258,
            39.55008774280024
          ]
        ]
      },
      "properties": {
        "fault_name": "Butte Mountains fault zone",
        "age": "late Quaternary",
        "slip_rate": "Less than 0.2 mm/yr"
      }
    },
    {
      "type": "Feature",
      "geometry": {
        "type": "LineString",
        "coordinates": [
          [
            -115.34039194487431,
            39.647851092335785
          ],
          [
            -115.34037689270342,
            39.643616646109585
          ],
          [
            -115.33981184610148,
            39.6409577582618
          ],
          [
            -115.33919402078169,
            39.63837109730057
          ],
          [
            -115.33888898794548,
            39.636292207783896
          ],
          [
            -115.3389878708987,
            39.63571998430889
          ]
        ]
      },
      "properties": {
        "fault_name": "Butte Mountains fault zone",
        "age": "late Quaternary",
        "slip_rate": "Less than 0.2 mm/yr"
      }
    },
    {
      "type": "Feature",
      "geometry": {
        "type": "LineString",
        "coordinates": [
          [
            -115.33321306456946,
            39.71070561066018
          ],
          [
            -115.33395361682507,
            39.708645603711666
          ],
          [
            -115.33528085160623,
            39.706753925771174
          ],
          [
            -115.33655474801904,
            39.70456002821531
          ],
          [
            -115.33750085816786,
            39.70240890878534
          ],
          [
            -115.33878253129613,
            39.70010056597636
          ],
          [
            -115.33921753059097,
            39.69920834077542
          ]
        ]
      },
      "properties": {
        "fault_name": "Butte Mountains fault zone",
        "age": "late Quaternary",
        "slip_rate": "Less than 0.2 mm/yr"
      }
    },
    {
      "type": "Feature",
      "geometry": {
        "type": "LineString",
        "coordinates": [
          [
            -115.32356967514727,
            39.727223470227884
          ],
          [
            -115.32517968700344,
            39.72464067566241
          ],
          [
            -115.32659081544898,
            39.72295455475811
          ],
          [
            -115.3282691621488,
            39.72042176322381
          ],
          [
            -115.32926860976761,
            39.71848008773153
          ],
          [
            -115.32999360859236,
            39.716808971097294
          ],
          [
            -115.33109250061143,
            39.714547294914766
          ],
          [
            -115.3318169442774,
            39.712967844009114
          ]
        ]
      },
      "properties": {
        "fault_name": "Butte Mountains fault zone",
        "age": "late Quaternary",
        "slip_rate": "Less than 0.2 mm/yr"
      }
    },
    {
      "type": "Feature",
      "geometry": {
        "type": "LineString",
        "coordinates": [
          [
            -115.32655805928046,
            39.54136333682476
          ],
          [
            -115.32680247919114,
            39.53881166779121
          ],
          [
            -115.32540626996587,
            39.53393278124837
          ],
          [
            -115.32437620686386,
            39.531086672716484
          ],
          [
            -115.32364339089949,
            39.529580008742734
          ],
          [
            -115.32285780340376,
            39.52864556797472
          ]
        ]
      },
      "properties": {
        "fault_name": "Butte Mountains fault zone",
        "age": "late Quaternary",
        "slip_rate": "Less than 0.2 mm/yr"
      }
    },
    {
      "type": "Feature",
      "geometry": {
        "type": "LineString",
        "coordinates": [
          [
            -115.31826752638793,
            39.74487407666195
          ],
          [
            -115.31841250279669,
            39.74266518701564
          ],
          [
            -115.31864080693119,
            39.73970129296331
          ],
          [
            -115.31914467916062,
            39.73733628715532
          ],
          [
            -115.31935077065306,
            39.735127394909156
          ],
          [
            -115.31970130944661,
            39.73296850070979
          ],
          [
            -115.32013629616506,
            39.730904606656
          ]
        ]
      },
      "properties": {
        "fault_name": "Butte Mountains fault zone",
        "age": "late Quaternary",
        "slip_rate": "Less than 0.2 mm/yr"
      }
    },
    {
      "type": "Feature",
      "geometry": {
        "type": "LineString",
        "coordinates": [
          [
            -115.31528992563143,
            39.583412863803694
          ],
          [
            -115.31383263366175,
            39.580929536323325
          ],
          [
            -115.31149031428764,
            39.57822510030106
          ],
          [
            -115.30887299275732,
            39.57576844398022
          ],
          [
            -115.30573731456194,
            39.57291512375597
          ],
          [
            -115.30259386144779,
            39.569947358287756
          ],
          [
            -115.30029765888544,
            39.56779181085162
          ],
          [
            -115.29826813468992,
            39.565926820259286
          ],
          [
            -115.2956663594039,
            39.56289405011213
          ],
          [
            -115.29512466810101,
            39.56200905115207
          ]
        ]
      },
      "properties": {
        "fault_name": "Butte Mountains fault zone",
        "age": "late Quaternary",
        "slip_rate": "Less than 0.2 mm/yr"
      }
    },
    {
      "type": "Feature",
      "geometry": {
        "type": "LineString",
        "coordinates": [
          [
            -115.31411063978432,
            39.866234111669236
          ],
          [
            -115.31301225890662,
            39.86481523700018
          ],
          [
            -115.31195942710542,
            39.86272469868891
          ],
          [
            -115.31118104499659,
            39.86053138026184
          ],
          [
            -115.31029600142247,
            39.858765284163646
          ],
          [
            -115.30970095198839,
            39.85622863422211
          ],
          [
            -115.30948703437315,
            39.854469755918224
          ],
          [
            -115.30947925586109,
            39.85442420001142
          ]
        ]
      },
      "properties": {
        "fault_name": "Butte Mountains fault zone",
        "age": "late Quaternary",
        "slip_rate": "Less than 0.2 mm/yr"
      }
    },
    {
      "type": "Feature",
      "geometry": {
        "type": "LineString",
        "coordinates": [
          [
            -115.3006128283113,
            39.76171249511986
          ],
          [
            -115.30174950975943,
            39.760506936060594
          ],
          [
            -115.30345064492138,
            39.75912581922015
          ],
          [
            -115.3064723754162,
            39.757626913312464
          ],
          [
            -115.30824963291705,
            39.75677579131844
          ],
          [
            -115.31036299597974,
            39.75473523133268
          ],
          [
            -115.3119580131572,
            39.752869670848
          ]
        ]
      },
      "properties": {
        "fault_name": "Butte Mountains fault zone",
        "age": "late Quaternary",
        "slip_rate": "Less than 0.2 mm/yr"
      }
    },
    {
      "type": "Feature",
      "geometry": {
        "type": "LineString",
        "coordinates": [
          [
            -115.30371476398797,
            39.875293994317815
          ],
          [
            -115.30660580757527,
            39.8689408327028
          ],
          [
            -115.3075337987048,
            39.8655144102713
          ],
          [
            -115.30828332782504,
            39.86265905669361
          ],
          [
            -115.30899871916785,
            39.85686196885266
          ],
          [
            -115.30876978980592,
            39.85418365108148
          ],
          [
            -115.30839582205145,
            39.848839234682515
          ],
          [
            -115.30788465460363,
            39.84544814280608
          ],
          [
            -115.30763295564417,
            39.843487596675736
          ],
          [
            -115.30732792011304,
            39.84143538892728
          ],
          [
            -115.3069612179326,
            39.83924151223718
          ]
        ]
      },
      "properties": {
        "fault_name": "Butte Mountains fault zone",
        "age": "late Quaternary",
        "slip_rate": "Less than 0.2 mm/yr"
      }
    },
    {
      "type": "Feature",
      "geometry": {
        "type": "LineString",
        "coordinates": [
          [
            -115.3069612179326,
            39.83924151223718
          ],
          [
            -115.30482121083857,
            39.831964009923325
          ],
          [
            -115.30410737358122,
            39.82878742777513
          ],
          [
            -115.30264400540696,
            39.82471855082959
          ],
          [
            -115.30089510143145,
            39.82111366727982
          ],
          [
            -115.29846805116314,
            39.81643802473466
          ],
          [
            -115.29614807558508,
            39.81154823398353
          ],
          [
            -115.29482747486232,
            39.80772919919245
          ],
          [
            -115.29400656201635,
            39.805480608254214
          ],
          [
            -115.293922084447,
            39.803639559311726
          ]
        ]
      },
      "properties": {
        "fault_name": "Butte Mountains fault zone",
        "age": "late Quaternary",
        "slip_rate": "Less than 0.2 mm/yr"
      }
    },
    {
      "type": "Feature",
      "geometry": {
        "type": "LineString",
        "coordinates": [
          [
            -115.30059561659046,
            39.6271640926975
          ],
          [
            -115.29959612225926,
            39.625466319762964
          ],
          [
            -115.29874160703177,
            39.62147243099607
          ],
          [
            -115.29799375416783,
            39.6170663202506
          ],
          [
            -115.29750535362258,
            39.61261465176242
          ],
          [
            -115.29698641395093,
            39.6096585397711
          ],
          [
            -115.29715471601435,
            39.606713535672704
          ],
          [
            -115.29687968241709,
            39.604615200188526
          ],
          [
            -115.2962235250858,
            39.602299647807726
          ],
          [
            -115.29530792621561,
            39.60067853878042
          ]
        ]
      },
      "properties": {
        "fault_name": "Butte Mountains fault zone",
        "age": "late Quaternary",
        "slip_rate": "Less than 0.2 mm/yr"
      }
    },
    {
      "type": "Feature",
      "geometry": {
        "type": "LineString",
        "coordinates": [
          [
            -115.29476323004815,
            39.795815237765204
          ],
          [
            -115.29527719395142,
            39.791646420941035
          ],
          [
            -115.29584826375732,
            39.78799157017614
          ],
          [
            -115.29681908386463,
            39.78530753902131
          ],
          [
            -115.29836097557452,
            39.7819953291938
          ],
          [
            -115.29853229507899,
            39.77748386869594
          ],
          [
            -115.29904625988057,
            39.77325794725237
          ],
          [
            -115.29944600928371,
            39.76908913208217
          ],
          [
            -115.29967443738572,
            39.766747743243485
          ],
          [
            -115.30041682759439,
            39.76337842566265
          ]
        ]
      },
      "properties": {
        "fault_name": "Butte Mountains fault zone",
        "age": "late Quaternary",
        "slip_rate": "Less than 0.2 mm/yr"
      }
    },
    {
      "type": "Feature",
      "geometry": {
        "type": "LineString",
        "coordinates": [
          [
            -115.29925327394285,
            39.88525203902565
          ],
          [
            -115.29986003740824,
            39.882824988085304
          ],
          [
            -115.30007418768717,
            39.87954133201524
          ],
          [
            -115.29991984274831,
            39.87595804766094
          ],
          [
            -115.30001149875507,
            39.87478694088597
          ]
        ]
      },
      "properties": {
        "fault_name": "Butte Mountains fault zone",
        "age": "late Quaternary",
        "slip_rate": "Less than 0.2 mm/yr"
      }
    },
    {
      "type": "Feature",
      "geometry": {
        "type": "LineString",
        "coordinates": [
          [
            -115.27963316443251,
            39.9147918711641
          ],
          [
            -115.28122759860334,
            39.91094632473814
          ],
          [
            -115.28306649400739,
            39.90781466274194
          ],
          [
            -115.28514151068553,
            39.905106330341106
          ],
          [
            -115.28675151984676,
            39.90271022066451
          ],
          [
            -115.28818597215033,
            39.900501890738035
          ],
          [
            -115.2900093186151,
            39.897968558111835
          ],
          [
            -115.2914359959999,
            39.895920225005874
          ],
          [
            -115.29297712414177,
            39.894123556682636
          ],
          [
            -115.29457763182224,
            39.892747341234234
          ],
          [
            -115.29732591065299,
            39.89003475607444
          ],
          [
            -115.29925327394285,
            39.88525203902565
          ]
        ]
      },
      "properties": {
        "fault_name": "Butte Mountains fault zone",
        "age": "late Quaternary",
        "slip_rate": "Less than 0.2 mm/yr"
      }
    },
    {
      "type": "Feature",
      "geometry": {
        "type": "LineString",
        "coordinates": [
          [
            -115.25384026976926,
            39.949559490137126
          ],
          [
            -115.25762242325375,
            39.943115744143036
          ],
          [
            -115.25913456904965,
            39.94206418923672
          ],
          [
            -115.26131177627788,
            39.94024390029827
          ],
          [
            -115.26453472490479,
            39.93596685331094
          ],
          [
            -115.26602973443826,
            39.933659077201376
          ],
          [
            -115.26803641717109,
            39.931110743715195
          ],
          [
            -115.27101997555455,
            39.9290723312788
          ],
          [
            -115.27430363232835,
            39.92764465392582
          ],
          [
            -115.27662360790642,
            39.9261099010952
          ],
          [
            -115.27769436469076,
            39.92443238210535
          ],
          [
            -115.27855097119625,
            39.9217554878069
          ],
          [
            -115.27963316443251,
            39.9147918711641
          ]
        ]
      },
      "properties": {
        "fault_name": "Butte Mountains fault zone",
        "age": "late Quaternary",
        "slip_rate": "Less than 0.2 mm/yr"
      }
    },
    {
      "type": "Feature",
      "geometry": {
        "type": "LineString",
        "coordinates": [
          [
            -115.24878391444469,
            39.95461584533705
          ],
          [
            -115.25384026976926,
            39.949559490137126
          ]
        ]
      },
      "properties": {
        "fault_name": "Butte Mountains fault zone",
        "age": "late Quaternary",
        "slip_rate": "Less than 0.2 mm/yr"
      }
    },
    {
      "type": "Feature",
      "geometry": {
        "type": "LineString",
        "coordinates": [
          [
            -115.22777609017838,
            39.985508411725995
          ],
          [
            -115.22887444410658,
            39.984718413296164
          ],
          [
            -115.23030890898657,
            39.98356674670551
          ],
          [
            -115.2337422951553,
            39.98046175181234
          ],
          [
            -115.23789787920175,
            39.97603099425966
          ],
          [
            -115.23950401482747,
            39.9734730729356
          ],
          [
            -115.24075323272282,
            39.96972542177129
          ],
          [
            -115.24093169293549,
            39.966929555925525
          ],
          [
            -115.24384653199637,
            39.96371728295797
          ],
          [
            -115.24569061337453,
            39.96074295623562
          ],
          [
            -115.248248534705,
            39.95836349575922
          ],
          [
            -115.24925980594958,
            39.956281468006075
          ]
        ]
      },
      "properties": {
        "fault_name": "Butte Mountains fault zone",
        "age": "late Quaternary",
        "slip_rate": "Less than 0.2 mm/yr"
      }
    },
    {
      "type": "Feature",
      "geometry": {
        "type": "LineString",
        "coordinates": [
          [
            -115.22702035459783,
            39.973106817750136
          ],
          [
            -115.22920982472804,
            39.970585158271966
          ],
          [
            -115.23151428909604,
            39.96735016724118
          ],
          [
            -115.23325374369308,
            39.96465739890542
          ],
          [
            -115.2349015207238,
            39.961159077080886
          ],
          [
            -115.23625206678658,
            39.957745202883125
          ],
          [
            -115.23671760880109,
            39.95586465573983
          ],
          [
            -115.23728981228089,
            39.95325133434216
          ],
          [
            -115.23734313897108,
            39.95262967193494
          ]
        ]
      },
      "properties": {
        "fault_name": "Butte Mountains fault zone",
        "age": "late Quaternary",
        "slip_rate": "Less than 0.2 mm/yr"
      }
    },
    {
      "type": "Feature",
      "geometry": {
        "type": "LineString",
        "coordinates": [
          [
            -115.49866003588379,
            39.59162136107378
          ],
          [
            -115.4995294873995,
            39.59011080368693
          ],
          [
            -115.50076560695972,
            39.587989690939
          ],
          [
            -115.50181840821818,
            39.58622746486873
          ],
          [
            -115.50250508311632,
            39.584602462712404
          ],
          [
            -115.50419901558632,
            39.58220301009982
          ],
          [
            -115.50509902958466,
            39.580284117802755
          ],
          [
            -115.5055034708885,
            39.57833078670041
          ],
          [
            -115.50570178566556,
            39.57605356923097
          ],
          [
            -115.50586177022777,
            39.57405079485561
          ]
        ]
      },
      "properties": {
        "fault_name": "West Long Valley fault",
        "age": "late Quaternary",
        "slip_rate": "Less than 0.2 mm/yr"
      }
    },
    {
      "type": "Feature",
      "geometry": {
        "type": "LineString",
        "coordinates": [
          [
            -115.5137443862346,
            39.629531701308906
          ],
          [
            -115.51395770826682,
            39.627921702974426
          ],
          [
            -115.51444604143842,
            39.62601448200044
          ],
          [
            -115.51495715678394,
            39.62440836998304
          ],
          [
            -115.51581938314982,
            39.62174948066599
          ],
          [
            -115.51636105379143,
            39.62018948027995
          ],
          [
            -115.51714662242254,
            39.61817503400047
          ],
          [
            -115.51799384243162,
            39.615005034784
          ],
          [
            -115.51849718196004,
            39.613700588860965
          ]
        ]
      },
      "properties": {
        "fault_name": "West Long Valley fault",
        "age": "late Quaternary",
        "slip_rate": "Less than 0.2 mm/yr"
      }
    },
    {
      "type": "Feature",
      "geometry": {
        "type": "LineString",
        "coordinates": [
          [
            -115.51842880399725,
            39.61008448926598
          ],
          [
            -115.51745929722688,
            39.6080700582624
          ],
          [
            -115.5157197420185,
            39.60459508170838
          ],
          [
            -115.51398797700033,
            39.602153435669564
          ],
          [
            -115.51201175883374,
            39.59994123602447
          ],
          [
            -115.51035611256113,
            39.598056810087314
          ],
          [
            -115.50881492243552,
            39.59651571478836
          ]
        ]
      },
      "properties": {
        "fault_name": "West Long Valley fault",
        "age": "late Quaternary",
        "slip_rate": "Less than 0.2 mm/yr"
      }
    },
    {
      "type": "Feature",
      "geometry": {
        "type": "LineString",
        "coordinates": [
          [
            -115.51720080341059,
            39.64412663225153
          ],
          [
            -115.51609406101424,
            39.64155164893028
          ],
          [
            -115.51511732639909,
            39.63889666423528
          ],
          [
            -115.515125095928,
            39.63829388767038
          ]
        ]
      },
      "properties": {
        "fault_name": "West Long Valley fault",
        "age": "late Quaternary",
        "slip_rate": "Less than 0.2 mm/yr"
      }
    },
    {
      "type": "Feature",
      "geometry": {
        "type": "LineString",
        "coordinates": [
          [
            -115.51239426327834,
            39.67303049225589
          ],
          [
            -115.51264590474561,
            39.66981105284531
          ],
          [
            -115.51348535073421,
            39.66687383113141
          ],
          [
            -115.5141870212094,
            39.66476382978318
          ],
          [
            -115.51512536991416,
            39.66263160368775
          ],
          [
            -115.51607926665984,
            39.65988493721016
          ],
          [
            -115.51621647174306,
            39.65783271607341
          ],
          [
            -115.51605645843479,
            39.65711938690605
          ]
        ]
      },
      "properties": {
        "fault_name": "West Long Valley fault",
        "age": "late Quaternary",
        "slip_rate": "Less than 0.2 mm/yr"
      }
    },
    {
      "type": "Feature",
      "geometry": {
        "type": "LineString",
        "coordinates": [
          [
            -115.5156825140365,
            39.65359439875437
          ],
          [
            -115.51494245226105,
            39.65068052489449
          ],
          [
            -115.51352289941478,
            39.64638110628519
          ],
          [
            -115.51301951317397,
            39.64347445026243
          ],
          [
            -115.5121422310439,
            39.6414372419549
          ],
          [
            -115.51102048139242,
            39.63813003707983
          ]
        ]
      },
      "properties": {
        "fault_name": "West Long Valley fault",
        "age": "late Quaternary",
        "slip_rate": "Less than 0.2 mm/yr"
      }
    },
    {
      "type": "Feature",
      "geometry": {
        "type": "LineString",
        "coordinates": [
          [
            -115.51465834567941,
            39.533703050251795
          ],
          [
            -115.51363606019112,
            39.5317802848087
          ],
          [
            -115.51177427840858,
            39.52835086276826
          ],
          [
            -115.51075197764895,
            39.52513865530504
          ],
          [
            -115.51044693672793,
            39.52259810812942
          ],
          [
            -115.50915739974769,
            39.51913090430829
          ],
          [
            -115.50802065811243,
            39.51667425116878
          ],
          [
            -115.50652501706328,
            39.51451482178166
          ],
          [
            -115.50539605214347,
            39.511920947210335
          ],
          [
            -115.50404541535083,
            39.50962485072314
          ]
        ]
      },
      "properties": {
        "fault_name": "West Long Valley fault",
        "age": "late Quaternary",
        "slip_rate": "Less than 0.2 mm/yr"
      }
    },
    {
      "type": "Feature",
      "geometry": {
        "type": "LineString",
        "coordinates": [
          [
            -115.50586177022777,
            39.57405079485561
          ],
          [
            -115.50601453592836,
            39.57241801775801
          ],
          [
            -115.50590005642519,
            39.569748025986456
          ],
          [
            -115.50561778240672,
            39.56617359370036
          ],
          [
            -115.50430545067614,
            39.561275281664905
          ],
          [
            -115.50259643459417,
            39.55637364131512
          ],
          [
            -115.50116966468293,
            39.552211994273264
          ],
          [
            -115.50091741056463,
            39.550274223192915
          ],
          [
            -115.50019292198292,
            39.548168120911456
          ],
          [
            -115.49978066982767,
            39.54662312532797
          ]
        ]
      },
      "properties": {
        "fault_name": "West Long Valley fault",
        "age": "late Quaternary",
        "slip_rate": "Less than 0.2 mm/yr"
      }
    },
    {
      "type": "Feature",
      "geometry": {
        "type": "LineString",
        "coordinates": [
          [
            -115.48212102023722,
            39.766620520216804
          ],
          [
            -115.48320434355409,
            39.76347718770065
          ],
          [
            -115.48612602598077,
            39.75819384885411
          ],
          [
            -115.48946051482328,
            39.75445883495729
          ],
          [
            -115.49243556705932,
            39.752151038668465
          ],
          [
            -115.49550283944411,
            39.749542133690284
          ],
          [
            -115.49744842775445,
            39.74781767832728
          ],
          [
            -115.49966124420057,
            39.74604766531703
          ],
          [
            -115.50148462120806,
            39.74471265183309
          ],
          [
            -115.50335357693645,
            39.743789300787945
          ],
          [
            -115.50375025410129,
            39.74333540825196
          ]
        ]
      },
      "properties": {
        "fault_name": "West Long Valley fault",
        "age": "late Quaternary",
        "slip_rate": "Less than 0.2 mm/yr"
      }
    },
    {
      "type": "Feature",
      "geometry": {
        "type": "LineString",
        "coordinates": [
          [
            -115.49958230923654,
            39.54473146397007
          ],
          [
            -115.50359567021059,
            39.533981463176566
          ]
        ]
      },
      "properties": {
        "fault_name": "West Long Valley fault",
        "age": "late Quaternary",
        "slip_rate": "Less than 0.2 mm/yr"
      }
    },
    {
      "type": "Feature",
      "geometry": {
        "type": "LineString",
        "coordinates": [
          [
            -115.48938155470643,
            39.55176149414525
          ],
          [
            -115.48977098965342,
            39.55013316204278
          ],
          [
            -115.48990819383837,
            39.54822149823781
          ],
          [
            -115.49000706331687,
            39.5462459473421
          ],
          [
            -115.48954201717235,
            39.543270399338525
          ],
          [
            -115.48957257426508,
            39.54324762166546
          ]
        ]
      },
      "properties": {
        "fault_name": "West Long Valley fault",
        "age": "late Quaternary",
        "slip_rate": "Less than 0.2 mm/yr"
      }
    },
    {
      "type": "Feature",
      "geometry": {
        "type": "LineString",
        "coordinates": [
          [
            -115.48433870555216,
            39.557869280215705
          ],
          [
            -115.48418589583412,
            39.55545039918655
          ],
          [
            -115.48419365637986,
            39.55381429029364
          ],
          [
            -115.48422419370962,
            39.552223183197825
          ],
          [
            -115.48472751437343,
            39.549816521311584
          ]
        ]
      },
      "properties": {
        "fault_name": "West Long Valley fault",
        "age": "late Quaternary",
        "slip_rate": "Less than 0.2 mm/yr"
      }
    },
    {
      "type": "Feature",
      "geometry": {
        "type": "LineString",
        "coordinates": [
          [
            -115.47543051173155,
            39.832847029715666
          ],
          [
            -115.47676551873651,
            39.83051258309629
          ],
          [
            -115.47793274020935,
            39.827884251291174
          ],
          [
            -115.47858161939023,
            39.825587586267375
          ],
          [
            -115.4797027177631,
            39.822078144891734
          ],
          [
            -115.48052660403269,
            39.82001814390362
          ],
          [
            -115.48142716330838,
            39.81839314289314
          ],
          [
            -115.4824188252286,
            39.815642588797296
          ],
          [
            -115.4827621433639,
            39.81359815022202
          ]
        ]
      },
      "properties": {
        "fault_name": "West Long Valley fault",
        "age": "late Quaternary",
        "slip_rate": "Less than 0.2 mm/yr"
      }
    },
    {
      "type": "Feature",
      "geometry": {
        "type": "LineString",
        "coordinates": [
          [
            -115.47758159684963,
            39.77878940527339
          ],
          [
            -115.47818381663633,
            39.777209962040395
          ],
          [
            -115.47918326156018,
            39.7749171838234
          ],
          [
            -115.48000770478524,
            39.77301384973981
          ],
          [
            -115.48091548202426,
            39.77090829393687
          ],
          [
            -115.48177769761034,
            39.768482184034646
          ]
        ]
      },
      "properties": {
        "fault_name": "West Long Valley fault",
        "age": "late Quaternary",
        "slip_rate": "Less than 0.2 mm/yr"
      }
    },
    {
      "type": "Feature",
      "geometry": {
        "type": "LineString",
        "coordinates": [
          [
            -115.4730572166498,
            39.794154947246824
          ],
          [
            -115.4739499884303,
            39.791682727110356
          ],
          [
            -115.4749416422657,
            39.78847106069851
          ],
          [
            -115.47578107657623,
            39.785766065782845
          ],
          [
            -115.47624606433021,
            39.78356162303793
          ],
          [
            -115.47673438672201,
            39.78168051480423
          ],
          [
            -115.47675715362458,
            39.780666072095606
          ]
        ]
      },
      "properties": {
        "fault_name": "West Long Valley fault",
        "age": "late Quaternary",
        "slip_rate": "Less than 0.2 mm/yr"
      }
    },
    {
      "type": "Feature",
      "geometry": {
        "type": "LineString",
        "coordinates": [
          [
            -115.46966943525311,
            39.80147883795481
          ],
          [
            -115.47066166041702,
            39.79954105877049
          ],
          [
            -115.47205000758696,
            39.79759549767188
          ],
          [
            -115.47257667815992,
            39.79677549783296
          ]
        ]
      },
      "properties": {
        "fault_name": "West Long Valley fault",
        "age": "late Quaternary",
        "slip_rate": "Less than 0.2 mm/yr"
      }
    },
    {
      "type": "Feature",
      "geometry": {
        "type": "LineString",
        "coordinates": [
          [
            -115.46804446015923,
            39.807128831729926
          ],
          [
            -115.4690211121294,
            39.803710501983154
          ]
        ]
      },
      "properties": {
        "fault_name": "West Long Valley fault",
        "age": "late Quaternary",
        "slip_rate": "Less than 0.2 mm/yr"
      }
    },
    {
      "type": "Feature",
      "geometry": {
        "type": "LineString",
        "coordinates": [
          [
            -115.46497002909994,
            39.8150516048872
          ],
          [
            -115.46702223036651,
            39.80872716620001
          ]
        ]
      },
      "properties": {
        "fault_name": "West Long Valley fault",
        "age": "late Quaternary",
        "slip_rate": "Less than 0.2 mm/yr"
      }
    },
    {
      "type": "Feature",
      "geometry": {
        "type": "LineString",
        "coordinates": [
          [
            -115.36786252417905,
            39.95077117228272
          ],
          [
            -115.36790804181449,
            39.94771174131909
          ],
          [
            -115.36815188680342,
            39.94368342326838
          ],
          [
            -115.36832740144027,
            39.94000232587105
          ],
          [
            -115.36932683378771,
            39.93706511189898
          ],
          [
            -115.37072292263873,
            39.93257512120825
          ],
          [
            -115.37234068066762,
            39.92757791125173
          ],
          [
            -115.37304232598996,
            39.92443069634153
          ],
          [
            -115.37376730774673,
            39.921470705321475
          ],
          [
            -115.37501063089718,
            39.91826237687398
          ],
          [
            -115.3768189745984,
            39.91520293381025
          ],
          [
            -115.37816175472555,
            39.91275793729331
          ],
          [
            -115.3795501027938,
            39.91093793629063
          ],
          [
            -115.38157235063555,
            39.908985153000174
          ],
          [
            -115.38212124642695,
            39.90848126212711
          ]
        ]
      },
      "properties": {
        "fault_name": "unnamed faults in western Long Valley",
        "age": "undifferentiated Quaternary",
        "slip_rate": "Less than 0.2 mm/yr"
      }
    },
    {
      "type": "Feature",
      "geometry": {
        "type": "LineString",
        "coordinates": [
          [
            -115.37107451335949,
            39.97008884970909
          ],
          [
            -115.37162393376704,
            39.967078860787666
          ],
          [
            -115.37226445232754,
            39.96292109615811
          ],
          [
            -115.37197496304073,
            39.95997222020495
          ],
          [
            -115.37067768258271,
            39.95788168177217
          ],
          [
            -115.36912872202988,
            39.95514281327693
          ],
          [
            -115.36813700171916,
            39.95296449513782
          ]
        ]
      },
      "properties": {
        "fault_name": "unnamed faults in western Long Valley",
        "age": "undifferentiated Quaternary",
        "slip_rate": "Less than 0.2 mm/yr"
      }
    },
    {
      "type": "Feature",
      "geometry": {
        "type": "LineString",
        "coordinates": [
          [
            -115.36683285723407,
            39.97960994480515
          ],
          [
            -115.3666267244191,
            39.978133841999444
          ],
          [
            -115.36713004328625,
            39.97599773602054
          ],
          [
            -115.36842725996387,
            39.97313662978839
          ],
          [
            -115.36891558594894,
            39.971419968038354
          ]
        ]
      },
      "properties": {
        "fault_name": "unnamed faults in western Long Valley",
        "age": "undifferentiated Quaternary",
        "slip_rate": "Less than 0.2 mm/yr"
      }
    },
    {
      "type": "Feature",
      "geometry": {
        "type": "LineString",
        "coordinates": [
          [
            -115.50661163801288,
            39.75686589794936
          ],
          [
            -115.50687106428042,
            39.75447034617156
          ],
          [
            -115.50779438956036,
            39.75043034708452
          ],
          [
            -115.50885494956795,
            39.747039234104726
          ],
          [
            -115.51041107867673,
            39.74288867079945
          ],
          [
            -115.5116166456358,
            39.7394519986586
          ],
          [
            -115.5126316565669,
            39.73678921715183
          ],
          [
            -115.51275332438898,
            39.73642310599085
          ]
        ]
      },
      "properties": {
        "fault_name": "Alligator Ridge fault",
        "age": "undifferentiated Quaternary",
        "slip_rate": "Less than 0.2 mm/yr"
      }
    },
    {
      "type": "Feature",
      "geometry": {
        "type": "LineString",
        "coordinates": [
          [
            -115.509129811587,
            39.7819474712532
          ],
          [
            -115.5091375694378,
            39.78015469676047
          ],
          [
            -115.50927477002944,
            39.777827478846866
          ],
          [
            -115.50887802998254,
            39.77291805229029
          ],
          [
            -115.50830574026449,
            39.769134179082855
          ],
          [
            -115.50838181589094,
            39.76588752128343
          ],
          [
            -115.50819900064577,
            39.76335475227944
          ],
          [
            -115.5083589843097,
            39.7613064217381
          ],
          [
            -115.5086411972427,
            39.75953642314816
          ],
          [
            -115.50880175223513,
            39.758895313874504
          ]
        ]
      },
      "properties": {
        "fault_name": "Alligator Ridge fault",
        "age": "undifferentiated Quaternary",
        "slip_rate": "Less than 0.2 mm/yr"
      }
    },
    {
      "type": "Feature",
      "geometry": {
        "type": "LineString",
        "coordinates": [
          [
            -115.50002842158978,
            39.83695906824659
          ],
          [
            -115.50152341944519,
            39.83274017824963
          ],
          [
            -115.50287398257596,
            39.82844851291333
          ],
          [
            -115.50437730961066,
            39.82250518074538
          ],
          [
            -115.50549843044143,
            39.81915629166467
          ],
          [
            -115.50601731890912,
            39.81736684875678
          ],
          [
            -115.50691786111682,
            39.813071295987584
          ],
          [
            -115.50702450641239,
            39.81074852385349
          ],
          [
            -115.50757393670143,
            39.80778463769851
          ],
          [
            -115.50746668594131,
            39.805617422978145
          ],
          [
            -115.50681827478274,
            39.80121188620711
          ],
          [
            -115.5061926125604,
            39.79439079967342
          ],
          [
            -115.50627646490226,
            39.790938585204366
          ],
          [
            -115.5066581186423,
            39.78834081229823
          ],
          [
            -115.50719199909375,
            39.785765811751126
          ],
          [
            -115.50744365583242,
            39.78397692522481
          ],
          [
            -115.50747421023016,
            39.78379359419902
          ]
        ]
      },
      "properties": {
        "fault_name": "Alligator Ridge fault",
        "age": "undifferentiated Quaternary",
        "slip_rate": "Less than 0.2 mm/yr"
      }
    },
    {
      "type": "Feature",
      "geometry": {
        "type": "LineString",
        "coordinates": [
          [
            -115.49268907971734,
            39.86218959923823
          ],
          [
            -115.49349018471129,
            39.859809046296064
          ],
          [
            -115.49383350015162,
            39.85757738284649
          ],
          [
            -115.49476404788645,
            39.85491905029155
          ],
          [
            -115.49569459292634,
            39.851935720248875
          ],
          [
            -115.49676292515774,
            39.84944071914789
          ],
          [
            -115.49699958542104,
            39.848342388789014
          ]
        ]
      },
      "properties": {
        "fault_name": "Alligator Ridge fault",
        "age": "undifferentiated Quaternary",
        "slip_rate": "Less than 0.2 mm/yr"
      }
    },
    {
      "type": "Feature",
      "geometry": {
        "type": "LineString",
        "coordinates": [
          [
            -115.56767728115908,
            39.541053195658584
          ],
          [
            -115.56785280118581,
            39.5373037623332
          ],
          [
            -115.56867666320088,
            39.53192488628289
          ],
          [
            -115.56982111777117,
            39.52852988869999
          ],
          [
            -115.57060723617124,
            39.52637822529679
          ],
          [
            -115.57170558470956,
            39.52367378291403
          ],
          [
            -115.57246114601695,
            39.521518231281114
          ],
          [
            -115.57313281904983,
            39.51950045523376
          ],
          [
            -115.57407116775457,
            39.51736767666878
          ],
          [
            -115.57460504371446,
            39.51435823987202
          ],
          [
            -115.57467391664895,
            39.512653244736036
          ],
          [
            -115.57421609116275,
            39.51018492423996
          ]
        ]
      },
      "properties": {
        "fault_name": "Newark Valley fault zone",
        "age": "middle and late Quaternary",
        "slip_rate": "Less than 0.2 mm/yr"
      }
    },
    {
      "type": "Feature",
      "geometry": {
        "type": "LineString",
        "coordinates": [
          [
            -115.5609637335613,
            39.54666100268039
          ],
          [
            -115.56104759578466,
            39.543967678199834
          ],
          [
            -115.56132201583259,
            39.54081713220065
          ],
          [
            -115.56185589718238,
            39.5382915809924
          ],
          [
            -115.5619247701169,
            39.53651769688621
          ]
        ]
      },
      "properties": {
        "fault_name": "Newark Valley fault zone",
        "age": "middle and late Quaternary",
        "slip_rate": "Less than 0.2 mm/yr"
      }
    },
    {
      "type": "Feature",
      "geometry": {
        "type": "LineString",
        "coordinates": [
          [
            -115.55478321301548,
            39.52286890519939
          ],
          [
            -115.55528653637424,
            39.520248353859735
          ],
          [
            -115.55579764902481,
            39.51846280119945
          ],
          [
            -115.55657597992969,
            39.51547613765583
          ],
          [
            -115.5576593346876,
            39.513438915747024
          ],
          [
            -115.55791878071805,
            39.512500583994964
          ]
        ]
      },
      "properties": {
        "fault_name": "Newark Valley fault zone",
        "age": "middle and late Quaternary",
        "slip_rate": "Less than 0.2 mm/yr"
      }
    },
    {
      "type": "Feature",
      "geometry": {
        "type": "LineString",
        "coordinates": [
          [
            -115.55313494101304,
            39.53449999017361
          ],
          [
            -115.55344826529931,
            39.53256943922043
          ],
          [
            -115.55411937868176,
            39.53034555126857
          ],
          [
            -115.55490549977678,
            39.52828166418175
          ],
          [
            -115.55536327495737,
            39.5263972231995
          ],
          [
            -115.55539327689121,
            39.52630611179396
          ]
        ]
      },
      "properties": {
        "fault_name": "Newark Valley fault zone",
        "age": "middle and late Quaternary",
        "slip_rate": "Less than 0.2 mm/yr"
      }
    },
    {
      "type": "Feature",
      "geometry": {
        "type": "LineString",
        "coordinates": [
          [
            -115.62504592302486,
            39.60552859296253
          ],
          [
            -115.62757934100935,
            39.603743579050324
          ],
          [
            -115.62966940806177,
            39.601969681334865
          ],
          [
            -115.63195837559283,
            39.60068411272083
          ],
          [
            -115.63198893268556,
            39.60066466725975
          ]
        ]
      },
      "properties": {
        "fault_name": "unnamed fault east of Buck Mountain",
        "age": "undifferentiated Quaternary",
        "slip_rate": "Less than 0.2 mm/yr"
      }
    },
    {
      "type": "Feature",
      "geometry": {
        "type": "LineString",
        "coordinates": [
          [
            -115.61548618741688,
            39.61451585677608
          ],
          [
            -115.61750790615089,
            39.61189140834269
          ],
          [
            -115.62072744656963,
            39.608610836785665
          ],
          [
            -115.62245194781043,
            39.607294718688806
          ],
          [
            -115.62296307483406,
            39.60686749380189
          ]
        ]
      },
      "properties": {
        "fault_name": "unnamed fault east of Buck Mountain",
        "age": "undifferentiated Quaternary",
        "slip_rate": "Less than 0.2 mm/yr"
      }
    },
    {
      "type": "Feature",
      "geometry": {
        "type": "LineString",
        "coordinates": [
          [
            -115.6007236701947,
            39.69205344906847
          ],
          [
            -115.60276815493297,
            39.68820844474806
          ],
          [
            -115.60448485071228,
            39.68448122067358
          ],
          [
            -115.60556819199547,
            39.6812195576635
          ],
          [
            -115.60697987559986,
            39.677550113859844
          ],
          [
            -115.60799432957548,
            39.67470789485404
          ],
          [
            -115.60856655461482,
            39.672781785287825
          ],
          [
            -115.6090321056125,
            39.67071401116018
          ],
          [
            -115.60905485544708,
            39.66818513319762
          ]
        ]
      },
      "properties": {
        "fault_name": "unnamed fault east of Buck Mountain",
        "age": "undifferentiated Quaternary",
        "slip_rate": "Less than 0.2 mm/yr"
      }
    },
    {
      "type": "Feature",
      "geometry": {
        "type": "LineString",
        "coordinates": [
          [
            -115.58016915558369,
            39.71191302584085
          ],
          [
            -115.58486930284694,
            39.70778188017107
          ],
          [
            -115.58854664090411,
            39.70452741228954
          ],
          [
            -115.59101837876459,
            39.70181906383509
          ],
          [
            -115.59272787275026,
            39.69985849906285
          ],
          [
            -115.59419235842871,
            39.69819904634557
          ],
          [
            -115.59526071940623,
            39.696780151740924
          ],
          [
            -115.59633630463526,
            39.69543348009311
          ],
          [
            -115.59746577889986,
            39.693880695919795
          ]
        ]
      },
      "properties": {
        "fault_name": "unnamed fault east of Buck Mountain",
        "age": "undifferentiated Quaternary",
        "slip_rate": "Less than 0.2 mm/yr"
      }
    },
    {
      "type": "Feature",
      "geometry": {
        "type": "LineString",
        "coordinates": [
          [
            -115.57238724880503,
            39.71895863619837
          ],
          [
            -115.57828465271268,
            39.71357248322411
          ]
        ]
      },
      "properties": {
        "fault_name": "unnamed fault east of Buck Mountain",
        "age": "undifferentiated Quaternary",
        "slip_rate": "Less than 0.2 mm/yr"
      }
    },
    {
      "type": "Feature",
      "geometry": {
        "type": "LineString",
        "coordinates": [
          [
            -115.56473481800492,
            39.728380906871536
          ],
          [
            -115.56703100709254,
            39.72695422132131
          ],
          [
            -115.57028111089218,
            39.72429919622579
          ],
          [
            -115.5725167436482,
            39.722945289340124
          ],
          [
            -115.57390512136081,
            39.72181194176014
          ],
          [
            -115.57536294513314,
            39.720515265779866
          ]
        ]
      },
      "properties": {
        "fault_name": "unnamed fault east of Buck Mountain",
        "age": "undifferentiated Quaternary",
        "slip_rate": "Less than 0.2 mm/yr"
      }
    },
    {
      "type": "Feature",
      "geometry": {
        "type": "LineString",
        "coordinates": [
          [
            -115.55193256217491,
            39.770728164256305
          ],
          [
            -115.55397704960816,
            39.76737092407974
          ],
          [
            -115.55620487241107,
            39.76338868276813
          ],
          [
            -115.5581810106276,
            39.7590358923323
          ],
          [
            -115.55963046838966,
            39.75518699074942
          ],
          [
            -115.56030935938587,
            39.75305476523806
          ],
          [
            -115.56113380889911,
            39.750551982220344
          ],
          [
            -115.56188104462042,
            39.74909086699722
          ]
        ]
      },
      "properties": {
        "fault_name": "unnamed fault east of Buck Mountain",
        "age": "undifferentiated Quaternary",
        "slip_rate": "Less than 0.2 mm/yr"
      }
    },
    {
      "type": "Feature",
      "geometry": {
        "type": "LineString",
        "coordinates": [
          [
            -115.59936892271136,
            39.989515358318585
          ],
          [
            -115.60003282262208,
            39.988050911306985
          ],
          [
            -115.60065836986006,
            39.98524702070228
          ],
          [
            -115.6008794632178,
            39.98301924222745
          ],
          [
            -115.60123833119064,
            39.98012368621226
          ],
          [
            -115.60152831724582,
            39.97796090677899
          ],
          [
            -115.60219942972996,
            39.97587423920429
          ],
          [
            -115.60280221096372,
            39.97397090172132
          ],
          [
            -115.60364167132535,
            39.97248311980422
          ],
          [
            -115.60505280785573,
            39.96959922520168
          ]
        ]
      },
      "properties": {
        "fault_name": "unnamed faults in southeastern Huntington Valley",
        "age": "undifferentiated Quaternary",
        "slip_rate": "Less than 0.2 mm/yr"
      }
    },
    {
      "type": "Feature",
      "geometry": {
        "type": "LineString",
        "coordinates": [
          [
            -115.66597664744273,
            39.97721668228044
          ],
          [
            -115.66625108006711,
            39.97546945632597
          ],
          [
            -115.66712831368815,
            39.97345167074563
          ],
          [
            -115.66776165021795,
            39.97162055429982
          ]
        ]
      },
      "properties": {
        "fault_name": "unnamed faults in southeastern Huntington Valley",
        "age": "undifferentiated Quaternary",
        "slip_rate": "Less than 0.2 mm/yr"
      }
    },
    {
      "type": "Feature",
      "geometry": {
        "type": "LineString",
        "coordinates": [
          [
            -115.67166079938677,
            39.97857109925988
          ],
          [
            -115.6735297380472,
            39.976289974697686
          ],
          [
            -115.6748953219078,
            39.97395107477358
          ],
          [
            -115.67639091983781,
            39.972311063864495
          ],
          [
            -115.67776429658353,
            39.971017719780846
          ],
          [
            -115.67971768855872,
            39.96914881877884
          ],
          [
            -115.68063271340544,
            39.968076589984854
          ]
        ]
      },
      "properties": {
        "fault_name": "unnamed faults in southeastern Huntington Valley",
        "age": "undifferentiated Quaternary",
        "slip_rate": "Less than 0.2 mm/yr"
      }
    },
    {
      "type": "Feature",
      "geometry": {
        "type": "LineString",
        "coordinates": [
          [
            -115.66097865656053,
            39.977437820230335
          ],
          [
            -115.66169588495808,
            39.975626146912255
          ],
          [
            -115.66338202544132,
            39.97228446780493
          ],
          [
            -115.66499205975539,
            39.96958334390344
          ],
          [
            -115.66600652720572,
            39.96803111370308
          ],
          [
            -115.66717433617677,
            39.96661554999458
          ],
          [
            -115.66918051225977,
            39.964910537805146
          ],
          [
            -115.67053887456383,
            39.96264830419103
          ]
        ]
      },
      "properties": {
        "fault_name": "unnamed faults in southeastern Huntington Valley",
        "age": "undifferentiated Quaternary",
        "slip_rate": "Less than 0.2 mm/yr"
      }
    },
    {
      "type": "Feature",
      "geometry": {
        "type": "LineString",
        "coordinates": [
          [
            -115.65495092866473,
            39.95853616520043
          ],
          [
            -115.65583595696748,
            39.9578111580161
          ],
          [
            -115.65832324107224,
            39.95438169665804
          ],
          [
            -115.66065830116052,
            39.95130334566305
          ],
          [
            -115.66268779840662,
            39.948678885723425
          ],
          [
            -115.66447283980936,
            39.945981648679926
          ],
          [
            -115.66674678840721,
            39.94308274331392
          ],
          [
            -115.66928741267691,
            39.94007272404028
          ],
          [
            -115.671538038315,
            39.938066594761274
          ],
          [
            -115.67366643737891,
            39.93604435778228
          ],
          [
            -115.67537537530745,
            39.93431267721367
          ]
        ]
      },
      "properties": {
        "fault_name": "unnamed faults in southeastern Huntington Valley",
        "age": "undifferentiated Quaternary",
        "slip_rate": "Less than 0.2 mm/yr"
      }
    },
    {
      "type": "Feature",
      "geometry": {
        "type": "LineString",
        "coordinates": [
          [
            -115.66414524488648,
            39.96112611594052
          ],
          [
            -115.6651752603778,
            39.95885666421397
          ],
          [
            -115.66719696204383,
            39.9549466449485
          ],
          [
            -115.66825753372953,
            39.95265385925115
          ],
          [
            -115.6693714240206,
            39.949098293274986
          ],
          [
            -115.6701797541644,
            39.94615717232919
          ],
          [
            -115.67052307319796,
            39.94397549980314
          ],
          [
            -115.67082082608711,
            39.94114882671141
          ]
        ]
      },
      "properties": {
        "fault_name": "unnamed faults in southeastern Huntington Valley",
        "age": "undifferentiated Quaternary",
        "slip_rate": "Less than 0.2 mm/yr"
      }
    },
    {
      "type": "Feature",
      "geometry": {
        "type": "LineString",
        "coordinates": [
          [
            -115.64714599357377,
            39.946661199174926
          ],
          [
            -115.6488166048807,
            39.9452989661126
          ],
          [
            -115.65114389184684,
            39.942747282880966
          ],
          [
            -115.65254003100354,
            39.94027505113404
          ],
          [
            -115.65360058562122,
            39.936605594794685
          ],
          [
            -115.65363831755809,
            39.93306170101579
          ],
          [
            -115.65377606971533,
            39.93068892101656
          ],
          [
            -115.6537221537303,
            39.928755030273614
          ]
        ]
      },
      "properties": {
        "fault_name": "unnamed faults in southeastern Huntington Valley",
        "age": "undifferentiated Quaternary",
        "slip_rate": "Less than 0.2 mm/yr"
      }
    },
    {
      "type": "Feature",
      "geometry": {
        "type": "LineString",
        "coordinates": [
          [
            -115.64968681457452,
            39.95871175028
          ],
          [
            -115.6499690239143,
            39.95670896871162
          ],
          [
            -115.65022844389362,
            39.954042299054976
          ],
          [
            -115.65039619798472,
            39.95164673993113
          ],
          [
            -115.65011393115277,
            39.94925507529692
          ],
          [
            -115.65015168824249,
            39.947477294222196
          ],
          [
            -115.64991554540879,
            39.945817848927966
          ]
        ]
      },
      "properties": {
        "fault_name": "unnamed faults in southeastern Huntington Valley",
        "age": "undifferentiated Quaternary",
        "slip_rate": "Less than 0.2 mm/yr"
      }
    },
    {
      "type": "Feature",
      "geometry": {
        "type": "LineString",
        "coordinates": [
          [
            -115.64417817187744,
            39.95316899871363
          ],
          [
            -115.64794717941611,
            39.949872863704904
          ]
        ]
      },
      "properties": {
        "fault_name": "unnamed faults in southeastern Huntington Valley",
        "age": "undifferentiated Quaternary",
        "slip_rate": "Less than 0.2 mm/yr"
      }
    },
    {
      "type": "Feature",
      "geometry": {
        "type": "LineString",
        "coordinates": [
          [
            -115.62627128525955,
            39.952619659303515
          ],
          [
            -115.62855247338022,
            39.95096797925262
          ],
          [
            -115.63103976197655,
            39.94786296409448
          ],
          [
            -115.63269536423172,
            39.94585239731245
          ],
          [
            -115.63441929414401,
            39.9433423857706
          ],
          [
            -115.63547986403306,
            39.94095793328791
          ],
          [
            -115.63605209176737,
            39.939447372716636
          ]
        ]
      },
      "properties": {
        "fault_name": "unnamed faults in southeastern Huntington Valley",
        "age": "undifferentiated Quaternary",
        "slip_rate": "Less than 0.2 mm/yr"
      }
    },
    {
      "type": "Feature",
      "geometry": {
        "type": "LineString",
        "coordinates": [
          [
            -115.61041616422527,
            39.95292475330284
          ],
          [
            -115.61338460486083,
            39.9513686252557
          ],
          [
            -115.61638304293864,
            39.94956027314067
          ],
          [
            -115.61925148221847,
            39.9481869227379
          ],
          [
            -115.6220671328989,
            39.94619579415191
          ],
          [
            -115.62404275458414,
            39.94469689331458
          ],
          [
            -115.62544669021918,
            39.9435635513406
          ],
          [
            -115.62690395703605,
            39.942194097234804
          ]
        ]
      },
      "properties": {
        "fault_name": "unnamed faults in southeastern Huntington Valley",
        "age": "undifferentiated Quaternary",
        "slip_rate": "Less than 0.2 mm/yr"
      }
    },
    {
      "type": "Feature",
      "geometry": {
        "type": "LineString",
        "coordinates": [
          [
            -115.60570169422311,
            39.96718811025778
          ],
          [
            -115.60569390223634,
            39.966035887965
          ],
          [
            -115.60535050594761,
            39.962259779731056
          ],
          [
            -115.60533492466902,
            39.96014255828186
          ],
          [
            -115.60470206963619,
            39.956239784208286
          ],
          [
            -115.6050070449802,
            39.95311589498337
          ],
          [
            -115.60551036294906,
            39.95024311495879
          ],
          [
            -115.60595312638291,
            39.94757311274466
          ],
          [
            -115.60727314499738,
            39.94457477177703
          ],
          [
            -115.60818092043976,
            39.94122143524989
          ],
          [
            -115.60824924809691,
            39.9406719902499
          ]
        ]
      },
      "properties": {
        "fault_name": "unnamed faults in southeastern Huntington Valley",
        "age": "undifferentiated Quaternary",
        "slip_rate": "Less than 0.2 mm/yr"
      }
    },
    {
      "type": "Feature",
      "geometry": {
        "type": "LineString",
        "coordinates": [
          [
            -115.60781472760411,
            39.93594588227563
          ],
          [
            -115.60782969892661,
            39.93364199176864
          ],
          [
            -115.6069829460415,
            39.92969755490586
          ],
          [
            -115.60591452667347,
            39.926413118285396
          ],
          [
            -115.6042738634015,
            39.92347201773565
          ],
          [
            -115.60338158210114,
            39.92180480330154
          ],
          [
            -115.6020842746937,
            39.919443700948406
          ],
          [
            -115.60205371670267,
            39.919393701681784
          ]
        ]
      },
      "properties": {
        "fault_name": "unnamed faults in southeastern Huntington Valley",
        "age": "undifferentiated Quaternary",
        "slip_rate": "Less than 0.2 mm/yr"
      }
    },
    {
      "type": "Feature",
      "geometry": {
        "type": "LineString",
        "coordinates": [
          [
            -115.59830727484395,
            39.90565317625028
          ],
          [
            -115.59775833503507,
            39.90350207001571
          ],
          [
            -115.59799441857994,
            39.90051484815642
          ],
          [
            -115.59828440463515,
            39.89832929011923
          ],
          [
            -115.5980171504482,
            39.8965781811939
          ],
          [
            -115.5980171504482,
            39.89653262568055
          ]
        ]
      },
      "properties": {
        "fault_name": "unnamed faults in southeastern Huntington Valley",
        "age": "undifferentiated Quaternary",
        "slip_rate": "Less than 0.2 mm/yr"
      }
    },
    {
      "type": "Feature",
      "geometry": {
        "type": "LineString",
        "coordinates": [
          [
            -115.59747535763574,
            39.888372634113146
          ],
          [
            -115.59619359826922,
            39.88532097771051
          ],
          [
            -115.59527074190986,
            39.882150987256736
          ],
          [
            -115.59471345495537,
            39.87885488131128
          ],
          [
            -115.59473620029837,
            39.87623043788611
          ],
          [
            -115.59443115937731,
            39.87397210895384
          ]
        ]
      },
      "properties": {
        "fault_name": "unnamed faults in southeastern Huntington Valley",
        "age": "undifferentiated Quaternary",
        "slip_rate": "Less than 0.2 mm/yr"
      }
    },
    {
      "type": "Feature",
      "geometry": {
        "type": "LineString",
        "coordinates": [
          [
            -115.57481553156192,
            39.89045557889401
          ],
          [
            -115.57893565281591,
            39.88606110883031
          ],
          [
            -115.5816212912236,
            39.88346720108569
          ],
          [
            -115.58354357094727,
            39.88153329905647
          ],
          [
            -115.58539751942054,
            39.88003773075407
          ],
          [
            -115.58661866586158,
            39.87871383424344
          ],
          [
            -115.5890904073153,
            39.87629937185358
          ],
          [
            -115.59163105224623,
            39.87488379667326
          ],
          [
            -115.59426336396372,
            39.87311766600747
          ]
        ]
      },
      "properties": {
        "fault_name": "unnamed faults in southeastern Huntington Valley",
        "age": "undifferentiated Quaternary",
        "slip_rate": "Less than 0.2 mm/yr"
      }
    },
    {
      "type": "Feature",
      "geometry": {
        "type": "LineString",
        "coordinates": [
          [
            -115.59646772726299,
            39.81467267601828
          ],
          [
            -115.59589544473148,
            39.81168212671911
          ],
          [
            -115.59513202316535,
            39.80709324726689
          ],
          [
            -115.5950480836869,
            39.80334324966267
          ],
          [
            -115.59647474580031,
            39.79818212823181
          ],
          [
            -115.59821475914947,
            39.79352822371504
          ],
          [
            -115.59938919858563,
            39.7893048806927
          ],
          [
            -115.59997696537769,
            39.78636376468352
          ],
          [
            -115.60044252176526,
            39.78492209396861
          ],
          [
            -115.60107530044131,
            39.782877642785756
          ],
          [
            -115.60109084219403,
            39.78174820030258
          ]
        ]
      },
      "properties": {
        "fault_name": "unnamed faults in southeastern Huntington Valley",
        "age": "undifferentiated Quaternary",
        "slip_rate": "Less than 0.2 mm/yr"
      }
    },
    {
      "type": "Feature",
      "geometry": {
        "type": "LineString",
        "coordinates": [
          [
            -115.57582202556584,
            39.87283170096716
          ],
          [
            -115.57580699405618,
            39.87025336880386
          ],
          [
            -115.5760586148622,
            39.865679483267286
          ],
          [
            -115.57624190890941,
            39.86188726173201
          ],
          [
            -115.5757918502571,
            39.85868727022766
          ],
          [
            -115.57521179190847,
            39.855917833205574
          ],
          [
            -115.57491397883224,
            39.85400283816237
          ],
          [
            -115.5744561470578,
            39.85128673416628
          ]
        ]
      },
      "properties": {
        "fault_name": "unnamed faults in southeastern Huntington Valley",
        "age": "undifferentiated Quaternary",
        "slip_rate": "Less than 0.2 mm/yr"
      }
    },
    {
      "type": "Feature",
      "geometry": {
        "type": "LineString",
        "coordinates": [
          [
            -115.22461632455696,
            39.923428218250606
          ],
          [
            -115.22505129959734,
            39.92071989830679
          ],
          [
            -115.2263023877851,
            39.916291028743615
          ],
          [
            -115.22709570438556,
            39.913449375325435
          ],
          [
            -115.22826292496009,
            39.911022717167455
          ],
          [
            -115.229659600411,
            39.90899716823962
          ]
        ]
      },
      "properties": {
        "fault_name": "Medicine Range fault zone",
        "age": "late Quaternary",
        "slip_rate": "Less than 0.2 mm/yr"
      }
    },
    {
      "type": "Feature",
      "geometry": {
        "type": "LineString",
        "coordinates": [
          [
            -115.22550944757876,
            39.94872362698549
          ],
          [
            -115.22495995171272,
            39.94572142327179
          ],
          [
            -115.22437268168899,
            39.94308533015637
          ],
          [
            -115.22446375109587,
            39.939682571214234
          ],
          [
            -115.22435702944347,
            39.93565037224986
          ],
          [
            -115.22457087699013,
            39.93199205780689
          ],
          [
            -115.22466973658715,
            39.92939040578135
          ],
          [
            -115.22458581238004,
            39.92694930995053
          ],
          [
            -115.22473079058543,
            39.924832097776324
          ]
        ]
      },
      "properties": {
        "fault_name": "Medicine Range fault zone",
        "age": "late Quaternary",
        "slip_rate": "Less than 0.2 mm/yr"
      }
    },
    {
      "type": "Feature",
      "geometry": {
        "type": "LineString",
        "coordinates": [
          [
            -115.42916653798083,
            39.97125185280151
          ],
          [
            -115.43252328258447,
            39.970721279702055
          ],
          [
            -115.43633780057206,
            39.96902404212935
          ],
          [
            -115.44047343842595,
            39.967162357658644
          ],
          [
            -115.44361683494625,
            39.96575456971827
          ],
          [
            -115.44595132280769,
            39.964515114279834
          ],
          [
            -115.44803414315072,
            39.96373677274791
          ]
        ]
      },
      "properties": {
        "fault_name": "Maverick Springs Range fault zone",
        "age": "late Quaternary",
        "slip_rate": "Less than 0.2 mm/yr"
      }
    },
    {
      "type": "Feature",
      "geometry": {
        "type": "LineString",
        "coordinates": [
          [
            -115.41930141110886,
            39.98116242624147
          ],
          [
            -115.42051419513292,
            39.979175205326726
          ],
          [
            -115.42145252856632,
            39.97739353969257
          ],
          [
            -115.42243697162493,
            39.9750129872855
          ],
          [
            -115.42360419130115,
            39.97247243473306
          ]
        ]
      },
      "properties": {
        "fault_name": "Maverick Springs Range fault zone",
        "age": "late Quaternary",
        "slip_rate": "Less than 0.2 mm/yr"
      }
    }
  ]
}