{
  "type": "FeatureCollection",
  "features": [
    {
      "type": "Feature",
      "geometry": {
        "type": "LineString",
        "coordinates": [
          [
            -112.40029127995302,
            36.57752553913042
          ],
          [
            -112.40123127976129,
            36.57344553775126
          ],
          [
            -112.40210127835101,
            36.569765537639384
          ],
          [
            -112.40241127797242,
            36.56580553722989
          ],
          [
            -112.40251127842986,
            36.562885536692576
          ],
          [
            -112.40318127790135,
            36.56017553575845
          ],
          [
            -112.40435127786337,
            36.55712553630155
          ],
          [
            -112.40537127893587,
            36.55384553569268
          ],
          [
            -112.40639127731343,
            36.55091553508361
          ],
          [
            -112.40686127766672,
            36.54838553376992
          ],
          [
            -112.40723127756256,
            36.544825534804254
          ],
          [
            -112.40725127765407,
            36.54103553530698
          ],
          [
            -112.40725127675574,
            36.53622553292492
          ],
          [
            -112.40713127620683,
            36.53226553294976
          ],
          [
            -112.40666127675186,
            36.5291155343095
          ],
          [
            -112.40625127577472,
            36.52561553198065
          ],
          [
            -112.40565127482678,
            36.52309553198422
          ],
          [
            -112.40475127430318,
            36.520005531353505
          ],
          [
            -112.40406127384189,
            36.51668553085929
          ],
          [
            -112.40402127365891,
            36.5139155310558
          ],
          [
            -112.40420127358398,
            36.51083553125263
          ],
          [
            -112.4049912736044,
            36.506525529763344
          ],
          [
            -112.40643127390317,
            36.502615529324935
          ],
          [
            -112.40779127293764,
            36.500005528166966
          ]
        ]
      },
      "properties": {
        "fault_name": "West Kaibab fault system",
        "age": "undifferentiated Quaternary",
        "slip_rate": "Less than 0.2 mm/yr"
      }
    },
    {
      "type": "Feature",
      "geometry": {
        "type": "LineString",
        "coordinates": [
          [
            -112.3697070446521,
            36.67096260519165
          ],
          [
            -112.37047522100102,
            36.66588945900011
          ],
          [
            -112.37381754405111,
            36.659867495679386
          ],
          [
            -112.37600935878417,
            36.65256432375694
          ],
          [
            -112.37721029941953,
            36.6462212166722
          ],
          [
            -112.37879271503016,
            36.642895626172
          ],
          [
            -112.38164597008674,
            36.63851584631106
          ],
          [
            -112.38355775658955,
            36.63395794981863
          ],
          [
            -112.3858009378889,
            36.63145450424251
          ],
          [
            -112.38867826510013,
            36.62602649494062
          ],
          [
            -112.39228294382387,
            36.6197180802556
          ],
          [
            -112.39604128297023,
            36.61422554399274
          ],
          [
            -112.39875128279012,
            36.60983554424155
          ],
          [
            -112.40122181960302,
            36.60566385288761
          ],
          [
            -112.40155128212338,
            36.60080554269156
          ],
          [
            -112.40199128144113,
            36.59695554114116
          ],
          [
            -112.40187128089218,
            36.593975542286636
          ],
          [
            -112.4022295460955,
            36.59039477978379
          ],
          [
            -112.40275128042599,
            36.58542554012047
          ]
        ]
      },
      "properties": {
        "fault_name": "West Kaibab fault system",
        "age": "undifferentiated Quaternary",
        "slip_rate": "Less than 0.2 mm/yr"
      }
    },
    {
      "type": "Feature",
      "geometry": {
        "type": "LineString",
        "coordinates": [
          [
            -112.81545136441503,
            36.61547551765708
          ],
          [
            -112.8205313660928,
            36.6133955170013
          ],
          [
            -112.82393136727231,
            36.61261551581003
          ],
          [
            -112.82733136755353,
            36.612055515746746
          ],
          [
            -112.83003136822597,
            36.61179551603472
          ],
          [
            -112.83393136809937,
            36.6113455147388
          ],
          [
            -112.83777136859662,
            36.61106551565181
          ],
          [
            -112.8416813703124,
            36.611075514864105
          ],
          [
            -112.84625137055559,
            36.61124551497558
          ],
          [
            -112.84980137242125,
            36.6112055138802
          ],
          [
            -112.85313137238226,
            36.6102455152586
          ],
          [
            -112.8569413727423,
            36.608995515224876
          ],
          [
            -112.8608413744123,
            36.60837551316033
          ],
          [
            -112.86495137434798,
            36.607175513870814
          ],
          [
            -112.87033137470311,
            36.60578551323549
          ],
          [
            -112.87499137356139,
            36.603955511720834
          ],
          [
            -112.87876137643337,
            36.60338551202842
          ],
          [
            -112.88278137685569,
            36.60178551108575
          ],
          [
            -112.88581137724104,
            36.60025551085876
          ],
          [
            -112.8893913774473,
            36.59832551092742
          ],
          [
            -112.8937613785723,
            36.596255509727875
          ],
          [
            -112.9002613786607,
            36.593705509016395
          ],
          [
            -112.9039213792329,
            36.591765508695566
          ],
          [
            -112.90884138107711,
            36.589065507661076
          ],
          [
            -112.91401137957331,
            36.584465507043774
          ],
          [
            -112.91762138171345,
            36.58181550732663
          ]
        ]
      },
      "properties": {
        "fault_name": "Sevier/Toroweap fault zone",
        "age": "late Quaternary",
        "slip_rate": "Less than 0.2 mm/yr"
      }
    },
    {
      "type": "Feature",
      "geometry": {
        "type": "LineString",
        "coordinates": [
          [
            -112.77881137737471,
            36.80533554308603
          ],
          [
            -112.78256137656196,
            36.80035554176679
          ],
          [
            -112.78432137742618,
            36.79861554191426
          ],
          [
            -112.7852813773259,
            36.79676554076244
          ],
          [
            -112.78610137658524,
            36.79503554184604
          ],
          [
            -112.78713137680516,
            36.79284554099393
          ],
          [
            -112.78829137672145,
            36.790135540954346
          ],
          [
            -112.7895413761511,
            36.78782554127938
          ],
          [
            -112.79021137741924,
            36.78597553998464
          ],
          [
            -112.7920313776596,
            36.78429553996189
          ],
          [
            -112.79357137841576,
            36.782555540090726
          ],
          [
            -112.79510137643129,
            36.780415537689414
          ],
          [
            -112.79692137667163,
            36.77855553906409
          ],
          [
            -112.7982413773198,
            36.77721553890554
          ],
          [
            -112.7986513773986,
            36.77566553795592
          ],
          [
            -112.79918137712802,
            36.77382553778862
          ],
          [
            -112.79991137777232,
            36.7707755382818
          ],
          [
            -112.80105137669881,
            36.76715553784368
          ],
          [
            -112.8014613758793,
            36.76272553689382
          ],
          [
            -112.8025313762822,
            36.7588155362526
          ]
        ]
      },
      "properties": {
        "fault_name": "Sevier/Toroweap fault zone",
        "age": "late Quaternary",
        "slip_rate": "Less than 0.2 mm/yr"
      }
    },
    {
      "type": "Feature",
      "geometry": {
        "type": "LineString",
        "coordinates": [
          [
            -112.77247137711986,
            36.813375545253336
          ],
          [
            -112.77497137597913,
            36.809445544051954
          ]
        ]
      },
      "properties": {
        "fault_name": "Sevier/Toroweap fault zone",
        "age": "late Quaternary",
        "slip_rate": "Less than 0.2 mm/yr"
      }
    },
    {
      "type": "Feature",
      "geometry": {
        "type": "LineString",
        "coordinates": [
          [
            -112.76510137574674,
            36.823735546719405
          ],
          [
            -112.76984137586925,
            36.81748554610923
          ]
        ]
      },
      "properties": {
        "fault_name": "Sevier/Toroweap fault zone",
        "age": "late Quaternary",
        "slip_rate": "Less than 0.2 mm/yr"
      }
    },
    {
      "type": "Feature",
      "geometry": {
        "type": "LineString",
        "coordinates": [
          [
            -112.75892137442715,
            36.832695549334936
          ],
          [
            -112.76261137603488,
            36.828125547311586
          ]
        ]
      },
      "properties": {
        "fault_name": "Sevier/Toroweap fault zone",
        "age": "late Quaternary",
        "slip_rate": "Less than 0.2 mm/yr"
      }
    },
    {
      "type": "Feature",
      "geometry": {
        "type": "LineString",
        "coordinates": [
          [
            -112.74057137403238,
            36.85963555313629
          ],
          [
            -112.74687137410427,
            36.8488955508651
          ]
        ]
      },
      "properties": {
        "fault_name": "Sevier/Toroweap fault zone",
        "age": "late Quaternary",
        "slip_rate": "Less than 0.2 mm/yr"
      }
    },
    {
      "type": "Feature",
      "geometry": {
        "type": "LineString",
        "coordinates": [
          [
            -112.7372913734018,
            36.85588555195761
          ],
          [
            -112.74258137424354,
            36.84814555111592
          ]
        ]
      },
      "properties": {
        "fault_name": "Sevier/Toroweap fault zone",
        "age": "late Quaternary",
        "slip_rate": "Less than 0.2 mm/yr"
      }
    },
    {
      "type": "Feature",
      "geometry": {
        "type": "LineString",
        "coordinates": [
          [
            -112.72064137539341,
            36.91757556023018
          ],
          [
            -112.73005137711492,
            36.904615559324036
          ]
        ]
      },
      "properties": {
        "fault_name": "Sevier/Toroweap fault zone",
        "age": "late Quaternary",
        "slip_rate": "Less than 0.2 mm/yr"
      }
    },
    {
      "type": "Feature",
      "geometry": {
        "type": "LineString",
        "coordinates": [
          [
            -112.81212137343718,
            36.699855527887884
          ],
          [
            -112.81246137139917,
            36.69702552802235
          ],
          [
            -112.81283137309165,
            36.69420552764557
          ],
          [
            -112.81264137222254,
            36.6915155272086
          ],
          [
            -112.81264137222254,
            36.68807552671798
          ],
          [
            -112.81259137109551,
            36.68514552724201
          ],
          [
            -112.81308137243859,
            36.68118552567461
          ],
          [
            -112.81310136983512,
            36.678545525675105
          ],
          [
            -112.81384136962684,
            36.67618552493313
          ],
          [
            -112.81471137091152,
            36.67353552506961
          ],
          [
            -112.81595136939711,
            36.67122552511738
          ],
          [
            -112.81690137104773,
            36.66851552422391
          ],
          [
            -112.81762137074794,
            36.66575552425014
          ],
          [
            -112.8178013715713,
            36.66408552409475
          ],
          [
            -112.8180413699742,
            36.66156552313852
          ],
          [
            -112.81848137019026,
            36.658455523224
          ],
          [
            -112.81825136913817,
            36.653585521757755
          ],
          [
            -112.81909136759067,
            36.64944552202748
          ],
          [
            -112.82010136861744,
            36.646505520664576
          ],
          [
            -112.8210913677561,
            36.64276552130358
          ],
          [
            -112.82288136785922,
            36.63941551970795
          ],
          [
            -112.82482136864849,
            36.63641551966182
          ],
          [
            -112.82662136879735,
            36.63403551924814
          ],
          [
            -112.82801136976572,
            36.6324155190665
          ],
          [
            -112.8293413695613,
            36.63107551895331
          ],
          [
            -112.83051137042162,
            36.62905551822506
          ],
          [
            -112.83194136887803,
            36.62571551835537
          ],
          [
            -112.83547136975386,
            36.62038551825145
          ],
          [
            -112.83743136973631,
            36.6187055158103
          ],
          [
            -112.83953136856252,
            36.61718551724858
          ],
          [
            -112.84220136999606,
            36.61548551629753
          ],
          [
            -112.84396137086028,
            36.61460551632593
          ]
        ]
      },
      "properties": {
        "fault_name": "Sevier/Toroweap fault zone",
        "age": "late Quaternary",
        "slip_rate": "Less than 0.2 mm/yr"
      }
    },
    {
      "type": "Feature",
      "geometry": {
        "type": "LineString",
        "coordinates": [
          [
            -112.81212137343718,
            36.699855527887884
          ],
          [
            -112.8101813717496,
            36.69733552807483
          ],
          [
            -112.80879137257787,
            36.69506552765799
          ],
          [
            -112.8069613695968,
            36.692155526989005
          ],
          [
            -112.80621137065768,
            36.690325528031636
          ],
          [
            -112.80567137178083,
            36.68832552691338
          ],
          [
            -112.80548137001341,
            36.68626552699408
          ],
          [
            -112.80528136999686,
            36.682595525755815
          ],
          [
            -112.8052913691443,
            36.67731552617386
          ],
          [
            -112.80531136923577,
            36.673685526261764
          ],
          [
            -112.80541136969319,
            36.671005525073376
          ]
        ]
      },
      "properties": {
        "fault_name": "Sevier/Toroweap fault zone",
        "age": "late Quaternary",
        "slip_rate": "Less than 0.2 mm/yr"
      }
    },
    {
      "type": "Feature",
      "geometry": {
        "type": "LineString",
        "coordinates": [
          [
            -112.81074137431118,
            36.71150552926093
          ],
          [
            -112.81212137343718,
            36.699855527887884
          ]
        ]
      },
      "properties": {
        "fault_name": "Sevier/Toroweap fault zone",
        "age": "late Quaternary",
        "slip_rate": "Less than 0.2 mm/yr"
      }
    },
    {
      "type": "Feature",
      "geometry": {
        "type": "LineString",
        "coordinates": [
          [
            -112.80367137610698,
            36.75134553434971
          ],
          [
            -112.8105713753302,
            36.71752553068492
          ]
        ]
      },
      "properties": {
        "fault_name": "Sevier/Toroweap fault zone",
        "age": "late Quaternary",
        "slip_rate": "Less than 0.2 mm/yr"
      }
    },
    {
      "type": "Feature",
      "geometry": {
        "type": "LineString",
        "coordinates": [
          [
            -112.7412713781327,
            36.89685555770474
          ],
          [
            -112.74228137826115,
            36.89403555566019
          ],
          [
            -112.74266137730444,
            36.89145555630187
          ],
          [
            -112.74248137558274,
            36.889045555976
          ],
          [
            -112.7423613786271,
            36.8865755556449
          ],
          [
            -112.74153137662707,
            36.88423555732676
          ],
          [
            -112.74092137743001,
            36.8816655557938
          ],
          [
            -112.7407313756626,
            36.87943555624382
          ],
          [
            -112.7405213756003,
            36.87604555466156
          ],
          [
            -112.74038137495991,
            36.87254555475207
          ],
          [
            -112.7399513747896,
            36.86882555382658
          ],
          [
            -112.74040137505139,
            36.86595555431577
          ],
          [
            -112.74101137514675,
            36.863825553026494
          ],
          [
            -112.74189137468055,
            36.86140555278559
          ]
        ]
      },
      "properties": {
        "fault_name": "Sevier/Toroweap fault zone",
        "age": "late Quaternary",
        "slip_rate": "Less than 0.2 mm/yr"
      }
    },
    {
      "type": "Feature",
      "geometry": {
        "type": "LineString",
        "coordinates": [
          [
            -112.71738138383748,
            37.001095570859626
          ],
          [
            -112.7192313824184,
            36.99325557089599
          ],
          [
            -112.7201013837031,
            36.98997557015017
          ],
          [
            -112.72090138287093,
            36.98715556826585
          ],
          [
            -112.72100138332837,
            36.98445556932155
          ],
          [
            -112.72138138326997,
            36.98204556968804
          ],
          [
            -112.72075138308313,
            36.97889556865704
          ],
          [
            -112.71992138198141,
            36.976155566775944
          ],
          [
            -112.71913138196099,
            36.97254556826058
          ],
          [
            -112.71829138081353,
            36.96899556778204
          ],
          [
            -112.71760138035224,
            36.966535567230615
          ],
          [
            -112.71670137982863,
            36.96413556698673
          ],
          [
            -112.71630137979554,
            36.961735567169
          ],
          [
            -112.71623137857704,
            36.95846556633242
          ],
          [
            -112.71633137903446,
            36.955255565718346
          ],
          [
            -112.71625137956683,
            36.95123556569831
          ],
          [
            -112.71633137723784,
            36.94773556465157
          ],
          [
            -112.71627137876001,
            36.94447556464203
          ],
          [
            -112.7159213762607,
            36.94114556413664
          ],
          [
            -112.71578137741693,
            36.93741556432782
          ],
          [
            -112.71616137735852,
            36.934435564224074
          ],
          [
            -112.71681137763686,
            36.93115556332094
          ],
          [
            -112.71775137564848,
            36.92764556222897
          ],
          [
            -112.71912137562704,
            36.923955562268404
          ],
          [
            -112.72079137607956,
            36.92170556217047
          ],
          [
            -112.72148137564255,
            36.92037556077845
          ]
        ]
      },
      "properties": {
        "fault_name": "Sevier/Toroweap fault zone",
        "age": "late Quaternary",
        "slip_rate": "Less than 0.2 mm/yr"
      }
    }
  ]
}