{
  "type": "FeatureCollection",
  "features": [
    {
      "type": "Feature",
      "geometry": {
        "type": "LineString",
        "coordinates": [
          [
            -113.320497280448,
            34.3543419109754
          ],
          [
            -113.312318583317,
            34.3473899669718
          ],
          [
            -113.303509771913,
            34.3389706828456
          ]
        ]
      },
      "properties": {
        "STATE": "AZ",
        "DESCRIPTION": "Fault, sense of displacement unknown or undefined, certain",
        "RuleID": 22,
        "type": "faults"
      }
    },
    {
      "type": "Feature",
      "geometry": {
        "type": "LineString",
        "coordinates": [
          [
            -113.428147409052,
            34.3596118936981
          ],
          [
            -113.421304654072,
            34.3559406787457
          ],
          [
            -113.406346147811,
            34.3477205217174
          ],
          [
            -113.404818675858,
            34.3472591986961
          ]
        ]
      },
      "properties": {
        "STATE": "AZ",
        "DESCRIPTION": "Fault, sense of displacement unknown or undefined, certain",
        "RuleID": 22,
        "type": "faults"
      }
    },
    {
      "type": "Feature",
      "geometry": {
        "type": "LineString",
        "coordinates": [
          [
            -112.95595326654,
            34.7239865638966
          ],
          [
            -112.943408258563,
            34.712894648707
          ],
          [
            -112.938118212805,
            34.7089915338601
          ],
          [
            -112.930847070131,
            34.7042202301455
          ],
          [
            -112.925543882021,
            34.7010403068159
          ],
          [
            -112.918678060101,
            34.6983671374336
          ]
        ]
      },
      "properties": {
        "STATE": "AZ",
        "DESCRIPTION": "Fault, sense of displacement unknown or undefined, certain",
        "RuleID": 22,
        "type": "faults"
      }
    },
    {
      "type": "Feature",
      "geometry": {
        "type": "LineString",
        "coordinates": [
          [
            -113.22913253895,
            34.6298043343132
          ],
          [
            -113.229466017838,
            34.628103031621
          ]
        ]
      },
      "properties": {
        "STATE": "AZ",
        "DESCRIPTION": "Fault, sense of displacement unknown or undefined, certain",
        "RuleID": 22,
        "type": "faults"
      }
    },
    {
      "type": "Feature",
      "geometry": {
        "type": "LineString",
        "coordinates": [
          [
            -113.410560635289,
            34.5576898592752
          ],
          [
            -113.41587893935,
            34.5650763996954
          ],
          [
            -113.418705341068,
            34.568358311716
          ],
          [
            -113.43105763167,
            34.5779213675478
          ],
          [
            -113.433921096978,
            34.5806161652311
          ],
          [
            -113.447611648284,
            34.6012845230743
          ]
        ]
      },
      "properties": {
        "STATE": "AZ",
        "DESCRIPTION": "Fault, sense of displacement unknown or undefined, certain",
        "RuleID": 22,
        "type": "faults"
      }
    },
    {
      "type": "Feature",
      "geometry": {
        "type": "LineString",
        "coordinates": [
          [
            -113.336950597715,
            34.3602248899726
          ],
          [
            -113.339764458951,
            34.3615257355223
          ],
          [
            -113.355968677881,
            34.3721260843231
          ],
          [
            -113.360266094233,
            34.3760552430354
          ]
        ]
      },
      "properties": {
        "STATE": "AZ",
        "DESCRIPTION": "Fault, sense of displacement unknown or undefined, certain",
        "RuleID": 22,
        "type": "faults"
      }
    },
    {
      "type": "Feature",
      "geometry": {
        "type": "LineString",
        "coordinates": [
          [
            -112.940993913167,
            34.6749951336907
          ],
          [
            -112.946829547119,
            34.6696410507798
          ],
          [
            -112.957717451756,
            34.662125137319
          ],
          [
            -112.960494441642,
            34.6587039116573
          ],
          [
            -112.961960860495,
            34.6574676286516
          ],
          [
            -112.971115486453,
            34.6544730304582
          ],
          [
            -112.983528780748,
            34.6498108602815
          ],
          [
            -112.988045660015,
            34.64729838458
          ],
          [
            -112.999651583567,
            34.6399203675782
          ]
        ]
      },
      "properties": {
        "STATE": "AZ",
        "DESCRIPTION": "Fault, sense of displacement unknown or undefined, certain",
        "RuleID": 22,
        "type": "faults"
      }
    },
    {
      "type": "Feature",
      "geometry": {
        "type": "LineString",
        "coordinates": [
          [
            -113.231767617479,
            34.6102345863054
          ],
          [
            -113.231066168887,
            34.6002331959479
          ],
          [
            -113.229969575657,
            34.5958828703549
          ],
          [
            -113.227762216476,
            34.5918548563922
          ],
          [
            -113.221465203303,
            34.5838825702035
          ]
        ]
      },
      "properties": {
        "STATE": "AZ",
        "DESCRIPTION": "Fault, sense of displacement unknown or undefined, certain",
        "RuleID": 22,
        "type": "faults"
      }
    },
    {
      "type": "Feature",
      "geometry": {
        "type": "LineString",
        "coordinates": [
          [
            -113.43422419664,
            34.3628449221782
          ],
          [
            -113.428147409052,
            34.3596118936981
          ]
        ]
      },
      "properties": {
        "STATE": "AZ",
        "DESCRIPTION": "Fault, sense of displacement unknown or undefined, certain",
        "RuleID": 22,
        "type": "faults"
      }
    },
    {
      "type": "Feature",
      "geometry": {
        "type": "LineString",
        "coordinates": [
          [
            -113.229466017838,
            34.628103031621
          ],
          [
            -113.230662410303,
            34.6218039532331
          ],
          [
            -113.231767617479,
            34.6102345863054
          ]
        ]
      },
      "properties": {
        "STATE": "AZ",
        "DESCRIPTION": "Fault, sense of displacement unknown or undefined, certain",
        "RuleID": 22,
        "type": "faults"
      }
    },
    {
      "type": "Feature",
      "geometry": {
        "type": "LineString",
        "coordinates": [
          [
            -113.367894726864,
            34.3833006842109
          ],
          [
            -113.368763457033,
            34.3831846879864
          ],
          [
            -113.366267541915,
            34.3807739682944
          ],
          [
            -113.360266094233,
            34.3760552430354
          ]
        ]
      },
      "properties": {
        "STATE": "AZ",
        "DESCRIPTION": "Fault, sense of displacement unknown or undefined, certain",
        "RuleID": 22,
        "type": "faults"
      }
    },
    {
      "type": "Feature",
      "geometry": {
        "type": "LineString",
        "coordinates": [
          [
            -113.008603891855,
            34.645850061399
          ],
          [
            -112.993674979692,
            34.6527153230559
          ]
        ]
      },
      "properties": {
        "STATE": "AZ",
        "DESCRIPTION": "Fault, sense of displacement unknown or undefined, certain",
        "RuleID": 22,
        "type": "faults"
      }
    },
    {
      "type": "Feature",
      "geometry": {
        "type": "LineString",
        "coordinates": [
          [
            -112.95595326654,
            34.7239865638966
          ],
          [
            -112.95705174713,
            34.7249561824234
          ],
          [
            -112.963158257277,
            34.7319445703899
          ],
          [
            -112.966451551177,
            34.7343460679728
          ],
          [
            -112.974949798817,
            34.7424650136812
          ]
        ]
      },
      "properties": {
        "STATE": "AZ",
        "DESCRIPTION": "Fault, sense of displacement unknown or undefined, certain",
        "RuleID": 22,
        "type": "faults"
      }
    },
    {
      "type": "Feature",
      "geometry": {
        "type": "LineString",
        "coordinates": [
          [
            -112.964065156861,
            34.3824122329853
          ],
          [
            -112.973348408093,
            34.3872805449558
          ]
        ]
      },
      "properties": {
        "STATE": "AZ",
        "DESCRIPTION": "Fault, sense of displacement unknown or undefined, certain",
        "RuleID": 22,
        "type": "faults"
      }
    },
    {
      "type": "Feature",
      "geometry": {
        "type": "LineString",
        "coordinates": [
          [
            -113.320497280448,
            34.3543419109754
          ],
          [
            -113.335871267409,
            34.3598390710232
          ]
        ]
      },
      "properties": {
        "STATE": "AZ",
        "DESCRIPTION": "Fault, sense of displacement unknown or undefined, certain",
        "RuleID": 22,
        "type": "faults"
      }
    },
    {
      "type": "Feature",
      "geometry": {
        "type": "LineString",
        "coordinates": [
          [
            -113.239431360763,
            34.5102714108275
          ],
          [
            -113.234693670209,
            34.5198676801503
          ],
          [
            -113.23230331073,
            34.527272846352
          ],
          [
            -113.231895929241,
            34.5304651385581
          ]
        ]
      },
      "properties": {
        "STATE": "AZ",
        "DESCRIPTION": "Fault, sense of displacement unknown or undefined, certain",
        "RuleID": 22,
        "type": "faults"
      }
    },
    {
      "type": "Feature",
      "geometry": {
        "type": "LineString",
        "coordinates": [
          [
            -113.224593905182,
            34.5736377066703
          ],
          [
            -113.22466656721,
            34.5744342792776
          ]
        ]
      },
      "properties": {
        "STATE": "AZ",
        "DESCRIPTION": "Fault, sense of displacement unknown or undefined, certain",
        "RuleID": 22,
        "type": "faults"
      }
    },
    {
      "type": "Feature",
      "geometry": {
        "type": "LineString",
        "coordinates": [
          [
            -113.221465203303,
            34.5838825702035
          ],
          [
            -113.213761001694,
            34.5664846392542
          ]
        ]
      },
      "properties": {
        "STATE": "AZ",
        "DESCRIPTION": "Fault, sense of displacement unknown or undefined, certain",
        "RuleID": 22,
        "type": "faults"
      }
    },
    {
      "type": "Feature",
      "geometry": {
        "type": "LineString",
        "coordinates": [
          [
            -112.973348408093,
            34.3872805449558
          ],
          [
            -112.979228458346,
            34.3903638726502
          ],
          [
            -112.991576622088,
            34.398499206732
          ],
          [
            -112.997531457987,
            34.4031087069171
          ],
          [
            -113.00350389278,
            34.4083577911905
          ],
          [
            -113.011105955941,
            34.4166048093328
          ],
          [
            -113.013214488762,
            34.4179766804927
          ],
          [
            -113.019938085813,
            34.4210508437094
          ],
          [
            -113.022522442766,
            34.4226581267602
          ],
          [
            -113.025590151732,
            34.4252130880338
          ],
          [
            -113.033830248713,
            34.4331121644683
          ]
        ]
      },
      "properties": {
        "STATE": "AZ",
        "DESCRIPTION": "Fault, sense of displacement unknown or undefined, certain",
        "RuleID": 22,
        "type": "faults"
      }
    },
    {
      "type": "Feature",
      "geometry": {
        "type": "LineString",
        "coordinates": [
          [
            -113.454191010934,
            34.3582357449538
          ],
          [
            -113.442459427447,
            34.349290441309
          ]
        ]
      },
      "properties": {
        "STATE": "AZ",
        "DESCRIPTION": "Fault, sense of displacement unknown or undefined, certain",
        "RuleID": 22,
        "type": "faults"
      }
    },
    {
      "type": "Feature",
      "geometry": {
        "type": "LineString",
        "coordinates": [
          [
            -113.224593905182,
            34.5736377066703
          ],
          [
            -113.225718741444,
            34.5682640620274
          ],
          [
            -113.22651892297,
            34.5628151894505
          ],
          [
            -113.226815695797,
            34.5566001372293
          ],
          [
            -113.227455972711,
            34.5524006075846
          ],
          [
            -113.228100328875,
            34.5490710237582
          ],
          [
            -113.230635809391,
            34.5402703447698
          ],
          [
            -113.231895929241,
            34.5304651385581
          ]
        ]
      },
      "properties": {
        "STATE": "AZ",
        "DESCRIPTION": "Fault, sense of displacement unknown or undefined, certain",
        "RuleID": 22,
        "type": "faults"
      }
    },
    {
      "type": "Feature",
      "geometry": {
        "type": "LineString",
        "coordinates": [
          [
            -113.138462553595,
            34.413825803678
          ],
          [
            -113.153158991643,
            34.4245743652242
          ],
          [
            -113.16206013279,
            34.4318465650843
          ],
          [
            -113.166164588324,
            34.4340527213065
          ],
          [
            -113.168235895858,
            34.4351475172783
          ],
          [
            -113.172760913862,
            34.4396225541084
          ],
          [
            -113.182785638122,
            34.4508920962318
          ],
          [
            -113.188553457355,
            34.4560182434032
          ]
        ]
      },
      "properties": {
        "STATE": "AZ",
        "DESCRIPTION": "Fault, sense of displacement unknown or undefined, certain",
        "RuleID": 22,
        "type": "faults"
      }
    },
    {
      "type": "Feature",
      "geometry": {
        "type": "LineString",
        "coordinates": [
          [
            -113.22466656721,
            34.5744342792776
          ],
          [
            -113.221465203303,
            34.5838825702035
          ]
        ]
      },
      "properties": {
        "STATE": "AZ",
        "DESCRIPTION": "Fault, sense of displacement unknown or undefined, certain",
        "RuleID": 22,
        "type": "faults"
      }
    },
    {
      "type": "Feature",
      "geometry": {
        "type": "LineString",
        "coordinates": [
          [
            -112.947453952599,
            34.6840052073427
          ],
          [
            -112.947356453051,
            34.6794039810394
          ],
          [
            -112.947651217245,
            34.6776884395635
          ],
          [
            -112.948650301945,
            34.6761351965419
          ],
          [
            -112.950157457599,
            34.6747541384616
          ],
          [
            -112.955659064691,
            34.671726667954
          ],
          [
            -112.973556364488,
            34.6630552816568
          ],
          [
            -112.974853413181,
            34.6622453511894
          ],
          [
            -112.992857033083,
            34.6530149644995
          ],
          [
            -112.993674979692,
            34.6527153230559
          ]
        ]
      },
      "properties": {
        "STATE": "AZ",
        "DESCRIPTION": "Fault, sense of displacement unknown or undefined, certain",
        "RuleID": 22,
        "type": "faults"
      }
    },
    {
      "type": "Feature",
      "geometry": {
        "type": "LineString",
        "coordinates": [
          [
            -113.324597770818,
            34.3578275943871
          ],
          [
            -113.320497280448,
            34.3543419109754
          ]
        ]
      },
      "properties": {
        "STATE": "AZ",
        "DESCRIPTION": "Fault, sense of displacement unknown or undefined, certain",
        "RuleID": 22,
        "type": "faults"
      }
    },
    {
      "type": "Feature",
      "geometry": {
        "type": "LineString",
        "coordinates": [
          [
            -113.223462640575,
            34.6589607477961
          ],
          [
            -113.224599780164,
            34.6556199655999
          ],
          [
            -113.22748563059,
            34.6382052761025
          ],
          [
            -113.22913253895,
            34.6298043343132
          ]
        ]
      },
      "properties": {
        "STATE": "AZ",
        "DESCRIPTION": "Fault, sense of displacement unknown or undefined, certain",
        "RuleID": 22,
        "type": "faults"
      }
    },
    {
      "type": "Feature",
      "geometry": {
        "type": "LineString",
        "coordinates": [
          [
            -112.977490241627,
            34.7441097846873
          ],
          [
            -112.974949798817,
            34.7424650136812
          ]
        ]
      },
      "properties": {
        "STATE": "AZ",
        "DESCRIPTION": "Fault, sense of displacement unknown or undefined, certain",
        "RuleID": 22,
        "type": "faults"
      }
    },
    {
      "type": "Feature",
      "geometry": {
        "type": "LineString",
        "coordinates": [
          [
            -113.322570735854,
            34.3280325362913
          ],
          [
            -113.328475362217,
            34.3341954093405
          ],
          [
            -113.332950032344,
            34.3392965732824
          ],
          [
            -113.340685823209,
            34.3468551481035
          ],
          [
            -113.343233977157,
            34.3494615393501
          ],
          [
            -113.344790181724,
            34.3506714018916
          ],
          [
            -113.346307897973,
            34.3512057974115
          ],
          [
            -113.365197168711,
            34.3618300748715
          ],
          [
            -113.367094873224,
            34.3627084688784
          ],
          [
            -113.376073803085,
            34.366780807888
          ]
        ]
      },
      "properties": {
        "STATE": "AZ",
        "DESCRIPTION": "Normal fault, certain, (U/D designated in source)",
        "RuleID": 43,
        "type": "faults"
      }
    },
    {
      "type": "Feature",
      "geometry": {
        "type": "LineString",
        "coordinates": [
          [
            -113.306943172454,
            34.4087813719932
          ],
          [
            -113.314861276406,
            34.4105706066323
          ],
          [
            -113.315963820975,
            34.4108196946805
          ],
          [
            -113.316768463535,
            34.411275524377
          ],
          [
            -113.323666835011,
            34.4141333323136
          ],
          [
            -113.334270248587,
            34.4181146310619
          ],
          [
            -113.347067941874,
            34.4228146948924
          ],
          [
            -113.353170999795,
            34.4247641966391
          ],
          [
            -113.356067565326,
            34.4260043994172
          ],
          [
            -113.370868490916,
            34.4351755951835
          ],
          [
            -113.378062906686,
            34.4381236538215
          ],
          [
            -113.380371920122,
            34.4395527472001
          ],
          [
            -113.380487645589,
            34.4402875185879
          ],
          [
            -113.386643692433,
            34.4424506331522
          ],
          [
            -113.390694485307,
            34.4435817855152
          ],
          [
            -113.394890615712,
            34.4441419716676
          ],
          [
            -113.410034756131,
            34.4438374374438
          ]
        ]
      },
      "properties": {
        "STATE": "AZ",
        "DESCRIPTION": "Normal fault, certain, (U/D designated in source)",
        "RuleID": 43,
        "type": "faults"
      }
    },
    {
      "type": "Feature",
      "geometry": {
        "type": "LineString",
        "coordinates": [
          [
            -112.971143116834,
            34.5744621468357
          ],
          [
            -112.948415137376,
            34.566293272745
          ],
          [
            -112.923916755462,
            34.5564213575335
          ],
          [
            -112.921453669276,
            34.5555878279747
          ],
          [
            -112.907773528546,
            34.5509651456922
          ],
          [
            -112.902988919883,
            34.5488150357911
          ],
          [
            -112.897702564405,
            34.5460616790481
          ],
          [
            -112.892307274724,
            34.5432511514515
          ],
          [
            -112.88700833295,
            34.5410114454109
          ],
          [
            -112.880314805206,
            34.5393542771687
          ],
          [
            -112.873850324504,
            34.538531760005
          ],
          [
            -112.865150739256,
            34.537425240083
          ],
          [
            -112.856365780817,
            34.5350705997805
          ],
          [
            -112.79708305905,
            34.5144823449597
          ],
          [
            -112.786650140324,
            34.510568923635
          ],
          [
            -112.772631501819,
            34.504542682017
          ],
          [
            -112.769058838154,
            34.5034876880579
          ],
          [
            -112.758524417886,
            34.5011624959977
          ],
          [
            -112.747726083368,
            34.4968609078679
          ]
        ]
      },
      "properties": {
        "STATE": "AZ",
        "DESCRIPTION": "Normal fault, certain, (U/D designated in source)",
        "RuleID": 43,
        "type": "faults"
      }
    },
    {
      "type": "Feature",
      "geometry": {
        "type": "LineString",
        "coordinates": [
          [
            -113.097535521253,
            34.5938824870172
          ],
          [
            -113.096171734921,
            34.5931936687823
          ],
          [
            -113.09419274635,
            34.5919924677154
          ],
          [
            -113.093256329023,
            34.5915374557843
          ],
          [
            -113.090753476216,
            34.5895765673678
          ],
          [
            -113.088362530137,
            34.5881073399698
          ],
          [
            -113.085855218093,
            34.5859863867611
          ],
          [
            -113.082921847686,
            34.5844519394051
          ],
          [
            -113.077838968705,
            34.5824514087913
          ],
          [
            -113.061931502839,
            34.5754656182687
          ],
          [
            -113.053149424399,
            34.5708329231027
          ],
          [
            -113.049961157929,
            34.5697054211884
          ],
          [
            -113.047814121518,
            34.5689074836259
          ],
          [
            -113.043257874482,
            34.5671152706594
          ],
          [
            -113.037957007618,
            34.5650468076002
          ],
          [
            -113.032756760151,
            34.5630575766747
          ],
          [
            -113.028858243396,
            34.5615085600164
          ],
          [
            -113.027462424938,
            34.5614055369189
          ],
          [
            -112.998469987253,
            34.5479318271984
          ],
          [
            -112.997588116528,
            34.5475218028872
          ],
          [
            -112.989049296478,
            34.5445551537975
          ],
          [
            -112.95385337102,
            34.5291759625154
          ],
          [
            -112.95235143278,
            34.5285260185116
          ],
          [
            -112.94955211437,
            34.5273377641761
          ],
          [
            -112.941249900684,
            34.5238589968589
          ],
          [
            -112.939654726301,
            34.5231878321128
          ],
          [
            -112.937777341681,
            34.5223836273195
          ],
          [
            -112.914262378745,
            34.5144910200625
          ],
          [
            -112.912053333427,
            34.5137073889102
          ],
          [
            -112.898950542625,
            34.5091489125441
          ],
          [
            -112.891648674873,
            34.5062079042257
          ],
          [
            -112.887652638808,
            34.504450657902
          ],
          [
            -112.883855717918,
            34.5030193100186
          ],
          [
            -112.878045650917,
            34.5011882789382
          ],
          [
            -112.873452161526,
            34.4997508147159
          ],
          [
            -112.869051334712,
            34.4983688282481
          ],
          [
            -112.864745879337,
            34.4968770231306
          ],
          [
            -112.863254505285,
            34.4963700582892
          ],
          [
            -112.859654629853,
            34.4951490719391
          ],
          [
            -112.849648796265,
            34.4917597261373
          ],
          [
            -112.842947721775,
            34.4886803852471
          ],
          [
            -112.822547296083,
            34.4800982496797
          ],
          [
            -112.811448661952,
            34.4755701098383
          ],
          [
            -112.808846733054,
            34.4744793116955
          ],
          [
            -112.803552107685,
            34.4723394623078
          ],
          [
            -112.797844135115,
            34.4700296362369
          ],
          [
            -112.78984910573,
            34.4671895110151
          ],
          [
            -112.774444605693,
            34.4624504387608
          ]
        ]
      },
      "properties": {
        "STATE": "AZ",
        "DESCRIPTION": "Normal fault, certain, (U/D designated in source)",
        "RuleID": 43,
        "type": "faults"
      }
    }
  ]
}