{
  "type": "FeatureCollection",
  "features": [
    {
      "type": "Feature",
      "geometry": {
        "type": "LineString",
        "coordinates": [
          [
            -110.090744320405,
            31.7005874915915
          ],
          [
            -110.090637660737,
            31.695775887891
          ]
        ]
      },
      "properties": {
        "STATE": "AZ",
        "DESCRIPTION": "Fault, sense of displacement unknown or undefined, certain",
        "RuleID": 22,
        "type": "faults"
      }
    },
    {
      "type": "Feature",
      "geometry": {
        "type": "LineString",
        "coordinates": [
          [
            -109.85073848666,
            31.3971437700425
          ],
          [
            -109.853013989343,
            31.3974370694732
          ],
          [
            -109.86583521849,
            31.3990758919689
          ]
        ]
      },
      "properties": {
        "STATE": "AZ",
        "DESCRIPTION": "Fault, sense of displacement unknown or undefined, certain",
        "RuleID": 22,
        "type": "faults"
      }
    },
    {
      "type": "Feature",
      "geometry": {
        "type": "LineString",
        "coordinates": [
          [
            -109.884525577071,
            31.4363686419526
          ],
          [
            -109.887172451378,
            31.4364559678213
          ],
          [
            -109.893821445141,
            31.4369776648796
          ],
          [
            -109.901130713214,
            31.4382589037727
          ]
        ]
      },
      "properties": {
        "STATE": "AZ",
        "DESCRIPTION": "Fault, sense of displacement unknown or undefined, certain",
        "RuleID": 22,
        "type": "faults"
      }
    },
    {
      "type": "Feature",
      "geometry": {
        "type": "LineString",
        "coordinates": [
          [
            -110.054049698728,
            31.6749784517067
          ],
          [
            -110.065560853611,
            31.6685992427765
          ],
          [
            -110.071139907158,
            31.6638133555805
          ],
          [
            -110.078432609399,
            31.6608011106276
          ]
        ]
      },
      "properties": {
        "STATE": "AZ",
        "DESCRIPTION": "Fault, sense of displacement unknown or undefined, certain",
        "RuleID": 22,
        "type": "faults"
      }
    },
    {
      "type": "Feature",
      "geometry": {
        "type": "LineString",
        "coordinates": [
          [
            -109.901130713214,
            31.4382589037727
          ],
          [
            -109.907243175597,
            31.439145734728
          ],
          [
            -109.912276011231,
            31.4403050436416
          ]
        ]
      },
      "properties": {
        "STATE": "AZ",
        "DESCRIPTION": "Fault, sense of displacement unknown or undefined, certain",
        "RuleID": 22,
        "type": "faults"
      }
    },
    {
      "type": "Feature",
      "geometry": {
        "type": "LineString",
        "coordinates": [
          [
            -109.85073848666,
            31.3971437700425
          ],
          [
            -109.845383996662,
            31.396308477982
          ],
          [
            -109.841865885887,
            31.3953407107771
          ],
          [
            -109.839491059178,
            31.3943651620403
          ],
          [
            -109.836478124986,
            31.3925808326268
          ],
          [
            -109.827559636472,
            31.386222584629
          ],
          [
            -109.818280128521,
            31.3782432299415
          ],
          [
            -109.809527725927,
            31.3680893294365
          ],
          [
            -109.799155245853,
            31.3503548369118
          ],
          [
            -109.796938531617,
            31.3433263104515
          ]
        ]
      },
      "properties": {
        "STATE": "AZ",
        "DESCRIPTION": "Fault, sense of displacement unknown or undefined, certain",
        "RuleID": 22,
        "type": "faults"
      }
    },
    {
      "type": "Feature",
      "geometry": {
        "type": "LineString",
        "coordinates": [
          [
            -110.047640717741,
            31.5304011516524
          ],
          [
            -110.023340109817,
            31.5195223603254
          ],
          [
            -110.019740645814,
            31.5177220132378
          ],
          [
            -110.014246078819,
            31.5143822710039
          ]
        ]
      },
      "properties": {
        "STATE": "AZ",
        "DESCRIPTION": "Fault, sense of displacement unknown or undefined, certain",
        "RuleID": 22,
        "type": "faults"
      }
    },
    {
      "type": "Feature",
      "geometry": {
        "type": "LineString",
        "coordinates": [
          [
            -110.003740513336,
            31.4215143561696
          ],
          [
            -109.99633970963,
            31.4214047026932
          ],
          [
            -109.991045066295,
            31.4209841835427
          ],
          [
            -109.981643609349,
            31.4199444284679
          ],
          [
            -109.975539190481,
            31.4189055871566
          ],
          [
            -109.970543606185,
            31.4173137511283
          ],
          [
            -109.953341135294,
            31.4101439622784
          ]
        ]
      },
      "properties": {
        "STATE": "AZ",
        "DESCRIPTION": "Fault, sense of displacement unknown or undefined, certain",
        "RuleID": 22,
        "type": "faults"
      }
    },
    {
      "type": "Feature",
      "geometry": {
        "type": "LineString",
        "coordinates": [
          [
            -109.937842328322,
            31.4573838972777
          ],
          [
            -109.938942292031,
            31.4548037274357
          ],
          [
            -109.936333643735,
            31.4499643742841
          ],
          [
            -109.933539148379,
            31.4483758244889
          ]
        ]
      },
      "properties": {
        "STATE": "AZ",
        "DESCRIPTION": "Fault, sense of displacement unknown or undefined, certain",
        "RuleID": 22,
        "type": "faults"
      }
    },
    {
      "type": "Feature",
      "geometry": {
        "type": "LineString",
        "coordinates": [
          [
            -109.971639222048,
            31.4399693029927
          ],
          [
            -109.975351766878,
            31.441953038534
          ]
        ]
      },
      "properties": {
        "STATE": "AZ",
        "DESCRIPTION": "Fault, sense of displacement unknown or undefined, certain",
        "RuleID": 22,
        "type": "faults"
      }
    },
    {
      "type": "Feature",
      "geometry": {
        "type": "LineString",
        "coordinates": [
          [
            -109.912276011231,
            31.4403050436416
          ],
          [
            -109.91522969614,
            31.4409819322759
          ],
          [
            -109.918439973131,
            31.4416541539049
          ],
          [
            -109.921201165244,
            31.4425503167293
          ],
          [
            -109.922191797695,
            31.4429962221658
          ],
          [
            -109.933539148379,
            31.4483758244889
          ]
        ]
      },
      "properties": {
        "STATE": "AZ",
        "DESCRIPTION": "Fault, sense of displacement unknown or undefined, certain",
        "RuleID": 22,
        "type": "faults"
      }
    },
    {
      "type": "Feature",
      "geometry": {
        "type": "LineString",
        "coordinates": [
          [
            -110.049244301253,
            31.4924126134704
          ],
          [
            -110.040843530702,
            31.4864337343524
          ],
          [
            -110.038917979314,
            31.4843329497243
          ],
          [
            -110.034718993164,
            31.4785362859391
          ],
          [
            -110.032207529107,
            31.4763069277231
          ],
          [
            -110.026371462167,
            31.4731523235613
          ],
          [
            -110.018229962475,
            31.4681641158324
          ],
          [
            -110.016060663116,
            31.4671234597657
          ]
        ]
      },
      "properties": {
        "STATE": "AZ",
        "DESCRIPTION": "Fault, sense of displacement unknown or undefined, certain",
        "RuleID": 22,
        "type": "faults"
      }
    },
    {
      "type": "Feature",
      "geometry": {
        "type": "LineString",
        "coordinates": [
          [
            -109.956347741752,
            31.596181299697
          ],
          [
            -109.959641890849,
            31.5926603723478
          ],
          [
            -109.963944188646,
            31.5899211466866
          ],
          [
            -109.967644040281,
            31.5882685395674
          ],
          [
            -109.971642421847,
            31.5874301838568
          ],
          [
            -109.979143416453,
            31.5867392748458
          ],
          [
            -109.989542987021,
            31.5852792163356
          ],
          [
            -109.992439824741,
            31.5843096970651
          ],
          [
            -109.996841457344,
            31.5819490456039
          ]
        ]
      },
      "properties": {
        "STATE": "AZ",
        "DESCRIPTION": "Fault, sense of displacement unknown or undefined, certain",
        "RuleID": 22,
        "type": "faults"
      }
    },
    {
      "type": "Feature",
      "geometry": {
        "type": "LineString",
        "coordinates": [
          [
            -110.090637660737,
            31.695775887891
          ],
          [
            -110.088145183471,
            31.6938567510784
          ],
          [
            -110.086343911308,
            31.693146923549
          ],
          [
            -110.080139436287,
            31.69424806164
          ],
          [
            -110.070938211122,
            31.6946865487099
          ]
        ]
      },
      "properties": {
        "STATE": "AZ",
        "DESCRIPTION": "Fault, sense of displacement unknown or undefined, certain",
        "RuleID": 22,
        "type": "faults"
      }
    },
    {
      "type": "Feature",
      "geometry": {
        "type": "LineString",
        "coordinates": [
          [
            -109.884525577071,
            31.4363686419526
          ],
          [
            -109.884306163563,
            31.4363316671249
          ],
          [
            -109.88379170379,
            31.436243951778
          ],
          [
            -109.883277349119,
            31.4361556584365
          ],
          [
            -109.882763026788,
            31.4360672032881
          ],
          [
            -109.882248657745,
            31.4359789956241
          ],
          [
            -109.881734170124,
            31.4358914516352
          ],
          [
            -109.881219488466,
            31.435804984448
          ],
          [
            -109.880704539111,
            31.4357200087235
          ],
          [
            -109.880189244803,
            31.4356369383576
          ],
          [
            -109.879673533676,
            31.4355561826489
          ],
          [
            -109.879157329375,
            31.435478162394
          ],
          [
            -109.878640555541,
            31.4354032861277
          ],
          [
            -109.878123139412,
            31.4353319692834
          ],
          [
            -109.877605006428,
            31.435264625763
          ],
          [
            -109.877086321878,
            31.4351996643831
          ],
          [
            -109.876567509767,
            31.435133613037
          ],
          [
            -109.876048579977,
            31.4350665728966
          ],
          [
            -109.875529533406,
            31.4349987256136
          ],
          [
            -109.875010372748,
            31.4349302543731
          ],
          [
            -109.874491099802,
            31.4348613415942
          ],
          [
            -109.873971711871,
            31.4347921704631
          ],
          [
            -109.873452215244,
            31.4347229272324
          ],
          [
            -109.872932607225,
            31.434653791257
          ],
          [
            -109.872412893206,
            31.4345849472576
          ],
          [
            -109.871893069592,
            31.434516582255
          ],
          [
            -109.871373141774,
            31.4344488725396
          ],
          [
            -109.870853108852,
            31.4343820066662
          ],
          [
            -109.870333240323,
            31.4343161977172
          ],
          [
            -109.870305171563,
            31.4343127102456
          ]
        ]
      },
      "properties": {
        "STATE": "AZ",
        "DESCRIPTION": "Fault, sense of displacement unknown or undefined, certain",
        "RuleID": 22,
        "type": "faults"
      }
    },
    {
      "type": "Feature",
      "geometry": {
        "type": "LineString",
        "coordinates": [
          [
            -109.971639222048,
            31.4399693029927
          ],
          [
            -109.959929941933,
            31.4337111891943
          ],
          [
            -109.945122425403,
            31.4228787486244
          ],
          [
            -109.931369996344,
            31.4111422074928
          ]
        ]
      },
      "properties": {
        "STATE": "AZ",
        "DESCRIPTION": "Fault, sense of displacement unknown or undefined, certain",
        "RuleID": 22,
        "type": "faults"
      }
    },
    {
      "type": "Feature",
      "geometry": {
        "type": "LineString",
        "coordinates": [
          [
            -109.870305171563,
            31.4343127102456
          ],
          [
            -109.869812735786,
            31.4342515323069
          ],
          [
            -109.869292393844,
            31.4341882909688
          ],
          [
            -109.868771956681,
            31.434126624702
          ],
          [
            -109.868251418906,
            31.4340667143987
          ],
          [
            -109.867730785012,
            31.43400874785
          ],
          [
            -109.867210054998,
            31.433952906715
          ],
          [
            -109.866689230661,
            31.4338993734202
          ],
          [
            -109.866168311102,
            31.4338483296254
          ],
          [
            -109.865647301712,
            31.4337999615898
          ],
          [
            -109.865126199796,
            31.4337544494407
          ],
          [
            -109.864605008048,
            31.4337119809704
          ],
          [
            -109.864083727366,
            31.4336727363065
          ],
          [
            -109.86356235865,
            31.4336368971093
          ],
          [
            -109.863040906391,
            31.4336046488718
          ],
          [
            -109.862519366096,
            31.4335761770867
          ],
          [
            -109.861997742259,
            31.4335516603479
          ],
          [
            -109.861476037573,
            31.4335312826148
          ],
          [
            -109.860954233173,
            31.4335156034231
          ],
          [
            -109.86043222306,
            31.4335071429744
          ],
          [
            -109.859909994656,
            31.4335059097018
          ],
          [
            -109.85938756503,
            31.4335113793307
          ],
          [
            -109.858864943164,
            31.4335230275851
          ],
          [
            -109.85834214433,
            31.4335403317208
          ],
          [
            -109.857819179307,
            31.4335627682265
          ],
          [
            -109.857296063368,
            31.4335898089916
          ],
          [
            -109.856772809088,
            31.4336209320372
          ],
          [
            -109.856249427247,
            31.4336556138516
          ],
          [
            -109.855725934015,
            31.4336933301569
          ],
          [
            -109.855202340172,
            31.4337335559092
          ],
          [
            -109.854678657396,
            31.4337757675984
          ],
          [
            -109.854154902754,
            31.4338194394155
          ],
          [
            -109.853631086129,
            31.4338640493849
          ],
          [
            -109.853107222791,
            31.4339090732327
          ],
          [
            -109.852583322623,
            31.4339539836198
          ],
          [
            -109.852059402691,
            31.4339982616394
          ],
          [
            -109.851535473776,
            31.4340413784217
          ],
          [
            -109.851011546658,
            31.4340828096964
          ],
          [
            -109.850487639303,
            31.4341220365597
          ],
          [
            -109.849963762491,
            31.4341585286111
          ],
          [
            -109.849439929696,
            31.4341917646485
          ],
          [
            -109.848916153494,
            31.4342212204045
          ],
          [
            -109.848392446464,
            31.4342463723783
          ],
          [
            -109.847868823874,
            31.4342666940031
          ],
          [
            -109.847345297405,
            31.4342816640774
          ],
          [
            -109.846821879632,
            31.4342907552672
          ],
          [
            -109.846298586724,
            31.4342934456031
          ],
          [
            -109.845775404309,
            31.4342894829146
          ],
          [
            -109.845251962281,
            31.434282924933
          ],
          [
            -109.844728154639,
            31.4342752448276
          ],
          [
            -109.844204018214,
            31.4342664027416
          ],
          [
            -109.843679590734,
            31.4342563580511
          ],
          [
            -109.843154909929,
            31.434245064767
          ],
          [
            -109.842630010834,
            31.4342324853317
          ],
          [
            -109.842104932076,
            31.4342185737558
          ],
          [
            -109.84157970779,
            31.4342032878824
          ],
          [
            -109.841054374809,
            31.434186587854
          ],
          [
            -109.840528974454,
            31.4341684276811
          ],
          [
            -109.840003539064,
            31.4341487675061
          ],
          [
            -109.839478105471,
            31.434127564405
          ],
          [
            -109.838952714998,
            31.4341047769871
          ],
          [
            -109.838427399084,
            31.4340803600289
          ],
          [
            -109.837902196358,
            31.4340542752051
          ],
          [
            -109.837377145448,
            31.4340264765257
          ],
          [
            -109.836852280489,
            31.433996924132
          ],
          [
            -109.836327638312,
            31.4339655728002
          ],
          [
            -109.835803257544,
            31.4339323834378
          ],
          [
            -109.835279175916,
            31.4338973123536
          ],
          [
            -109.834755426664,
            31.4338603158561
          ],
          [
            -109.834232049315,
            31.4338213533193
          ],
          [
            -109.833709078903,
            31.433780383351
          ],
          [
            -109.833186554953,
            31.433737360726
          ],
          [
            -109.832664509806,
            31.4336922432849
          ],
          [
            -109.832142986579,
            31.4336449919341
          ],
          [
            -109.831622015817,
            31.4335955614479
          ],
          [
            -109.831101637044,
            31.4335439104327
          ],
          [
            -109.830581887092,
            31.4334899974947
          ],
          [
            -109.830062802791,
            31.4334337774075
          ],
          [
            -109.829544420075,
            31.4333752103096
          ],
          [
            -109.829026777571,
            31.4333142532734
          ],
          [
            -109.828509910313,
            31.4332508649041
          ],
          [
            -109.827993856928,
            31.4331849999741
          ],
          [
            -109.827479140236,
            31.4331139964684
          ],
          [
            -109.826967672751,
            31.4330276248295
          ],
          [
            -109.8264593332,
            31.4329263610046
          ],
          [
            -109.825953762256,
            31.4328119303134
          ],
          [
            -109.825450605984,
            31.4326860603775
          ],
          [
            -109.824949507753,
            31.4325504742242
          ],
          [
            -109.824450109133,
            31.4324068979533
          ],
          [
            -109.82395205619,
            31.4322570576729
          ],
          [
            -109.823454991394,
            31.4321026802671
          ],
          [
            -109.822958557215,
            31.4319454887977
          ],
          [
            -109.822462397023,
            31.4317872117038
          ],
          [
            -109.821966155982,
            31.43162957207
          ],
          [
            -109.821469473868,
            31.4314742952922
          ],
          [
            -109.820971997643,
            31.4313231083107
          ],
          [
            -109.820473367982,
            31.4311777380762
          ],
          [
            -109.819973229151,
            31.4310399069506
          ],
          [
            -109.819471223621,
            31.4309113426696
          ],
          [
            -109.818966993862,
            31.4307937683769
          ],
          [
            -109.81846018504,
            31.4306889141202
          ],
          [
            -109.817950437828,
            31.4305985015183
          ],
          [
            -109.81743754292,
            31.4305235653992
          ],
          [
            -109.816922519903,
            31.4304592867592
          ],
          [
            -109.816405747866,
            31.4304038390287
          ],
          [
            -109.815887362455,
            31.4303565338978
          ],
          [
            -109.815367497519,
            31.4303166884185
          ],
          [
            -109.814846290499,
            31.4302836188729
          ],
          [
            -109.814323879738,
            31.4302566392415
          ],
          [
            -109.813800393692,
            31.4302350650355
          ],
          [
            -109.813275973399,
            31.4302182117645
          ],
          [
            -109.812750752707,
            31.430205394937
          ],
          [
            -109.812224866363,
            31.4301959308266
          ],
          [
            -109.81169845181,
            31.4301891326407
          ],
          [
            -109.811171644693,
            31.4301843181848
          ],
          [
            -109.810644578861,
            31.4301808014321
          ],
          [
            -109.810117390859,
            31.4301778986545
          ],
          [
            -109.809590216331,
            31.4301749253579
          ],
          [
            -109.809063191822,
            31.4301711962812
          ],
          [
            -109.80853645118,
            31.4301660261633
          ],
          [
            -109.80801013095,
            31.4301587312758
          ],
          [
            -109.807484369472,
            31.4301486271238
          ],
          [
            -109.807426745242,
            31.4301471354928
          ]
        ]
      },
      "properties": {
        "STATE": "AZ",
        "DESCRIPTION": "Fault, sense of displacement unknown or undefined, certain",
        "RuleID": 22,
        "type": "faults"
      }
    },
    {
      "type": "Feature",
      "geometry": {
        "type": "LineString",
        "coordinates": [
          [
            -110.014246078819,
            31.5143822710039
          ],
          [
            -110.009615183579,
            31.5103791111691
          ],
          [
            -109.998478391709,
            31.5026102436157
          ]
        ]
      },
      "properties": {
        "STATE": "AZ",
        "DESCRIPTION": "Fault, sense of displacement unknown or undefined, certain",
        "RuleID": 22,
        "type": "faults"
      }
    },
    {
      "type": "Feature",
      "geometry": {
        "type": "LineString",
        "coordinates": [
          [
            -110.016060663116,
            31.4671234597657
          ],
          [
            -110.010878439447,
            31.4646430669803
          ],
          [
            -110.007399973123,
            31.4626267882464
          ],
          [
            -109.999122026526,
            31.4570408713928
          ],
          [
            -109.989274831823,
            31.4495677348075
          ],
          [
            -109.982012458503,
            31.4450894283349
          ],
          [
            -109.975351766878,
            31.441953038534
          ]
        ]
      },
      "properties": {
        "STATE": "AZ",
        "DESCRIPTION": "Fault, sense of displacement unknown or undefined, certain",
        "RuleID": 22,
        "type": "faults"
      }
    },
    {
      "type": "Feature",
      "geometry": {
        "type": "LineString",
        "coordinates": [
          [
            -110.070938211122,
            31.6946865487099
          ],
          [
            -110.063644014983,
            31.6949354053797
          ],
          [
            -110.05344651415,
            31.6968358428951
          ]
        ]
      },
      "properties": {
        "STATE": "AZ",
        "DESCRIPTION": "Fault, sense of displacement unknown or undefined, certain",
        "RuleID": 22,
        "type": "faults"
      }
    },
    {
      "type": "Feature",
      "geometry": {
        "type": "LineString",
        "coordinates": [
          [
            -110.090241288999,
            31.6676274169193
          ],
          [
            -110.089342830883,
            31.6720664848593
          ],
          [
            -110.08904237137,
            31.6783863441739
          ],
          [
            -110.090637660737,
            31.695775887891
          ]
        ]
      },
      "properties": {
        "STATE": "AZ",
        "DESCRIPTION": "Fault, sense of displacement unknown or undefined, certain",
        "RuleID": 22,
        "type": "faults"
      }
    },
    {
      "type": "Feature",
      "geometry": {
        "type": "LineString",
        "coordinates": [
          [
            -109.904539684072,
            31.7565455535217
          ],
          [
            -109.898435827549,
            31.7529745775581
          ],
          [
            -109.895434677457,
            31.749265597764
          ],
          [
            -109.890640914063,
            31.7443456206246
          ],
          [
            -109.887444104615,
            31.7407655650465
          ],
          [
            -109.882535694631,
            31.7343670237225
          ],
          [
            -109.881840284515,
            31.7329445589981
          ],
          [
            -109.874659108116,
            31.7192634898539
          ],
          [
            -109.873935750513,
            31.7125383665095
          ],
          [
            -109.87301764175,
            31.7076338520336
          ],
          [
            -109.868584018344,
            31.6970101457566
          ],
          [
            -109.866448296213,
            31.6934096550249
          ],
          [
            -109.860362202079,
            31.6876493399941
          ]
        ]
      },
      "properties": {
        "STATE": "AZ",
        "DESCRIPTION": "Normal fault, certain, (U/D designated in source)",
        "RuleID": 43,
        "type": "faults"
      }
    },
    {
      "type": "Feature",
      "geometry": {
        "type": "LineString",
        "coordinates": [
          [
            -109.91824102594,
            31.7104071184588
          ],
          [
            -109.914741415071,
            31.7058756461403
          ],
          [
            -109.909043520699,
            31.6972768843193
          ],
          [
            -109.90583747657,
            31.6936565996609
          ],
          [
            -109.902739178171,
            31.6869563063366
          ],
          [
            -109.900738058705,
            31.6837567317217
          ],
          [
            -109.893340977618,
            31.6749982752594
          ],
          [
            -109.888936736307,
            31.6678081724833
          ],
          [
            -109.884644051382,
            31.6638576294202
          ],
          [
            -109.877539242563,
            31.6583982004243
          ],
          [
            -109.870838445652,
            31.6549176728701
          ]
        ]
      },
      "properties": {
        "STATE": "AZ",
        "DESCRIPTION": "Normal fault, certain, (U/D designated in source)",
        "RuleID": 43,
        "type": "faults"
      }
    }
  ]
}