{
  "type": "FeatureCollection",
  "features": [
    {
      "type": "Feature",
      "geometry": {
        "type": "LineString",
        "coordinates": [
          [
            -110.98557953380914,
            46.619188804824965
          ],
          [
            -110.98150670256668,
            46.617546639881226
          ],
          [
            -110.97618573140718,
            46.614787756929715
          ],
          [
            -110.96876265217719,
            46.611372016120264
          ],
          [
            -110.95973011984316,
            46.606248343175494
          ],
          [
            -110.95217562337531,
            46.60145308196269
          ],
          [
            -110.945959175608,
            46.59742881677411
          ],
          [
            -110.94558743387881,
            46.597242956774
          ],
          [
            -110.94512990663326,
            46.597042801132076
          ],
          [
            -110.94434353400995,
            46.59671397301828
          ],
          [
            -110.94335699428346,
            46.59637085328285
          ],
          [
            -110.9428994679362,
            46.5961849927403
          ],
          [
            -110.93811772400073,
            46.59475294015298
          ],
          [
            -110.93332228614707,
            46.59317647480364
          ],
          [
            -110.92813267742822,
            46.5904175721638
          ],
          [
            -110.92379703686285,
            46.587527261756215
          ],
          [
            -110.9210379980116,
            46.5859507387171
          ],
          [
            -110.91933003475518,
            46.58542525274671
          ]
        ]
      },
      "properties": {
        "fault_name": "Smith Valley fault",
        "age": "undifferentiated Quaternary",
        "slip_rate": "Less than 0.2 mm/yr"
      }
    }
  ]
}