{
  "type": "FeatureCollection",
  "features": [
    {
      "type": "Feature",
      "geometry": {
        "type": "LineString",
        "coordinates": [
          [
            -114.70511559033788,
            39.71250211696138
          ],
          [
            -114.7057794588076,
            39.710801017806496
          ],
          [
            -114.70727501811002,
            39.70918379770133
          ],
          [
            -114.70841167710029,
            39.70749769419617
          ],
          [
            -114.70999834892874,
            39.70589936194345
          ],
          [
            -114.71009001841023,
            39.70580769726449
          ]
        ]
      },
      "properties": {
        "fault_name": "Central Steptoe fault zone",
        "age": "late Quaternary",
        "slip_rate": "Less than 0.2 mm/yr"
      }
    },
    {
      "type": "Feature",
      "geometry": {
        "type": "LineString",
        "coordinates": [
          [
            -114.69872231369847,
            39.722744849232264
          ],
          [
            -114.69935562507548,
            39.720970970340275
          ],
          [
            -114.70001948366371,
            39.718853765001874
          ],
          [
            -114.7013239102198,
            39.71645822182986
          ],
          [
            -114.70243000313417,
            39.714359900343126
          ],
          [
            -114.70246055573531,
            39.71417712404945
          ]
        ]
      },
      "properties": {
        "fault_name": "Central Steptoe fault zone",
        "age": "late Quaternary",
        "slip_rate": "Less than 0.2 mm/yr"
      }
    },
    {
      "type": "Feature",
      "geometry": {
        "type": "LineString",
        "coordinates": [
          [
            -114.69938682715856,
            39.750633434785996
          ],
          [
            -114.70233184781634,
            39.747536216324136
          ]
        ]
      },
      "properties": {
        "fault_name": "Central Steptoe fault zone",
        "age": "late Quaternary",
        "slip_rate": "Less than 0.2 mm/yr"
      }
    },
    {
      "type": "Feature",
      "geometry": {
        "type": "LineString",
        "coordinates": [
          [
            -114.69662510414123,
            39.75336121581691
          ],
          [
            -114.69820402081385,
            39.751141219794974
          ]
        ]
      },
      "properties": {
        "fault_name": "Central Steptoe fault zone",
        "age": "late Quaternary",
        "slip_rate": "Less than 0.2 mm/yr"
      }
    },
    {
      "type": "Feature",
      "geometry": {
        "type": "LineString",
        "coordinates": [
          [
            -114.6924972519859,
            39.75897287417649
          ],
          [
            -114.69578564557621,
            39.754906210102725
          ]
        ]
      },
      "properties": {
        "fault_name": "Central Steptoe fault zone",
        "age": "late Quaternary",
        "slip_rate": "Less than 0.2 mm/yr"
      }
    },
    {
      "type": "Feature",
      "geometry": {
        "type": "LineString",
        "coordinates": [
          [
            -114.6799236102092,
            39.76279517888536
          ],
          [
            -114.68151808929579,
            39.76161239779716
          ],
          [
            -114.68332645186165,
            39.75866018366368
          ],
          [
            -114.68487536390546,
            39.75582575126898
          ],
          [
            -114.68662261408251,
            39.75303686820479
          ],
          [
            -114.68737039508122,
            39.75043521691428
          ],
          [
            -114.68799592704785,
            39.748245789339556
          ],
          [
            -114.68832366390453,
            39.74604080871799
          ],
          [
            -114.68868250043636,
            39.74325638878849
          ],
          [
            -114.68878135733843,
            39.74171529496697
          ]
        ]
      },
      "properties": {
        "fault_name": "Central Steptoe fault zone",
        "age": "late Quaternary",
        "slip_rate": "Less than 0.2 mm/yr"
      }
    },
    {
      "type": "Feature",
      "geometry": {
        "type": "LineString",
        "coordinates": [
          [
            -114.67505641313402,
            39.78628168271977
          ],
          [
            -114.67636087292776,
            39.78333336505988
          ],
          [
            -114.67780255397442,
            39.779877270219714
          ],
          [
            -114.67855033676976,
            39.7776645067713
          ],
          [
            -114.67953478970982,
            39.77508563321983
          ],
          [
            -114.68007645855481,
            39.77327008568603
          ],
          [
            -114.68064868269582,
            39.770923990686946
          ]
        ]
      },
      "properties": {
        "fault_name": "Central Steptoe fault zone",
        "age": "late Quaternary",
        "slip_rate": "Less than 0.2 mm/yr"
      }
    },
    {
      "type": "Feature",
      "geometry": {
        "type": "LineString",
        "coordinates": [
          [
            -114.90946830824825,
            39.85295330311064
          ],
          [
            -114.90884995022746,
            39.85178609180072
          ],
          [
            -114.90859048712899,
            39.8501611049941
          ],
          [
            -114.90816323580346,
            39.8475900149896
          ],
          [
            -114.90649983437501,
            39.84401949197926
          ],
          [
            -114.90471476242953,
            39.84056730166605
          ],
          [
            -114.90343304797878,
            39.83832454525015
          ],
          [
            -114.90205966314825,
            39.83599345511427
          ],
          [
            -114.90029738056319,
            39.833712367668845
          ],
          [
            -114.89974791613821,
            39.83284237680499
          ]
        ]
      },
      "properties": {
        "fault_name": "Steptoe Valley fault system",
        "age": "late Quaternary",
        "slip_rate": "Less than 0.2 mm/yr"
      }
    },
    {
      "type": "Feature",
      "geometry": {
        "type": "LineString",
        "coordinates": [
          [
            -114.8447135869624,
            39.68171326378058
          ],
          [
            -114.84582024312047,
            39.67958883396997
          ],
          [
            -114.84706356357596,
            39.67721218531557
          ],
          [
            -114.84730798528331,
            39.67558330916451
          ],
          [
            -114.84771962478752,
            39.67362610217485
          ],
          [
            -114.8483223835634,
            39.671734451106914
          ],
          [
            -114.84886403264544,
            39.67007890813106
          ],
          [
            -114.8492529007555,
            39.66835447828983
          ],
          [
            -114.85046621837883,
            39.665745051714865
          ],
          [
            -114.85153454072879,
            39.663692842780094
          ],
          [
            -114.85167175120192,
            39.66281951767671
          ]
        ]
      },
      "properties": {
        "fault_name": "Steptoe Valley fault system",
        "age": "late Quaternary",
        "slip_rate": "Less than 0.2 mm/yr"
      }
    },
    {
      "type": "Feature",
      "geometry": {
        "type": "LineString",
        "coordinates": [
          [
            -114.82841992637272,
            39.988062019293004
          ],
          [
            -114.83097553004978,
            39.98487258826898
          ],
          [
            -114.8330966824043,
            39.982767041806966
          ],
          [
            -114.8346606052965,
            39.98151204523667
          ],
          [
            -114.83604174258797,
            39.97998594179095
          ],
          [
            -114.83703342696609,
            39.97848317085619
          ],
          [
            -114.83832289477604,
            39.97700317707378
          ],
          [
            -114.84053571840869,
            39.97501151686059
          ],
          [
            -114.84160352243072,
            39.974500405971504
          ]
        ]
      },
      "properties": {
        "fault_name": "Steptoe Valley fault system",
        "age": "late Quaternary",
        "slip_rate": "Less than 0.2 mm/yr"
      }
    },
    {
      "type": "Feature",
      "geometry": {
        "type": "LineString",
        "coordinates": [
          [
            -114.78122436643473,
            40.13653939076642
          ],
          [
            -114.78163657097927,
            40.13352998028747
          ],
          [
            -114.78168211286923,
            40.13161889086678
          ],
          [
            -114.78168987610991,
            40.12987168877579
          ],
          [
            -114.78115595164101,
            40.12746449930917
          ],
          [
            -114.78021700735322,
            40.12384454280087
          ],
          [
            -114.7780885894247,
            40.12045736894857
          ],
          [
            -114.77696688199401,
            40.11898850077669
          ],
          [
            -114.77526570461124,
            40.11638687085774
          ],
          [
            -114.773838983209,
            40.114414677670446
          ],
          [
            -114.77247282173165,
            40.11274747977467
          ]
        ]
      },
      "properties": {
        "fault_name": "Steptoe Valley fault system",
        "age": "late Quaternary",
        "slip_rate": "Less than 0.2 mm/yr"
      }
    },
    {
      "type": "Feature",
      "geometry": {
        "type": "LineString",
        "coordinates": [
          [
            -114.90843848140314,
            39.87952255103734
          ],
          [
            -114.90939182209166,
            39.877584784072376
          ],
          [
            -114.91080350120447,
            39.87428869373635
          ],
          [
            -114.91172684175578,
            39.87214537407709
          ],
          [
            -114.91215406613185,
            39.871080936253776
          ]
        ]
      },
      "properties": {
        "fault_name": "Steptoe Valley fault system",
        "age": "late Quaternary",
        "slip_rate": "Less than 0.2 mm/yr"
      }
    },
    {
      "type": "Feature",
      "geometry": {
        "type": "LineString",
        "coordinates": [
          [
            -114.91169622986583,
            39.864584317675956
          ],
          [
            -114.91171897520886,
            39.86031212827525
          ],
          [
            -114.91104726624333,
            39.8570121537668
          ],
          [
            -114.91042168037781,
            39.85510883879686
          ],
          [
            -114.90952886727482,
            39.8534149661717
          ],
          [
            -114.90946830824825,
            39.85295330311064
          ]
        ]
      },
      "properties": {
        "fault_name": "Steptoe Valley fault system",
        "age": "late Quaternary",
        "slip_rate": "Less than 0.2 mm/yr"
      }
    },
    {
      "type": "Feature",
      "geometry": {
        "type": "LineString",
        "coordinates": [
          [
            -114.90445565057234,
            39.88637751166542
          ],
          [
            -114.90618735091184,
            39.88476029778657
          ],
          [
            -114.90776681825173,
            39.88249419697
          ],
          [
            -114.90896461658022,
            39.88112475869364
          ],
          [
            -114.90990296259004,
            39.87978587719492
          ]
        ]
      },
      "properties": {
        "fault_name": "Steptoe Valley fault system",
        "age": "late Quaternary",
        "slip_rate": "Less than 0.2 mm/yr"
      }
    },
    {
      "type": "Feature",
      "geometry": {
        "type": "LineString",
        "coordinates": [
          [
            -114.88142970622303,
            39.91424793900518
          ],
          [
            -114.88400863555476,
            39.91076129012066
          ],
          [
            -114.88576311177998,
            39.9087696342371
          ],
          [
            -114.88711369197871,
            39.90733574870256
          ],
          [
            -114.88925761842233,
            39.904814092765776
          ],
          [
            -114.89057764063007,
            39.9033529888707
          ],
          [
            -114.8930037925831,
            39.900324114324334
          ],
          [
            -114.89493382386935,
            39.89771468289662
          ],
          [
            -114.8973066383524,
            39.89452192126591
          ],
          [
            -114.89878665859706,
            39.8920541558843
          ],
          [
            -114.90077835922757,
            39.8896963903165
          ],
          [
            -114.90244894268673,
            39.88779695424623
          ],
          [
            -114.90297561864958,
            39.88726640182322
          ]
        ]
      },
      "properties": {
        "fault_name": "Steptoe Valley fault system",
        "age": "late Quaternary",
        "slip_rate": "Less than 0.2 mm/yr"
      }
    },
    {
      "type": "Feature",
      "geometry": {
        "type": "LineString",
        "coordinates": [
          [
            -114.8964745037519,
            39.83309461032878
          ],
          [
            -114.89221716034666,
            39.83127074833447
          ],
          [
            -114.88914262598114,
            39.82904299790927
          ],
          [
            -114.88702922698582,
            39.82731524068441
          ],
          [
            -114.88429024122667,
            39.82336305702383
          ],
          [
            -114.88202404059817,
            39.81878587829544
          ],
          [
            -114.88085675803987,
            39.81431480300679
          ],
          [
            -114.88013227844134,
            39.81206815602266
          ],
          [
            -114.88020060340354,
            39.81041261284856
          ],
          [
            -114.88055170544077,
            39.80797874112569
          ],
          [
            -114.88103225920199,
            39.80599486629086
          ],
          [
            -114.88134503821088,
            39.80512153904477
          ]
        ]
      },
      "properties": {
        "fault_name": "Steptoe Valley fault system",
        "age": "late Quaternary",
        "slip_rate": "Less than 0.2 mm/yr"
      }
    },
    {
      "type": "Feature",
      "geometry": {
        "type": "LineString",
        "coordinates": [
          [
            -114.88437407021235,
            39.81465423333355
          ],
          [
            -114.88470182593363,
            39.8105192637302
          ],
          [
            -114.88489289130636,
            39.80353098196927
          ],
          [
            -114.88457230144608,
            39.79978489999885
          ],
          [
            -114.88451894241652,
            39.79638992584711
          ],
          [
            -114.8838855762423,
            39.79386439114675
          ],
          [
            -114.88362611314385,
            39.792235516007366
          ],
          [
            -114.88341998302378,
            39.79042330826231
          ],
          [
            -114.88346609085238,
            39.78975609024984
          ]
        ]
      },
      "properties": {
        "fault_name": "Steptoe Valley fault system",
        "age": "late Quaternary",
        "slip_rate": "Less than 0.2 mm/yr"
      }
    },
    {
      "type": "Feature",
      "geometry": {
        "type": "LineString",
        "coordinates": [
          [
            -114.87868295093497,
            39.91172241292545
          ],
          [
            -114.88301691434573,
            39.906541881211304
          ]
        ]
      },
      "properties": {
        "fault_name": "Steptoe Valley fault system",
        "age": "late Quaternary",
        "slip_rate": "Less than 0.2 mm/yr"
      }
    },
    {
      "type": "Feature",
      "geometry": {
        "type": "LineString",
        "coordinates": [
          [
            -114.88202384027386,
            39.79045775828701
          ],
          [
            -114.87888040692263,
            39.78733779126486
          ],
          [
            -114.87668312055115,
            39.78565503172981
          ],
          [
            -114.87490528992518,
            39.78467893523314
          ],
          [
            -114.87244132967847,
            39.78290506831546
          ],
          [
            -114.87046516541079,
            39.78195897165916
          ],
          [
            -114.86845844405043,
            39.7811234313395
          ],
          [
            -114.86710785217359,
            39.780677326259124
          ]
        ]
      },
      "properties": {
        "fault_name": "Steptoe Valley fault system",
        "age": "late Quaternary",
        "slip_rate": "Less than 0.2 mm/yr"
      }
    },
    {
      "type": "Feature",
      "geometry": {
        "type": "LineString",
        "coordinates": [
          [
            -114.87403683733606,
            39.92848397025397
          ],
          [
            -114.8754862995897,
            39.925760653233205
          ],
          [
            -114.87661575768463,
            39.92354399675515
          ],
          [
            -114.87766855175659,
            39.92197622986309
          ],
          [
            -114.87851523097986,
            39.92051901324753
          ],
          [
            -114.87956802684843,
            39.9191801316755
          ],
          [
            -114.88102526941076,
            39.91691792068958
          ],
          [
            -114.88134583142326,
            39.916479035196375
          ]
        ]
      },
      "properties": {
        "fault_name": "Steptoe Valley fault system",
        "age": "late Quaternary",
        "slip_rate": "Less than 0.2 mm/yr"
      }
    },
    {
      "type": "Feature",
      "geometry": {
        "type": "LineString",
        "coordinates": [
          [
            -114.86990900224873,
            39.93572837576846
          ],
          [
            -114.87332739194213,
            39.93099395369543
          ]
        ]
      },
      "properties": {
        "fault_name": "Steptoe Valley fault system",
        "age": "late Quaternary",
        "slip_rate": "Less than 0.2 mm/yr"
      }
    },
    {
      "type": "Feature",
      "geometry": {
        "type": "LineString",
        "coordinates": [
          [
            -114.85949491221167,
            39.946054444923845
          ],
          [
            -114.86074604082361,
            39.94379612270312
          ],
          [
            -114.86279829958237,
            39.94137002416656
          ],
          [
            -114.86468278358878,
            39.9396994739959
          ],
          [
            -114.86662837908564,
            39.93821170121116
          ],
          [
            -114.8673683932504,
            39.93754003733835
          ]
        ]
      },
      "properties": {
        "fault_name": "Steptoe Valley fault system",
        "age": "late Quaternary",
        "slip_rate": "Less than 0.2 mm/yr"
      }
    },
    {
      "type": "Feature",
      "geometry": {
        "type": "LineString",
        "coordinates": [
          [
            -114.86415555426368,
            39.78026122681349
          ],
          [
            -114.86248440306927,
            39.78006679179019
          ],
          [
            -114.85962321678709,
            39.77942236109173
          ],
          [
            -114.85793705743923,
            39.77833515171744
          ],
          [
            -114.85607589279928,
            39.77724794380812
          ],
          [
            -114.85490863808876,
            39.776587954192266
          ]
        ]
      },
      "properties": {
        "fault_name": "Steptoe Valley fault system",
        "age": "late Quaternary",
        "slip_rate": "Less than 0.2 mm/yr"
      }
    },
    {
      "type": "Feature",
      "geometry": {
        "type": "LineString",
        "coordinates": [
          [
            -114.83970160931116,
            39.70139310422814
          ],
          [
            -114.84127326490135,
            39.69867367622719
          ],
          [
            -114.84228770540226,
            39.6970786867803
          ],
          [
            -114.84475992026812,
            39.69331371172486
          ],
          [
            -114.84620159682319,
            39.69187927497828
          ],
          [
            -114.8479871646387,
            39.69007150609137
          ],
          [
            -114.85033718616806,
            39.687965404276866
          ],
          [
            -114.85289276918385,
            39.68582930124651
          ],
          [
            -114.85489168777765,
            39.684619858984085
          ],
          [
            -114.85739394320497,
            39.68285764221014
          ],
          [
            -114.85918729941397,
            39.68150709219793
          ],
          [
            -114.86083509710595,
            39.680252093747576
          ]
        ]
      },
      "properties": {
        "fault_name": "Steptoe Valley fault system",
        "age": "late Quaternary",
        "slip_rate": "Less than 0.2 mm/yr"
      }
    },
    {
      "type": "Feature",
      "geometry": {
        "type": "LineString",
        "coordinates": [
          [
            -114.84354917541977,
            39.98128701621848
          ],
          [
            -114.84489975202524,
            39.979276469782114
          ],
          [
            -114.84525808370388,
            39.977617034754424
          ],
          [
            -114.84615085638269,
            39.97322650916711
          ],
          [
            -114.84701308544352,
            39.970781526134424
          ],
          [
            -114.84822587306084,
            39.96760376777628
          ],
          [
            -114.8500803443536,
            39.96413989901337
          ],
          [
            -114.85188814726901,
            39.9610460268651
          ],
          [
            -114.8529642750805,
            39.95913492608946
          ],
          [
            -114.85442152033775,
            39.95673549370934
          ],
          [
            -114.85567264715307,
            39.954241063972646
          ],
          [
            -114.85667987687717,
            39.951662190866344
          ],
          [
            -114.85771711033179,
            39.94935442621897
          ],
          [
            -114.8579232215872,
            39.948713317655894
          ]
        ]
      },
      "properties": {
        "fault_name": "Steptoe Valley fault system",
        "age": "late Quaternary",
        "slip_rate": "Less than 0.2 mm/yr"
      }
    },
    {
      "type": "Feature",
      "geometry": {
        "type": "LineString",
        "coordinates": [
          [
            -114.85491584976386,
            39.77509629799477
          ],
          [
            -114.85370303429879,
            39.773791867844025
          ],
          [
            -114.85184131270337,
            39.77234188529765
          ],
          [
            -114.85015515155888,
            39.771041342664056
          ],
          [
            -114.84831620944244,
            39.769424140178145
          ],
          [
            -114.84635559231741,
            39.76760416230779
          ],
          [
            -114.84583668588341,
            39.766803058040004
          ]
        ]
      },
      "properties": {
        "fault_name": "Steptoe Valley fault system",
        "age": "late Quaternary",
        "slip_rate": "Less than 0.2 mm/yr"
      }
    },
    {
      "type": "Feature",
      "geometry": {
        "type": "LineString",
        "coordinates": [
          [
            -114.84667613905857,
            39.7650714012104
          ],
          [
            -114.84495164230931,
            39.76336253177269
          ],
          [
            -114.84321214638977,
            39.761954770311036
          ],
          [
            -114.84131208918963,
            39.760288121672225
          ],
          [
            -114.8397331482625,
            39.758304253896256
          ],
          [
            -114.83864200331442,
            39.75688871308403
          ],
          [
            -114.83742862819892,
            39.7548976223273
          ],
          [
            -114.8372836122643,
            39.75308207902745
          ],
          [
            -114.8371924835686,
            39.75092654097941
          ],
          [
            -114.83761191416129,
            39.748992667255735
          ],
          [
            -114.83742852938423,
            39.746509357299864
          ],
          [
            -114.837397930969,
            39.74435382011763
          ],
          [
            -114.8376573365753,
            39.741984953853056
          ],
          [
            -114.83764231225217,
            39.74074552094648
          ]
        ]
      },
      "properties": {
        "fault_name": "Steptoe Valley fault system",
        "age": "late Quaternary",
        "slip_rate": "Less than 0.2 mm/yr"
      }
    },
    {
      "type": "Feature",
      "geometry": {
        "type": "LineString",
        "coordinates": [
          [
            -114.84242487006131,
            39.693885938167426
          ],
          [
            -114.84070090331808,
            39.6921504068851
          ],
          [
            -114.83868637829283,
            39.69062431780177
          ],
          [
            -114.83706908738792,
            39.68933155921394
          ],
          [
            -114.83529123879565,
            39.68803435566281
          ],
          [
            -114.83313226377439,
            39.68646660434522
          ],
          [
            -114.83159831137502,
            39.6852610653266
          ],
          [
            -114.8294854343009,
            39.68299887420748
          ],
          [
            -114.8287831628528,
            39.68144278085186
          ],
          [
            -114.82875260665843,
            39.6814200029662
          ]
        ]
      },
      "properties": {
        "fault_name": "Steptoe Valley fault system",
        "age": "late Quaternary",
        "slip_rate": "Less than 0.2 mm/yr"
      }
    },
    {
      "type": "Feature",
      "geometry": {
        "type": "LineString",
        "coordinates": [
          [
            -114.83340953417672,
            39.992620300316425
          ],
          [
            -114.83503456855941,
            39.99129641468177
          ],
          [
            -114.83635459436037,
            39.98983919877438
          ],
          [
            -114.83771295666443,
            39.98863364899936
          ],
          [
            -114.83994799743067,
            39.98602088225022
          ],
          [
            -114.84129079821906,
            39.983968669869775
          ],
          [
            -114.84161135843493,
            39.983320339809694
          ]
        ]
      },
      "properties": {
        "fault_name": "Steptoe Valley fault system",
        "age": "late Quaternary",
        "slip_rate": "Less than 0.2 mm/yr"
      }
    },
    {
      "type": "Feature",
      "geometry": {
        "type": "LineString",
        "coordinates": [
          [
            -114.83838211800779,
            39.72968673123681
          ],
          [
            -114.83848154084849,
            39.728397298666174
          ],
          [
            -114.83838204434593,
            39.72580343625026
          ],
          [
            -114.83844311361558,
            39.723526234167586
          ],
          [
            -114.83895420919815,
            39.72205346733996
          ]
        ]
      },
      "properties": {
        "fault_name": "Steptoe Valley fault system",
        "age": "late Quaternary",
        "slip_rate": "Less than 0.2 mm/yr"
      }
    },
    {
      "type": "Feature",
      "geometry": {
        "type": "LineString",
        "coordinates": [
          [
            -114.8343229519374,
            39.720504611208575
          ],
          [
            -114.83421626172604,
            39.719447956309445
          ],
          [
            -114.83444509676491,
            39.716365759946555
          ],
          [
            -114.83510118492592,
            39.71429466668524
          ],
          [
            -114.83584115956481,
            39.71201690834252
          ],
          [
            -114.83647447723,
            39.710422476081206
          ],
          [
            -114.83716112967025,
            39.70864860091164
          ],
          [
            -114.83773333494665,
            39.70710750188284
          ],
          [
            -114.83836665530681,
            39.70560862273862
          ],
          [
            -114.8386794244342,
            39.704730852950256
          ]
        ]
      },
      "properties": {
        "fault_name": "Steptoe Valley fault system",
        "age": "late Quaternary",
        "slip_rate": "Less than 0.2 mm/yr"
      }
    },
    {
      "type": "Feature",
      "geometry": {
        "type": "LineString",
        "coordinates": [
          [
            -114.8376039272401,
            39.738101656048556
          ],
          [
            -114.83732167478118,
            39.73688889324231
          ],
          [
            -114.83734440575114,
            39.73438224711023
          ],
          [
            -114.83764215055541,
            39.73231115469467
          ]
        ]
      },
      "properties": {
        "fault_name": "Steptoe Valley fault system",
        "age": "late Quaternary",
        "slip_rate": "Less than 0.2 mm/yr"
      }
    },
    {
      "type": "Feature",
      "geometry": {
        "type": "LineString",
        "coordinates": [
          [
            -114.82897668421953,
            39.999822484031895
          ],
          [
            -114.83286786263683,
            39.994298622855275
          ]
        ]
      },
      "properties": {
        "fault_name": "Steptoe Valley fault system",
        "age": "late Quaternary",
        "slip_rate": "Less than 0.2 mm/yr"
      }
    },
    {
      "type": "Feature",
      "geometry": {
        "type": "LineString",
        "coordinates": [
          [
            -114.82723423374101,
            39.68147667631181
          ],
          [
            -114.82781422830926,
            39.68037057289132
          ],
          [
            -114.82910367455966,
            39.678798916214234
          ],
          [
            -114.83002644557908,
            39.677162815793345
          ],
          [
            -114.83040032889191,
            39.67635393422634
          ]
        ]
      },
      "properties": {
        "fault_name": "Steptoe Valley fault system",
        "age": "late Quaternary",
        "slip_rate": "Less than 0.2 mm/yr"
      }
    },
    {
      "type": "Feature",
      "geometry": {
        "type": "LineString",
        "coordinates": [
          [
            -114.82604714602564,
            39.997453624125775
          ],
          [
            -114.82932775930729,
            39.99287975675448
          ]
        ]
      },
      "properties": {
        "fault_name": "Steptoe Valley fault system",
        "age": "late Quaternary",
        "slip_rate": "Less than 0.2 mm/yr"
      }
    },
    {
      "type": "Feature",
      "geometry": {
        "type": "LineString",
        "coordinates": [
          [
            -114.80910193736042,
            40.0272233472425
          ],
          [
            -114.81093307760862,
            40.02507947477182
          ],
          [
            -114.8135497846913,
            40.02152395201177
          ],
          [
            -114.81455702339856,
            40.020162297186715
          ],
          [
            -114.81569370394837,
            40.0181823159745
          ],
          [
            -114.8165181570549,
            40.01672899676126
          ],
          [
            -114.81760872797949,
            40.01518401173197
          ],
          [
            -114.81870762359182,
            40.012235154247804
          ],
          [
            -114.81931762189055,
            40.01023239713478
          ],
          [
            -114.82047762899334,
            40.007512980331846
          ],
          [
            -114.82235432011466,
            40.00426245581382
          ],
          [
            -114.82349878007484,
            40.00237080702403
          ],
          [
            -114.82413989691332,
            40.00087526676961
          ],
          [
            -114.82442989823987,
            40.00002472105384
          ]
        ]
      },
      "properties": {
        "fault_name": "Steptoe Valley fault system",
        "age": "late Quaternary",
        "slip_rate": "Less than 0.2 mm/yr"
      }
    },
    {
      "type": "Feature",
      "geometry": {
        "type": "LineString",
        "coordinates": [
          [
            -114.80312798441417,
            40.03845323468502
          ],
          [
            -114.80733190770437,
            40.02948888233069
          ]
        ]
      },
      "properties": {
        "fault_name": "Steptoe Valley fault system",
        "age": "late Quaternary",
        "slip_rate": "Less than 0.2 mm/yr"
      }
    },
    {
      "type": "Feature",
      "geometry": {
        "type": "LineString",
        "coordinates": [
          [
            -114.7890900150625,
            40.05958303778351
          ],
          [
            -114.79049391566325,
            40.05658862365761
          ],
          [
            -114.79193560479473,
            40.054810862052456
          ],
          [
            -114.79406453116972,
            40.05247977024458
          ],
          [
            -114.79488842732074,
            40.05109145081476
          ],
          [
            -114.79651345811016,
            40.04956535326613
          ],
          [
            -114.7978790365809,
            40.0480625870279
          ],
          [
            -114.79959573595347,
            40.046399265772266
          ],
          [
            -114.8009463089657,
            40.044369839728674
          ],
          [
            -114.80152575735826,
            40.042893746222504
          ]
        ]
      },
      "properties": {
        "fault_name": "Steptoe Valley fault system",
        "age": "late Quaternary",
        "slip_rate": "Less than 0.2 mm/yr"
      }
    },
    {
      "type": "Feature",
      "geometry": {
        "type": "LineString",
        "coordinates": [
          [
            -114.77765316432838,
            40.07283514774219
          ],
          [
            -114.78046098708944,
            40.06967239822118
          ],
          [
            -114.781941012724,
            40.06815074324456
          ],
          [
            -114.78371104058343,
            40.06616298282358
          ],
          [
            -114.78459605271651,
            40.06470577381502
          ],
          [
            -114.78612941043116,
            40.062928565676245
          ],
          [
            -114.78663330332179,
            40.06189857680818
          ]
        ]
      },
      "properties": {
        "fault_name": "Steptoe Valley fault system",
        "age": "late Quaternary",
        "slip_rate": "Less than 0.2 mm/yr"
      }
    },
    {
      "type": "Feature",
      "geometry": {
        "type": "LineString",
        "coordinates": [
          [
            -114.77399098623994,
            40.088967195771254
          ],
          [
            -114.77390707730419,
            40.08684999923812
          ],
          [
            -114.77410540286105,
            40.085308905283775
          ],
          [
            -114.77470817600994,
            40.083123373201154
          ],
          [
            -114.77494482279849,
            40.08004451874324
          ],
          [
            -114.77501369663133,
            40.07800009834315
          ],
          [
            -114.77494479674736,
            40.077057887327214
          ]
        ]
      },
      "properties": {
        "fault_name": "Steptoe Valley fault system",
        "age": "late Quaternary",
        "slip_rate": "Less than 0.2 mm/yr"
      }
    },
    {
      "type": "Feature",
      "geometry": {
        "type": "LineString",
        "coordinates": [
          [
            -114.76811647859228,
            40.09917543068298
          ],
          [
            -114.76923038235806,
            40.097420448280914
          ],
          [
            -114.7705576180375,
            40.09511658074775
          ],
          [
            -114.77116817598665,
            40.093483821322295
          ],
          [
            -114.77198484429292,
            40.09133995377011
          ],
          [
            -114.77215984689006,
            40.091133844149184
          ]
        ]
      },
      "properties": {
        "fault_name": "Steptoe Valley fault system",
        "age": "late Quaternary",
        "slip_rate": "Less than 0.2 mm/yr"
      }
    },
    {
      "type": "Feature",
      "geometry": {
        "type": "LineString",
        "coordinates": [
          [
            -114.77032163420562,
            40.11027585002642
          ],
          [
            -114.76896325663022,
            40.10921142314162
          ],
          [
            -114.76714763477857,
            40.10708701008287
          ],
          [
            -114.76673538172501,
            40.10458037332016
          ],
          [
            -114.76692648123371,
            40.10283372688836
          ],
          [
            -114.76709425598605,
            40.10198651530636
          ]
        ]
      },
      "properties": {
        "fault_name": "Steptoe Valley fault system",
        "age": "late Quaternary",
        "slip_rate": "Less than 0.2 mm/yr"
      }
    },
    {
      "type": "Feature",
      "geometry": {
        "type": "LineString",
        "coordinates": [
          [
            -114.97894104339002,
            39.684115989777276
          ],
          [
            -114.98770780914727,
            39.67477768779442
          ]
        ]
      },
      "properties": {
        "fault_name": "unnamed fault of western Egan Range",
        "age": "undifferentiated Quaternary",
        "slip_rate": "Less than 0.2 mm/yr"
      }
    },
    {
      "type": "Feature",
      "geometry": {
        "type": "LineString",
        "coordinates": [
          [
            -114.97459997700034,
            39.695087039687465
          ],
          [
            -114.97708715420556,
            39.68743875178387
          ]
        ]
      },
      "properties": {
        "fault_name": "unnamed fault of western Egan Range",
        "age": "undifferentiated Quaternary",
        "slip_rate": "Less than 0.2 mm/yr"
      }
    },
    {
      "type": "Feature",
      "geometry": {
        "type": "LineString",
        "coordinates": [
          [
            -114.969641159851,
            39.70882751630547
          ],
          [
            -114.97088504534683,
            39.706493082250546
          ],
          [
            -114.97266227859312,
            39.70406698169784
          ],
          [
            -114.973814501794,
            39.7020108812321
          ],
          [
            -114.97441727224796,
            39.70046589132242
          ],
          [
            -114.97507337118876,
            39.69858145730171
          ],
          [
            -114.97512670326884,
            39.698322015012906
          ]
        ]
      },
      "properties": {
        "fault_name": "unnamed fault of western Egan Range",
        "age": "undifferentiated Quaternary",
        "slip_rate": "Less than 0.2 mm/yr"
      }
    },
    {
      "type": "Feature",
      "geometry": {
        "type": "LineString",
        "coordinates": [
          [
            -114.95734277804702,
            39.72646687171491
          ],
          [
            -114.95864722436603,
            39.72440688499978
          ],
          [
            -114.96046279231878,
            39.72230078284208
          ],
          [
            -114.96195058478729,
            39.72072912105666
          ],
          [
            -114.96487283135598,
            39.71739135788895
          ],
          [
            -114.96575782013285,
            39.71517914890122
          ],
          [
            -114.96711559763366,
            39.712733606753524
          ],
          [
            -114.96871782109633,
            39.710193064156535
          ]
        ]
      },
      "properties": {
        "fault_name": "unnamed fault of western Egan Range",
        "age": "undifferentiated Quaternary",
        "slip_rate": "Less than 0.2 mm/yr"
      }
    },
    {
      "type": "Feature",
      "geometry": {
        "type": "LineString",
        "coordinates": [
          [
            -114.95114008977492,
            39.74243844084153
          ],
          [
            -114.95165118625582,
            39.74064178602444
          ],
          [
            -114.95264283470132,
            39.73785347019231
          ],
          [
            -114.95368060355185,
            39.73564070528181
          ],
          [
            -114.9546872601508,
            39.733287389216144
          ],
          [
            -114.95580891817414,
            39.73095628871636
          ]
        ]
      },
      "properties": {
        "fault_name": "unnamed fault of western Egan Range",
        "age": "undifferentiated Quaternary",
        "slip_rate": "Less than 0.2 mm/yr"
      }
    },
    {
      "type": "Feature",
      "geometry": {
        "type": "LineString",
        "coordinates": [
          [
            -115.09027369961835,
            39.83686268178542
          ],
          [
            -115.09281428166724,
            39.83352102585157
          ],
          [
            -115.09394373167733,
            39.83158325585574
          ],
          [
            -115.0950115159364,
            39.82970992992559
          ],
          [
            -115.0963159712386,
            39.82786771484392
          ],
          [
            -115.09705653607061,
            39.82697882631007
          ]
        ]
      },
      "properties": {
        "fault_name": "Cherry Creek fault zone",
        "age": "late Quaternary",
        "slip_rate": "Less than 0.2 mm/yr"
      }
    },
    {
      "type": "Feature",
      "geometry": {
        "type": "LineString",
        "coordinates": [
          [
            -115.12134889296813,
            39.837934192974934
          ],
          [
            -115.12290558532061,
            39.836923635806514
          ],
          [
            -115.12569008063039,
            39.835424188848286
          ],
          [
            -115.12812400840053,
            39.83376085388686
          ],
          [
            -115.13035959624078,
            39.831884187808406
          ],
          [
            -115.1315268293917,
            39.830568081179315
          ],
          [
            -115.13282406762887,
            39.829019196725554
          ]
        ]
      },
      "properties": {
        "fault_name": "Cherry Creek fault zone",
        "age": "late Quaternary",
        "slip_rate": "Less than 0.2 mm/yr"
      }
    },
    {
      "type": "Feature",
      "geometry": {
        "type": "LineString",
        "coordinates": [
          [
            -115.10545695358364,
            39.84792864573914
          ],
          [
            -115.1083331192732,
            39.84652475411887
          ],
          [
            -115.11114095191573,
            39.845277526254385
          ],
          [
            -115.11436822772737,
            39.84307252629993
          ],
          [
            -115.11602380662632,
            39.84155808269297
          ],
          [
            -115.1181066125963,
            39.83977308589441
          ],
          [
            -115.11951774373676,
            39.83841475479277
          ],
          [
            -115.11954829903286,
            39.83839197772392
          ]
        ]
      },
      "properties": {
        "fault_name": "Cherry Creek fault zone",
        "age": "late Quaternary",
        "slip_rate": "Less than 0.2 mm/yr"
      }
    },
    {
      "type": "Feature",
      "geometry": {
        "type": "LineString",
        "coordinates": [
          [
            -115.07594597597682,
            39.87656580920392
          ],
          [
            -115.07832601740635,
            39.87480692066504
          ],
          [
            -115.08204941388476,
            39.872083588152826
          ],
          [
            -115.08404833068192,
            39.86997026203637
          ],
          [
            -115.08610836256284,
            39.868047488141244
          ],
          [
            -115.08797727696876,
            39.86621249115091
          ],
          [
            -115.0906556480058,
            39.863538609256466
          ],
          [
            -115.09311233728862,
            39.85991473372928
          ],
          [
            -115.0944701318574,
            39.858419182239714
          ],
          [
            -115.09628626664708,
            39.856420298250505
          ],
          [
            -115.09804073478746,
            39.85458141396619
          ],
          [
            -115.09939908271848,
            39.85299475187577
          ],
          [
            -115.10151966913438,
            39.85099975606981
          ],
          [
            -115.10332025408648,
            39.84969142066077
          ]
        ]
      },
      "properties": {
        "fault_name": "Cherry Creek fault zone",
        "age": "late Quaternary",
        "slip_rate": "Less than 0.2 mm/yr"
      }
    },
    {
      "type": "Feature",
      "geometry": {
        "type": "LineString",
        "coordinates": [
          [
            -115.09382934829388,
            39.837705436722814
          ],
          [
            -115.09528657468651,
            39.834756561106346
          ],
          [
            -115.09639269005882,
            39.83267767873961
          ],
          [
            -115.09770492117806,
            39.830606577778475
          ],
          [
            -115.09934549282188,
            39.828328807037565
          ],
          [
            -115.10040550216219,
            39.826826036202796
          ],
          [
            -115.10204607560264,
            39.824849928708225
          ],
          [
            -115.10271719437499,
            39.82407548571913
          ]
        ]
      },
      "properties": {
        "fault_name": "Cherry Creek fault zone",
        "age": "late Quaternary",
        "slip_rate": "Less than 0.2 mm/yr"
      }
    },
    {
      "type": "Feature",
      "geometry": {
        "type": "LineString",
        "coordinates": [
          [
            -115.07432091823797,
            39.87478804876733
          ],
          [
            -115.07596871592993,
            39.872648056739806
          ],
          [
            -115.07840262842873,
            39.86893640493632
          ],
          [
            -115.08044708531922,
            39.865262532338974
          ],
          [
            -115.08159930941841,
            39.86265365490306
          ],
          [
            -115.08315542415416,
            39.85927367172742
          ],
          [
            -115.0849943186599,
            39.85545535669604
          ],
          [
            -115.08619209183553,
            39.852296484112294
          ],
          [
            -115.08716097876838,
            39.84977927525073
          ],
          [
            -115.08782486879763,
            39.84829483772123
          ],
          [
            -115.08844264740507,
            39.84673484483834
          ],
          [
            -115.08875541293922,
            39.844991521735565
          ]
        ]
      },
      "properties": {
        "fault_name": "Cherry Creek fault zone",
        "age": "late Quaternary",
        "slip_rate": "Less than 0.2 mm/yr"
      }
    },
    {
      "type": "Feature",
      "geometry": {
        "type": "LineString",
        "coordinates": [
          [
            -115.06874364155824,
            39.88289801830525
          ],
          [
            -115.07098645365002,
            39.880792466245325
          ],
          [
            -115.07255092092129,
            39.879296916253395
          ],
          [
            -115.07398483423567,
            39.878190805003385
          ]
        ]
      },
      "properties": {
        "fault_name": "Cherry Creek fault zone",
        "age": "late Quaternary",
        "slip_rate": "Less than 0.2 mm/yr"
      }
    },
    {
      "type": "Feature",
      "geometry": {
        "type": "LineString",
        "coordinates": [
          [
            -115.04089634655257,
            39.94903710217261
          ],
          [
            -115.04378029614409,
            39.94749210425099
          ],
          [
            -115.04586312277533,
            39.94681654605312
          ],
          [
            -115.04832761841796,
            39.94556932318248
          ],
          [
            -115.0502498738871,
            39.94400932665768
          ],
          [
            -115.05076099013097,
            39.943070997147224
          ]
        ]
      },
      "properties": {
        "fault_name": "Cherry Creek fault zone",
        "age": "late Quaternary",
        "slip_rate": "Less than 0.2 mm/yr"
      }
    },
    {
      "type": "Feature",
      "geometry": {
        "type": "LineString",
        "coordinates": [
          [
            -114.98936650070867,
            39.99420250919027
          ],
          [
            -114.99232650257045,
            39.98512756715278
          ]
        ]
      },
      "properties": {
        "fault_name": "Cherry Creek fault zone",
        "age": "late Quaternary",
        "slip_rate": "Less than 0.2 mm/yr"
      }
    },
    {
      "type": "Feature",
      "geometry": {
        "type": "LineString",
        "coordinates": [
          [
            -115.06573534357183,
            39.688193145305135
          ],
          [
            -115.06658200932038,
            39.686663701675
          ],
          [
            -115.06878700233871,
            39.68245981370446
          ],
          [
            -115.07014533230338,
            39.67988092724016
          ],
          [
            -115.0711369861388,
            39.67727204182122
          ],
          [
            -115.07212864536409,
            39.6750553757696
          ],
          [
            -115.07281529870266,
            39.67283149190474
          ],
          [
            -115.07348695915913,
            39.67125205010516
          ],
          [
            -115.07400584133859,
            39.66974149690012
          ]
        ]
      },
      "properties": {
        "fault_name": "Butte Valley fault zone",
        "age": "latest Quaternary",
        "slip_rate": "Less than 0.2 mm/yr"
      }
    },
    {
      "type": "Feature",
      "geometry": {
        "type": "LineString",
        "coordinates": [
          [
            -115.06230969818591,
            39.6872170660538
          ],
          [
            -115.06343858495235,
            39.68513762196474
          ],
          [
            -115.06463636082294,
            39.68285651326003
          ],
          [
            -115.06531579440156,
            39.68093040485417
          ],
          [
            -115.06629967601312,
            39.678854851248005
          ],
          [
            -115.06733745294846,
            39.67686763017147
          ],
          [
            -115.06771911656998,
            39.676112075812895
          ]
        ]
      },
      "properties": {
        "fault_name": "Butte Valley fault zone",
        "age": "latest Quaternary",
        "slip_rate": "Less than 0.2 mm/yr"
      }
    },
    {
      "type": "Feature",
      "geometry": {
        "type": "LineString",
        "coordinates": [
          [
            -115.11260808762428,
            40.098510467933664
          ],
          [
            -115.11360754422624,
            40.096648818306335
          ],
          [
            -115.11514867685968,
            40.09431828405079
          ],
          [
            -115.11632368762437,
            40.09193775225725
          ],
          [
            -115.11681979840968,
            40.090511098109346
          ],
          [
            -115.11714035413398,
            40.08961055131296
          ],
          [
            -115.11746035380114,
            40.08850833874865
          ],
          [
            -115.11784202011758,
            40.087490014742855
          ],
          [
            -115.11836868979223,
            40.08633780477158
          ],
          [
            -115.11851368776055,
            40.08560559008497
          ],
          [
            -115.11859757423842,
            40.08532336996499
          ]
        ]
      },
      "properties": {
        "fault_name": "Medicine Range fault zone",
        "age": "late Quaternary",
        "slip_rate": "Less than 0.2 mm/yr"
      }
    },
    {
      "type": "Feature",
      "geometry": {
        "type": "LineString",
        "coordinates": [
          [
            -115.1244856940576,
            39.94566069677385
          ],
          [
            -115.12601960872776,
            39.9444668098753
          ],
          [
            -115.12820909682424,
            39.94311625724116
          ],
          [
            -115.12978856865568,
            39.942082366963234
          ],
          [
            -115.13240528472153,
            39.94051069929456
          ],
          [
            -115.13564812833704,
            39.93899236372685
          ],
          [
            -115.13967654597356,
            39.93705847202795
          ],
          [
            -115.14222437473184,
            39.935738470083734
          ],
          [
            -115.1450705411825,
            39.93437291370691
          ],
          [
            -115.14561999572602,
            39.9339951353064
          ]
        ]
      },
      "properties": {
        "fault_name": "Medicine Range fault zone",
        "age": "late Quaternary",
        "slip_rate": "Less than 0.2 mm/yr"
      }
    },
    {
      "type": "Feature",
      "geometry": {
        "type": "LineString",
        "coordinates": [
          [
            -115.04392698833504,
            40.149585016808686
          ],
          [
            -115.04430087344451,
            40.14758226220787
          ],
          [
            -115.044758636947,
            40.14413007876921
          ],
          [
            -115.04455972928183,
            40.14242843070055
          ],
          [
            -115.04457526294973,
            40.13971235181333
          ],
          [
            -115.04446857094176,
            40.1371379362219
          ],
          [
            -115.0445141182216,
            40.135825172876125
          ],
          [
            -115.04419352925963,
            40.132926319300715
          ],
          [
            -115.04427740855095,
            40.131545223762444
          ],
          [
            -115.0443540689807,
            40.130236904034604
          ],
          [
            -115.04428516819839,
            40.12901247270731
          ],
          [
            -115.04422404772478,
            40.12818470515712
          ],
          [
            -115.04427737800827,
            40.127635267009644
          ],
          [
            -115.04417847978367,
            40.12680361011595
          ]
        ]
      },
      "properties": {
        "fault_name": "Medicine Range fault zone",
        "age": "late Quaternary",
        "slip_rate": "Less than 0.2 mm/yr"
      }
    },
    {
      "type": "Feature",
      "geometry": {
        "type": "LineString",
        "coordinates": [
          [
            -115.10760944366685,
            39.973763352168326
          ],
          [
            -115.10890667471749,
            39.97127225331335
          ],
          [
            -115.11024945484462,
            39.96825504626693
          ],
          [
            -115.11116500520579,
            39.96548172778022
          ],
          [
            -115.111355547759,
            39.96389507105723
          ],
          [
            -115.1113249718017,
            39.96198730598155
          ]
        ]
      },
      "properties": {
        "fault_name": "Medicine Range fault zone",
        "age": "late Quaternary",
        "slip_rate": "Less than 0.2 mm/yr"
      }
    },
    {
      "type": "Feature",
      "geometry": {
        "type": "LineString",
        "coordinates": [
          [
            -115.10469631230333,
            40.11124368218539
          ],
          [
            -115.10480296478543,
            40.10947758896445
          ],
          [
            -115.10491017422301,
            40.10804704895697
          ],
          [
            -115.1050168258068,
            40.106227624234336
          ],
          [
            -115.10529903784153,
            40.10427431127363
          ],
          [
            -115.1055129051511,
            40.10144378412496
          ],
          [
            -115.10587899468054,
            40.098353816197665
          ],
          [
            -115.10571841902686,
            40.09683938731332
          ],
          [
            -115.10606174614529,
            40.09508884988084
          ],
          [
            -115.10642839442683,
            40.092048324812616
          ],
          [
            -115.10681726163861,
            40.08896613396692
          ],
          [
            -115.10724446894669,
            40.08617783019432
          ],
          [
            -115.10772500833488,
            40.083022862142144
          ],
          [
            -115.10826665562026,
            40.07968511830959
          ],
          [
            -115.10896109196246,
            40.076740146714506
          ],
          [
            -115.10941885636326,
            40.074203504734506
          ],
          [
            -115.11019717918329,
            40.07088853775073
          ],
          [
            -115.11056327140767,
            40.06782912433053
          ],
          [
            -115.1112038267991,
            40.066211917787776
          ],
          [
            -115.11134881758089,
            40.064994708894886
          ],
          [
            -115.11172270628362,
            40.063930274972755
          ],
          [
            -115.11174547318618,
            40.062828064685206
          ],
          [
            -115.11200491831835,
            40.06190862773857
          ]
        ]
      },
      "properties": {
        "fault_name": "Medicine Range fault zone",
        "age": "late Quaternary",
        "slip_rate": "Less than 0.2 mm/yr"
      }
    },
    {
      "type": "Feature",
      "geometry": {
        "type": "LineString",
        "coordinates": [
          [
            -115.10381115015159,
            40.09772049274634
          ],
          [
            -115.103132212443,
            40.094893858013435
          ],
          [
            -115.10251439341138,
            40.092597772183524
          ],
          [
            -115.10114822115428,
            40.090530019099404
          ],
          [
            -115.10042374155574,
            40.08917614479731
          ],
          [
            -115.09969092379471,
            40.087337277748674
          ],
          [
            -115.09922589471823,
            40.08584173905978
          ],
          [
            -115.09836361625005,
            40.0826717747036
          ],
          [
            -115.09795913631864,
            40.080234578871284
          ],
          [
            -115.09823411511867,
            40.07719794408491
          ],
          [
            -115.09895854980147,
            40.074199638790944
          ],
          [
            -115.09979799040018,
            40.071185781713936
          ],
          [
            -115.1006752168347,
            40.06900024795435
          ],
          [
            -115.10095741988623,
            40.066299720142666
          ],
          [
            -115.10100295818295,
            40.064483628083
          ],
          [
            -115.10078182709597,
            40.06314864225339
          ],
          [
            -115.1004690310191,
            40.062095877009156
          ],
          [
            -115.10026290898391,
            40.06161532614277
          ],
          [
            -115.0998967799286,
            40.06085200275896
          ]
        ]
      },
      "properties": {
        "fault_name": "Medicine Range fault zone",
        "age": "late Quaternary",
        "slip_rate": "Less than 0.2 mm/yr"
      }
    },
    {
      "type": "Feature",
      "geometry": {
        "type": "LineString",
        "coordinates": [
          [
            -114.93550874536614,
            39.968137342020086
          ],
          [
            -114.93630986024158,
            39.96595180174563
          ],
          [
            -114.93739319343993,
            39.9623312676593
          ],
          [
            -114.93833931257188,
            39.960168504942274
          ],
          [
            -114.93879707607437,
            39.956945193764014
          ],
          [
            -114.93921651924347,
            39.95512576075242
          ],
          [
            -114.93860648141884,
            39.95228356320148
          ],
          [
            -114.93794978330178,
            39.95047135474201
          ],
          [
            -114.93772087460106,
            39.948911368764506
          ],
          [
            -114.93775141911735,
            39.94719082610718
          ],
          [
            -114.93781251803142,
            39.94548972828008
          ],
          [
            -114.93799583992639,
            39.943468077071486
          ],
          [
            -114.9379269463306,
            39.94314752178585
          ]
        ]
      },
      "properties": {
        "fault_name": "Taylor Peak fault zone",
        "age": "undifferentiated Quaternary",
        "slip_rate": "Less than 0.2 mm/yr"
      }
    },
    {
      "type": "Feature",
      "geometry": {
        "type": "LineString",
        "coordinates": [
          [
            -114.93485324560162,
            40.0530631372065
          ],
          [
            -114.93688269074542,
            40.04578877370282
          ]
        ]
      },
      "properties": {
        "fault_name": "Taylor Peak fault zone",
        "age": "undifferentiated Quaternary",
        "slip_rate": "Less than 0.2 mm/yr"
      }
    },
    {
      "type": "Feature",
      "geometry": {
        "type": "LineString",
        "coordinates": [
          [
            -114.93289993986468,
            40.0641485676826
          ],
          [
            -114.93457104165174,
            40.056713650808554
          ]
        ]
      },
      "properties": {
        "fault_name": "Taylor Peak fault zone",
        "age": "undifferentiated Quaternary",
        "slip_rate": "Less than 0.2 mm/yr"
      }
    },
    {
      "type": "Feature",
      "geometry": {
        "type": "LineString",
        "coordinates": [
          [
            -114.91951744961627,
            39.99984104966113
          ],
          [
            -114.92110414480092,
            39.99810161222457
          ],
          [
            -114.92277528521556,
            39.9961599541814
          ],
          [
            -114.92368307772593,
            39.99470273880805
          ],
          [
            -114.92475864768359,
            39.9927649716879
          ],
          [
            -114.92597199495134,
            39.99031943030049
          ],
          [
            -114.9265592101778,
            39.987420561972506
          ],
          [
            -114.92712420916902,
            39.985326130197365
          ],
          [
            -114.92772642356583,
            39.982194486768535
          ],
          [
            -114.92868032210815,
            39.98011949898088
          ],
          [
            -114.92952700043313,
            39.97868506080093
          ],
          [
            -114.93104535628251,
            39.976582850258474
          ],
          [
            -114.93241871057036,
            39.974507860723456
          ],
          [
            -114.93323539055473,
            39.97332897821987
          ]
        ]
      },
      "properties": {
        "fault_name": "Taylor Peak fault zone",
        "age": "undifferentiated Quaternary",
        "slip_rate": "Less than 0.2 mm/yr"
      }
    },
    {
      "type": "Feature",
      "geometry": {
        "type": "LineString",
        "coordinates": [
          [
            -114.93236622919481,
            40.09068325404703
          ],
          [
            -114.93264066720909,
            40.08866161123587
          ],
          [
            -114.93246564574733,
            40.08636497082497
          ],
          [
            -114.93229006912674,
            40.08414111028004
          ],
          [
            -114.9320306078249,
            40.08264946168792
          ],
          [
            -114.93186279624162,
            40.07876228790407
          ],
          [
            -114.93175554727816,
            40.07515733022906
          ],
          [
            -114.93181664259895,
            40.07300235569848
          ],
          [
            -114.93190830040233,
            40.071117932879396
          ],
          [
            -114.93224384631378,
            40.068859625060945
          ]
        ]
      },
      "properties": {
        "fault_name": "Taylor Peak fault zone",
        "age": "undifferentiated Quaternary",
        "slip_rate": "Less than 0.2 mm/yr"
      }
    },
    {
      "type": "Feature",
      "geometry": {
        "type": "LineString",
        "coordinates": [
          [
            -114.9226989221282,
            40.037457256931646
          ],
          [
            -114.92407227641603,
            40.03533672174048
          ],
          [
            -114.92552951358844,
            40.032200642199165
          ],
          [
            -114.92586562184526,
            40.030591217715674
          ],
          [
            -114.92623950785304,
            40.02890901293547
          ],
          [
            -114.9267506196053,
            40.02706625567269
          ],
          [
            -114.92795563859205,
            40.02533849280789
          ],
          [
            -114.928894540659,
            40.02374350868136
          ],
          [
            -114.9304506796493,
            40.02173741574591
          ],
          [
            -114.93094679672282,
            40.020722426182104
          ]
        ]
      },
      "properties": {
        "fault_name": "Taylor Peak fault zone",
        "age": "undifferentiated Quaternary",
        "slip_rate": "Less than 0.2 mm/yr"
      }
    },
    {
      "type": "Feature",
      "geometry": {
        "type": "LineString",
        "coordinates": [
          [
            -114.91554247455264,
            40.017594742190084
          ],
          [
            -114.91700749383037,
            40.014874767665034
          ],
          [
            -114.91849528899382,
            40.011994796031146
          ],
          [
            -114.91970030887889,
            40.01039981166682
          ],
          [
            -114.92171478180182,
            40.006822068261826
          ],
          [
            -114.92235534258316,
            40.00525764112546
          ],
          [
            -114.9233092411255,
            40.00297322111614
          ],
          [
            -114.9237364619083,
            40.0011304639263
          ],
          [
            -114.92393479375336,
            40.00025325226232
          ]
        ]
      },
      "properties": {
        "fault_name": "Taylor Peak fault zone",
        "age": "undifferentiated Quaternary",
        "slip_rate": "Less than 0.2 mm/yr"
      }
    },
    {
      "type": "Feature",
      "geometry": {
        "type": "LineString",
        "coordinates": [
          [
            -114.91282699141625,
            40.111892517716555
          ],
          [
            -114.9143836765822,
            40.10926421104566
          ],
          [
            -114.91605426093967,
            40.10697589787906
          ],
          [
            -114.91761817484873,
            40.10503424914088
          ],
          [
            -114.91850319057505,
            40.10424814385054
          ]
        ]
      },
      "properties": {
        "fault_name": "Taylor Peak fault zone",
        "age": "undifferentiated Quaternary",
        "slip_rate": "Less than 0.2 mm/yr"
      }
    },
    {
      "type": "Feature",
      "geometry": {
        "type": "LineString",
        "coordinates": [
          [
            -114.90953866789452,
            40.12459960213648
          ],
          [
            -114.90981365567775,
            40.12207018691451
          ],
          [
            -114.91063754104898,
            40.118801333766356
          ],
          [
            -114.91114864741135,
            40.11638247078233
          ],
          [
            -114.91190365176325,
            40.114498047209466
          ],
          [
            -114.91198031488793,
            40.11350639071845
          ]
        ]
      },
      "properties": {
        "fault_name": "Taylor Peak fault zone",
        "age": "undifferentiated Quaternary",
        "slip_rate": "Less than 0.2 mm/yr"
      }
    },
    {
      "type": "Feature",
      "geometry": {
        "type": "LineString",
        "coordinates": [
          [
            -114.90859260715308,
            40.134735039685864
          ],
          [
            -114.90907312588001,
            40.12808956181584
          ]
        ]
      },
      "properties": {
        "fault_name": "Taylor Peak fault zone",
        "age": "undifferentiated Quaternary",
        "slip_rate": "Less than 0.2 mm/yr"
      }
    }
  ]
}