{
  "type": "FeatureCollection",
  "features": [
    {
      "type": "Feature",
      "geometry": {
        "type": "LineString",
        "coordinates": [
          [
            -114.96190958657606,
            41.9405990759577
          ],
          [
            -114.96308462159521,
            41.937383550712525
          ],
          [
            -114.96422910311496,
            41.9347513526699
          ],
          [
            -114.96514468491716,
            41.932576929273154
          ],
          [
            -114.965854152769,
            41.930536393947186
          ],
          [
            -114.96709030197358,
            41.92755697675822
          ],
          [
            -114.96812811304493,
            41.92561532826349
          ],
          [
            -114.96904369933868,
            41.92364312322588
          ],
          [
            -114.96979872435185,
            41.92249868867614
          ],
          [
            -114.97024151832844,
            41.921560364010936
          ]
        ]
      },
      "properties": {
        "fault_name": "Oneil Basin fault zone",
        "age": "undifferentiated Quaternary",
        "slip_rate": "Less than 0.2 mm/yr"
      }
    },
    {
      "type": "Feature",
      "geometry": {
        "type": "LineString",
        "coordinates": [
          [
            -114.94724576096593,
            41.96301054306888
          ],
          [
            -114.94980140596546,
            41.96054611868064
          ],
          [
            -114.95148757699145,
            41.95873780031213
          ],
          [
            -114.95311263383199,
            41.95705170271753
          ],
          [
            -114.95476824776523,
            41.95490783217221
          ],
          [
            -114.95598940139281,
            41.953325070268534
          ],
          [
            -114.95720999986152,
            41.95197841307162
          ],
          [
            -114.95836948055157,
            41.949830655875054
          ],
          [
            -114.95904116795748,
            41.94797289496628
          ],
          [
            -114.95968174221353,
            41.94616124727166
          ],
          [
            -114.96034565110742,
            41.94458181677376
          ],
          [
            -114.96094067089712,
            41.94369293469558
          ]
        ]
      },
      "properties": {
        "fault_name": "Oneil Basin fault zone",
        "age": "undifferentiated Quaternary",
        "slip_rate": "Less than 0.2 mm/yr"
      }
    },
    {
      "type": "Feature",
      "geometry": {
        "type": "LineString",
        "coordinates": [
          [
            -114.97091988021693,
            41.63816198480979
          ],
          [
            -114.9702481883194,
            41.635609800183055
          ],
          [
            -114.97005762600325,
            41.633191501777084
          ],
          [
            -114.9695998301614,
            41.63075764807768
          ],
          [
            -114.96916481379856,
            41.628827676874046
          ],
          [
            -114.96885202400986,
            41.6268704832277
          ],
          [
            -114.9684781200358,
            41.625142730676096
          ],
          [
            -114.96813477495105,
            41.623147759762354
          ],
          [
            -114.96753975156814,
            41.62171722774107
          ],
          [
            -114.96715862424084,
            41.620885573221734
          ]
        ]
      },
      "properties": {
        "fault_name": "Eastern Snake Mountains fault",
        "age": "undifferentiated Quaternary",
        "slip_rate": "Less than 0.2 mm/yr"
      }
    },
    {
      "type": "Feature",
      "geometry": {
        "type": "LineString",
        "coordinates": [
          [
            -114.96656304480072,
            41.619412819977036
          ],
          [
            -114.96578523491871,
            41.61771173727548
          ],
          [
            -114.9650757625753,
            41.615998985793674
          ],
          [
            -114.96457185261667,
            41.61471345275774
          ],
          [
            -114.96373293034588,
            41.61339736566646
          ]
        ]
      },
      "properties": {
        "fault_name": "Eastern Snake Mountains fault",
        "age": "undifferentiated Quaternary",
        "slip_rate": "Less than 0.2 mm/yr"
      }
    },
    {
      "type": "Feature",
      "geometry": {
        "type": "LineString",
        "coordinates": [
          [
            -114.96343520081294,
            41.55234431432336
          ],
          [
            -114.96362576582406,
            41.551268215825424
          ],
          [
            -114.96331297513709,
            41.54970435009282
          ],
          [
            -114.96287796057085,
            41.547609938029325
          ],
          [
            -114.96219904532015,
            41.54578663525125
          ],
          [
            -114.96167291373634,
            41.5441538828496
          ]
        ]
      },
      "properties": {
        "fault_name": "Eastern Snake Mountains fault",
        "age": "undifferentiated Quaternary",
        "slip_rate": "Less than 0.2 mm/yr"
      }
    },
    {
      "type": "Feature",
      "geometry": {
        "type": "LineString",
        "coordinates": [
          [
            -114.96129120340244,
            41.57144017805952
          ],
          [
            -114.96116897862488,
            41.56946409518217
          ],
          [
            -114.96094786011433,
            41.56743856818465
          ],
          [
            -114.96103953318908,
            41.56510026713668
          ],
          [
            -114.96161955919837,
            41.56257474232082
          ],
          [
            -114.96223736475521,
            41.55991588432938
          ],
          [
            -114.96277127844435,
            41.55863034321409
          ],
          [
            -114.96303851286831,
            41.55677258667181
          ],
          [
            -114.96293184241992,
            41.55546427470958
          ],
          [
            -114.96329019296316,
            41.55380873782308
          ]
        ]
      },
      "properties": {
        "fault_name": "Eastern Snake Mountains fault",
        "age": "undifferentiated Quaternary",
        "slip_rate": "Less than 0.2 mm/yr"
      }
    },
    {
      "type": "Feature",
      "geometry": {
        "type": "LineString",
        "coordinates": [
          [
            -114.96116900826928,
            41.540110608812554
          ],
          [
            -114.96016952741284,
            41.53700177082993
          ],
          [
            -114.95929227223222,
            41.534373479746684
          ],
          [
            -114.95867447206523,
            41.53235129119144
          ],
          [
            -114.95804111487416,
            41.52940633613732
          ],
          [
            -114.95717108125015,
            41.5276519232666
          ],
          [
            -114.95703385640397,
            41.526942490193235
          ]
        ]
      },
      "properties": {
        "fault_name": "Eastern Snake Mountains fault",
        "age": "undifferentiated Quaternary",
        "slip_rate": "Less than 0.2 mm/yr"
      }
    },
    {
      "type": "Feature",
      "geometry": {
        "type": "LineString",
        "coordinates": [
          [
            -114.91579528023652,
            41.64424276421885
          ],
          [
            -114.91732868466357,
            41.64165668288513
          ],
          [
            -114.91851874041264,
            41.63966892705626
          ],
          [
            -114.91934266980132,
            41.63783783811828
          ],
          [
            -114.91974713086812,
            41.637105623761585
          ]
        ]
      },
      "properties": {
        "fault_name": "Eastern Snake Mountains fault",
        "age": "undifferentiated Quaternary",
        "slip_rate": "Less than 0.2 mm/yr"
      }
    },
    {
      "type": "Feature",
      "geometry": {
        "type": "LineString",
        "coordinates": [
          [
            -114.91809921100527,
            41.67315788576619
          ],
          [
            -114.91800032266217,
            41.671406802293305
          ],
          [
            -114.91784754079188,
            41.669526271758
          ],
          [
            -114.91748863958136,
            41.66846573368007
          ],
          [
            -114.91722918456777,
            41.667660746747345
          ]
        ]
      },
      "properties": {
        "fault_name": "Eastern Snake Mountains fault",
        "age": "undifferentiated Quaternary",
        "slip_rate": "Less than 0.2 mm/yr"
      }
    },
    {
      "type": "Feature",
      "geometry": {
        "type": "LineString",
        "coordinates": [
          [
            -114.91654304686219,
            41.666070219160815
          ],
          [
            -114.91600080219712,
            41.66510134680731
          ],
          [
            -114.91526077455764,
            41.66342304222212
          ],
          [
            -114.91506243462774,
            41.66208806309883
          ]
        ]
      },
      "properties": {
        "fault_name": "Eastern Snake Mountains fault",
        "age": "undifferentiated Quaternary",
        "slip_rate": "Less than 0.2 mm/yr"
      }
    },
    {
      "type": "Feature",
      "geometry": {
        "type": "LineString",
        "coordinates": [
          [
            -114.91310180312965,
            41.65777702569891
          ],
          [
            -114.91281957312863,
            41.65625927085963
          ],
          [
            -114.91238455676577,
            41.654237080925846
          ],
          [
            -114.91246067371475,
            41.652902099981894
          ],
          [
            -114.91273569114234,
            41.65108657023252
          ],
          [
            -114.91362073291984,
            41.648938818681124
          ],
          [
            -114.91459744597543,
            41.64678329000279
          ],
          [
            -114.91525358803536,
            41.64573052268214
          ]
        ]
      },
      "properties": {
        "fault_name": "Eastern Snake Mountains fault",
        "age": "undifferentiated Quaternary",
        "slip_rate": "Less than 0.2 mm/yr"
      }
    },
    {
      "type": "Feature",
      "geometry": {
        "type": "LineString",
        "coordinates": [
          [
            -114.9318483594167,
            41.54574130927057
          ],
          [
            -114.93331286755303,
            41.54329966588943
          ],
          [
            -114.93412957089357,
            41.542018012021124
          ],
          [
            -114.93463292569336,
            41.540896357128545
          ]
        ]
      },
      "properties": {
        "fault_name": "Eastern Snake Mountains fault",
        "age": "undifferentiated Quaternary",
        "slip_rate": "Less than 0.2 mm/yr"
      }
    },
    {
      "type": "Feature",
      "geometry": {
        "type": "LineString",
        "coordinates": [
          [
            -114.91839710942149,
            41.61927200318911
          ],
          [
            -114.92046442214775,
            41.617540349334604
          ],
          [
            -114.92238728577635,
            41.616010915279276
          ],
          [
            -114.92424125491087,
            41.614419818204475
          ],
          [
            -114.92640801742729,
            41.61273371673582
          ],
          [
            -114.92795697259025,
            41.61129594983308
          ],
          [
            -114.92956704463353,
            41.6097698522624
          ],
          [
            -114.9301237369033,
            41.60917485567355
          ]
        ]
      },
      "properties": {
        "fault_name": "Eastern Snake Mountains fault",
        "age": "undifferentiated Quaternary",
        "slip_rate": "Less than 0.2 mm/yr"
      }
    },
    {
      "type": "Feature",
      "geometry": {
        "type": "LineString",
        "coordinates": [
          [
            -114.92372245178312,
            41.556735098952146
          ],
          [
            -114.92569087167473,
            41.553809016802305
          ],
          [
            -114.92640812522512,
            41.5524818083301
          ],
          [
            -114.92781207523322,
            41.55040238318098
          ],
          [
            -114.92849877258921,
            41.549235173046064
          ],
          [
            -114.92912435396322,
            41.54836573588718
          ]
        ]
      },
      "properties": {
        "fault_name": "Eastern Snake Mountains fault",
        "age": "undifferentiated Quaternary",
        "slip_rate": "Less than 0.2 mm/yr"
      }
    },
    {
      "type": "Feature",
      "geometry": {
        "type": "LineString",
        "coordinates": [
          [
            -114.9172832712327,
            41.569876622313366
          ],
          [
            -114.91814497837237,
            41.56717165494782
          ],
          [
            -114.91940392681889,
            41.564402242216985
          ],
          [
            -114.92019007396503,
            41.56286892532122
          ],
          [
            -114.92072398585753,
            41.56156449615192
          ],
          [
            -114.92132679134579,
            41.5600956238192
          ]
        ]
      },
      "properties": {
        "fault_name": "Eastern Snake Mountains fault",
        "age": "undifferentiated Quaternary",
        "slip_rate": "Less than 0.2 mm/yr"
      }
    },
    {
      "type": "Feature",
      "geometry": {
        "type": "LineString",
        "coordinates": [
          [
            -114.91317798565562,
            41.62495584079545
          ],
          [
            -114.91429970386609,
            41.62360585323415
          ],
          [
            -114.91572643425148,
            41.62175531704428
          ],
          [
            -114.91727539210936,
            41.620271440677776
          ]
        ]
      },
      "properties": {
        "fault_name": "Eastern Snake Mountains fault",
        "age": "undifferentiated Quaternary",
        "slip_rate": "Less than 0.2 mm/yr"
      }
    },
    {
      "type": "Feature",
      "geometry": {
        "type": "LineString",
        "coordinates": [
          [
            -114.91008784485864,
            41.62943468103958
          ],
          [
            -114.91127845576653,
            41.6273974837252
          ],
          [
            -114.9120868254362,
            41.62618805113876
          ]
        ]
      },
      "properties": {
        "fault_name": "Eastern Snake Mountains fault",
        "age": "undifferentiated Quaternary",
        "slip_rate": "Less than 0.2 mm/yr"
      }
    },
    {
      "type": "Feature",
      "geometry": {
        "type": "LineString",
        "coordinates": [
          [
            -114.90937127492619,
            41.571135547951
          ],
          [
            -114.91040131826527,
            41.56980778194918
          ],
          [
            -114.91105746212183,
            41.568430574825776
          ],
          [
            -114.91172082483999,
            41.566874483203264
          ],
          [
            -114.91229307323556,
            41.56573005075825
          ],
          [
            -114.91263642101525,
            41.5650433921806
          ]
        ]
      },
      "properties": {
        "fault_name": "Eastern Snake Mountains fault",
        "age": "undifferentiated Quaternary",
        "slip_rate": "Less than 0.2 mm/yr"
      }
    },
    {
      "type": "Feature",
      "geometry": {
        "type": "LineString",
        "coordinates": [
          [
            -114.92159405900742,
            41.54208699629151
          ],
          [
            -114.92237964919812,
            41.54041979194812
          ],
          [
            -114.92338691665148,
            41.53810426122213
          ],
          [
            -114.9244247394009,
            41.53623150074448
          ],
          [
            -114.92521810990027,
            41.53409875131553
          ]
        ]
      },
      "properties": {
        "fault_name": "Eastern Snake Mountains fault",
        "age": "undifferentiated Quaternary",
        "slip_rate": "Less than 0.2 mm/yr"
      }
    },
    {
      "type": "Feature",
      "geometry": {
        "type": "LineString",
        "coordinates": [
          [
            -114.91839724506708,
            41.55047911923418
          ],
          [
            -114.91914450055134,
            41.54903302421017
          ],
          [
            -114.91993064590086,
            41.54775525828935
          ],
          [
            -114.92058678526587,
            41.546492492687605
          ]
        ]
      },
      "properties": {
        "fault_name": "Eastern Snake Mountains fault",
        "age": "undifferentiated Quaternary",
        "slip_rate": "Less than 0.2 mm/yr"
      }
    },
    {
      "type": "Feature",
      "geometry": {
        "type": "LineString",
        "coordinates": [
          [
            -114.91645882261776,
            41.55560572481915
          ],
          [
            -114.91719163319227,
            41.55354241632629
          ],
          [
            -114.91776388428276,
            41.55203521173444
          ]
        ]
      },
      "properties": {
        "fault_name": "Eastern Snake Mountains fault",
        "age": "undifferentiated Quaternary",
        "slip_rate": "Less than 0.2 mm/yr"
      }
    },
    {
      "type": "Feature",
      "geometry": {
        "type": "LineString",
        "coordinates": [
          [
            -114.91339201376367,
            41.56318563582615
          ],
          [
            -114.91405593343734,
            41.5618884293069
          ],
          [
            -114.9148720807207,
            41.5600540061729
          ]
        ]
      },
      "properties": {
        "fault_name": "Eastern Snake Mountains fault",
        "age": "undifferentiated Quaternary",
        "slip_rate": "Less than 0.2 mm/yr"
      }
    },
    {
      "type": "Feature",
      "geometry": {
        "type": "LineString",
        "coordinates": [
          [
            -114.81039225138339,
            41.996255485233036
          ],
          [
            -114.80908717714199,
            41.993398296676034
          ],
          [
            -114.8075687584105,
            41.989987783872635
          ],
          [
            -114.80638646410549,
            41.98687504328727
          ],
          [
            -114.80523416993773,
            41.98367452578636
          ],
          [
            -114.80434911109225,
            41.980726228197284
          ],
          [
            -114.80331904529532,
            41.97771237525011
          ],
          [
            -114.80249510692346,
            41.97538184726878
          ],
          [
            -114.80184673259579,
            41.97365742517473
          ]
        ]
      },
      "properties": {
        "fault_name": "unnamed fault zone east of Bear Mountain",
        "age": "undifferentiated Quaternary",
        "slip_rate": "Less than 0.2 mm/yr"
      }
    },
    {
      "type": "Feature",
      "geometry": {
        "type": "LineString",
        "coordinates": [
          [
            -114.88736737711328,
            41.88834981887774
          ],
          [
            -114.88929022008061,
            41.885405402248466
          ],
          [
            -114.89101416526425,
            41.88272709328138
          ],
          [
            -114.89233420903157,
            41.880808220975375
          ],
          [
            -114.89331090501916,
            41.87911101492338
          ],
          [
            -114.89386036135933,
            41.87688714915897
          ],
          [
            -114.89411202618281,
            41.87457550488518
          ],
          [
            -114.89420368129126,
            41.87216053228889
          ],
          [
            -114.89418810719917,
            41.86915445178535
          ],
          [
            -114.89414976171294,
            41.8673844716848
          ],
          [
            -114.89471477956877,
            41.86633170432003
          ],
          [
            -114.89572147928688,
            41.86445894284622
          ],
          [
            -114.89617204728394,
            41.863173401906906
          ],
          [
            -114.89614147671651,
            41.86094564580091
          ],
          [
            -114.89608035085298,
            41.859011778320756
          ],
          [
            -114.8962097846107,
            41.856028478174544
          ],
          [
            -114.89624032822869,
            41.85363683607971
          ],
          [
            -114.89640087513628,
            41.851023530260164
          ]
        ]
      },
      "properties": {
        "fault_name": "unnamed fault zone east of Bear Mountain",
        "age": "undifferentiated Quaternary",
        "slip_rate": "Less than 0.2 mm/yr"
      }
    },
    {
      "type": "Feature",
      "geometry": {
        "type": "LineString",
        "coordinates": [
          [
            -114.85548280887902,
            41.902083089189865
          ],
          [
            -114.85540668564185,
            41.90098032331289
          ],
          [
            -114.85547500521415,
            41.89851979379831
          ],
          [
            -114.85562777630463,
            41.89661648218101
          ],
          [
            -114.8557116573926,
            41.89475872393927
          ],
          [
            -114.85611609959476,
            41.89213819570594
          ],
          [
            -114.85666555593492,
            41.890329880674585
          ],
          [
            -114.85713833298075,
            41.887438244761064
          ],
          [
            -114.85721444004824,
            41.88633603520992
          ],
          [
            -114.8567494073785,
            41.884634388771595
          ],
          [
            -114.8563527095524,
            41.88226552631795
          ],
          [
            -114.85571155678127,
            41.880011108235514
          ],
          [
            -114.85523875009108,
            41.87867223630699
          ]
        ]
      },
      "properties": {
        "fault_name": "unnamed fault zone east of Bear Mountain",
        "age": "undifferentiated Quaternary",
        "slip_rate": "Less than 0.2 mm/yr"
      }
    },
    {
      "type": "Feature",
      "geometry": {
        "type": "LineString",
        "coordinates": [
          [
            -114.85480372025347,
            41.87706280914083
          ],
          [
            -114.85404089157545,
            41.87446117298035
          ],
          [
            -114.85376586516472,
            41.872233420881564
          ],
          [
            -114.85357528757717,
            41.870280108974555
          ]
        ]
      },
      "properties": {
        "fault_name": "unnamed fault zone east of Bear Mountain",
        "age": "undifferentiated Quaternary",
        "slip_rate": "Less than 0.2 mm/yr"
      }
    },
    {
      "type": "Feature",
      "geometry": {
        "type": "LineString",
        "coordinates": [
          [
            -114.8002281391337,
            41.88276956185988
          ],
          [
            -114.80067870443581,
            41.88160624206036
          ],
          [
            -114.80113593164407,
            41.87974848267221
          ],
          [
            -114.80143371058433,
            41.87848571926772
          ],
          [
            -114.80260873931535,
            41.87603685392549
          ],
          [
            -114.80341765426238,
            41.87507908403384
          ],
          [
            -114.80469157672634,
            41.8724468880238
          ]
        ]
      },
      "properties": {
        "fault_name": "unnamed fault zone east of Bear Mountain",
        "age": "undifferentiated Quaternary",
        "slip_rate": "Less than 0.2 mm/yr"
      }
    },
    {
      "type": "Feature",
      "geometry": {
        "type": "LineString",
        "coordinates": [
          [
            -114.79514673967732,
            41.873705788777634
          ],
          [
            -114.79591731003647,
            41.87145914532497
          ],
          [
            -114.7965889911542,
            41.869879717834934
          ],
          [
            -114.79754234621578,
            41.86754529670198
          ],
          [
            -114.79849626002947,
            41.865786424691514
          ],
          [
            -114.79954906038962,
            41.863036453017614
          ],
          [
            -114.80049519658958,
            41.861342579812245
          ],
          [
            -114.80189134562775,
            41.858668717885365
          ],
          [
            -114.80315804294189,
            41.85603652126469
          ]
        ]
      },
      "properties": {
        "fault_name": "unnamed fault zone east of Bear Mountain",
        "age": "undifferentiated Quaternary",
        "slip_rate": "Less than 0.2 mm/yr"
      }
    },
    {
      "type": "Feature",
      "geometry": {
        "type": "LineString",
        "coordinates": [
          [
            -114.80060260096158,
            41.950212690203024
          ],
          [
            -114.79945089878358,
            41.95142545931449
          ],
          [
            -114.7982603067403,
            41.952818223250986
          ],
          [
            -114.79691026373409,
            41.95425598722304
          ],
          [
            -114.79574245116982,
            41.955495975731594
          ]
        ]
      },
      "properties": {
        "fault_name": "unnamed fault zone east of Bear Mountain",
        "age": "undifferentiated Quaternary",
        "slip_rate": "Less than 0.2 mm/yr"
      }
    },
    {
      "type": "Feature",
      "geometry": {
        "type": "LineString",
        "coordinates": [
          [
            -114.79768757235618,
            41.893938887300855
          ],
          [
            -114.79829034909835,
            41.890795588290075
          ],
          [
            -114.79847367458659,
            41.88918949519955
          ],
          [
            -114.79893145515705,
            41.88700729568342
          ],
          [
            -114.79933590005417,
            41.885134538729034
          ]
        ]
      },
      "properties": {
        "fault_name": "unnamed fault zone east of Bear Mountain",
        "age": "undifferentiated Quaternary",
        "slip_rate": "Less than 0.2 mm/yr"
      }
    },
    {
      "type": "Feature",
      "geometry": {
        "type": "LineString",
        "coordinates": [
          [
            -114.79574245116982,
            41.955495975731594
          ],
          [
            -114.79554410944327,
            41.95532042327255
          ],
          [
            -114.79436183040963,
            41.95427877000242
          ]
        ]
      },
      "properties": {
        "fault_name": "unnamed fault zone east of Bear Mountain",
        "age": "undifferentiated Quaternary",
        "slip_rate": "Less than 0.2 mm/yr"
      }
    },
    {
      "type": "Feature",
      "geometry": {
        "type": "LineString",
        "coordinates": [
          [
            -114.7869227575743,
            41.96763030418329
          ],
          [
            -114.78857058940228,
            41.9663597581626
          ],
          [
            -114.79016564161401,
            41.965016991982765
          ],
          [
            -114.7910734458025,
            41.96387311280422
          ],
          [
            -114.79195846781704,
            41.96230090711254
          ],
          [
            -114.7927746016257,
            41.961019253729916
          ],
          [
            -114.79307238056597,
            41.959894265268275
          ],
          [
            -114.79398795967322,
            41.958249837070134
          ],
          [
            -114.79481964691271,
            41.95655652181945
          ],
          [
            -114.79574245116982,
            41.955495975731594
          ]
        ]
      },
      "properties": {
        "fault_name": "unnamed fault zone east of Bear Mountain",
        "age": "undifferentiated Quaternary",
        "slip_rate": "Less than 0.2 mm/yr"
      }
    },
    {
      "type": "Feature",
      "geometry": {
        "type": "LineString",
        "coordinates": [
          [
            -114.79278231096745,
            41.953001009796765
          ],
          [
            -114.7918972700883,
            41.95230657673589
          ],
          [
            -114.7908672195627,
            41.95144825579926
          ]
        ]
      },
      "properties": {
        "fault_name": "unnamed fault zone east of Bear Mountain",
        "age": "undifferentiated Quaternary",
        "slip_rate": "Less than 0.2 mm/yr"
      }
    },
    {
      "type": "Feature",
      "geometry": {
        "type": "LineString",
        "coordinates": [
          [
            -114.70469647056231,
            41.79615451914438
          ],
          [
            -114.70465034656402,
            41.79518953093118
          ],
          [
            -114.70452810741344,
            41.793419553155175
          ],
          [
            -114.70529867058606,
            41.79151956618928
          ],
          [
            -114.70648925274786,
            41.78984901824904
          ],
          [
            -114.70861763384548,
            41.78734291309924
          ],
          [
            -114.71001378198534,
            41.78623235516834
          ],
          [
            -114.71150937722038,
            41.78498513228422
          ],
          [
            -114.71260829079903,
            41.78373013506069
          ],
          [
            -114.71436277421076,
            41.78151403075813
          ],
          [
            -114.71522500776318,
            41.779499599952096
          ],
          [
            -114.71600334315964,
            41.776730179733555
          ],
          [
            -114.71646112103515,
            41.775238524951426
          ],
          [
            -114.71670500195671,
            41.773285765735665
          ],
          [
            -114.7168349863817,
            41.77117634628626
          ],
          [
            -114.71677385422997,
            41.76917692492816
          ],
          [
            -114.71679662023423,
            41.76768583082658
          ],
          [
            -114.71688827264771,
            41.76566418831151
          ]
        ]
      },
      "properties": {
        "fault_name": "Contact fault zone",
        "age": "undifferentiated Quaternary",
        "slip_rate": "Less than 0.2 mm/yr"
      }
    },
    {
      "type": "Feature",
      "geometry": {
        "type": "LineString",
        "coordinates": [
          [
            -114.59623368373171,
            41.83987183187593
          ],
          [
            -114.59527197433799,
            41.838666299686274
          ],
          [
            -114.59414303277435,
            41.83661411428378
          ],
          [
            -114.59365466906004,
            41.83456192130458
          ],
          [
            -114.59337241839776,
            41.83184917572015
          ],
          [
            -114.59340296291406,
            41.83012530933035
          ],
          [
            -114.59342573071493,
            41.82859199290239
          ],
          [
            -114.59319681842098,
            41.82610091272917
          ],
          [
            -114.59259400215292,
            41.823873166816526
          ],
          [
            -114.59198341455938,
            41.82214097268857
          ]
        ]
      },
      "properties": {
        "fault_name": "Contact fault zone",
        "age": "undifferentiated Quaternary",
        "slip_rate": "Less than 0.2 mm/yr"
      }
    },
    {
      "type": "Feature",
      "geometry": {
        "type": "LineString",
        "coordinates": [
          [
            -114.77584291530044,
            41.68911498109221
          ],
          [
            -114.77687296672434,
            41.68806610768717
          ]
        ]
      },
      "properties": {
        "fault_name": "Contact fault zone",
        "age": "undifferentiated Quaternary",
        "slip_rate": "Less than 0.2 mm/yr"
      }
    },
    {
      "type": "Feature",
      "geometry": {
        "type": "LineString",
        "coordinates": [
          [
            -114.77625526177877,
            41.66821478976647
          ],
          [
            -114.77624748955495,
            41.6668837028336
          ],
          [
            -114.77585081777998,
            41.66489984924698
          ],
          [
            -114.77559859240777,
            41.66327099073238
          ],
          [
            -114.77508024562421,
            41.66145158225793
          ],
          [
            -114.77452300717874,
            41.65976939129555
          ],
          [
            -114.77369131544766,
            41.657762764288876
          ],
          [
            -114.77282906392894,
            41.65605390919623
          ],
          [
            -114.77192125884216,
            41.653818397737
          ],
          [
            -114.77171514309516,
            41.652963969844826
          ]
        ]
      },
      "properties": {
        "fault_name": "Contact fault zone",
        "age": "undifferentiated Quaternary",
        "slip_rate": "Less than 0.2 mm/yr"
      }
    },
    {
      "type": "Feature",
      "geometry": {
        "type": "LineString",
        "coordinates": [
          [
            -114.76491680890763,
            41.701890362785115
          ],
          [
            -114.76605409312532,
            41.69987650382343
          ],
          [
            -114.7677097331097,
            41.69759487127819
          ],
          [
            -114.76908313500826,
            41.696408775269184
          ],
          [
            -114.77035708532,
            41.69513490231057
          ],
          [
            -114.77157047930014,
            41.6939710288015
          ],
          [
            -114.7727833172231,
            41.69271993328948
          ],
          [
            -114.77396615321221,
            41.691346618733334
          ],
          [
            -114.77478230588551,
            41.6904121882244
          ]
        ]
      },
      "properties": {
        "fault_name": "Contact fault zone",
        "age": "undifferentiated Quaternary",
        "slip_rate": "Less than 0.2 mm/yr"
      }
    },
    {
      "type": "Feature",
      "geometry": {
        "type": "LineString",
        "coordinates": [
          [
            -114.77209664771487,
            41.687428919006074
          ],
          [
            -114.7723405573825,
            41.68548006382603
          ],
          [
            -114.77241724116841,
            41.68284010821494
          ],
          [
            -114.77273782743542,
            41.68001737921514
          ],
          [
            -114.77264616424215,
            41.67799185871539
          ],
          [
            -114.77185280811585,
            41.67589356708623
          ],
          [
            -114.77147891132827,
            41.67401304617954
          ],
          [
            -114.77186005392693,
            41.671365867703784
          ]
        ]
      },
      "properties": {
        "fault_name": "Contact fault zone",
        "age": "undifferentiated Quaternary",
        "slip_rate": "Less than 0.2 mm/yr"
      }
    },
    {
      "type": "Feature",
      "geometry": {
        "type": "LineString",
        "coordinates": [
          [
            -114.76167453033244,
            41.686055657867804
          ],
          [
            -114.7615828698341,
            41.68409902715961
          ],
          [
            -114.76091174297693,
            41.681756849857386
          ],
          [
            -114.76010283521639,
            41.678625240683665
          ],
          [
            -114.75952281908857,
            41.67694249802341
          ],
          [
            -114.7590272526823,
            41.67491698072117
          ],
          [
            -114.75847779364719,
            41.673254234734785
          ],
          [
            -114.75804278357255,
            41.67157926691355
          ],
          [
            -114.757432213047,
            41.669183758198685
          ],
          [
            -114.756409962593,
            41.666258258140495
          ],
          [
            -114.75579994902293,
            41.66425163267754
          ],
          [
            -114.75518159639203,
            41.66282110423509
          ],
          [
            -114.75485381012803,
            41.66181001485638
          ]
        ]
      },
      "properties": {
        "fault_name": "Contact fault zone",
        "age": "undifferentiated Quaternary",
        "slip_rate": "Less than 0.2 mm/yr"
      }
    },
    {
      "type": "Feature",
      "geometry": {
        "type": "LineString",
        "coordinates": [
          [
            -114.63981412203078,
            41.846653513159545
          ],
          [
            -114.63835684443417,
            41.845905757767646
          ],
          [
            -114.63551840259663,
            41.8445252501875
          ],
          [
            -114.63280996674366,
            41.84327751498867
          ],
          [
            -114.63110101444211,
            41.84250698713514
          ],
          [
            -114.63016264327948,
            41.842015334821724
          ]
        ]
      },
      "properties": {
        "fault_name": "Contact fault zone",
        "age": "undifferentiated Quaternary",
        "slip_rate": "Less than 0.2 mm/yr"
      }
    },
    {
      "type": "Feature",
      "geometry": {
        "type": "LineString",
        "coordinates": [
          [
            -114.62857536059661,
            41.84124091619233
          ],
          [
            -114.62749198158419,
            41.840153717719744
          ],
          [
            -114.6260119191187,
            41.83857819715206
          ],
          [
            -114.62514964424376,
            41.83555712976469
          ],
          [
            -114.62470738476479,
            41.832703834958465
          ],
          [
            -114.6244551432229,
            41.83118552211739
          ],
          [
            -114.62434845390987,
            41.82861444168109
          ],
          [
            -114.62447844282643,
            41.82652391032802
          ],
          [
            -114.6246156622827,
            41.82560836188371
          ]
        ]
      },
      "properties": {
        "fault_name": "Contact fault zone",
        "age": "undifferentiated Quaternary",
        "slip_rate": "Less than 0.2 mm/yr"
      }
    },
    {
      "type": "Feature",
      "geometry": {
        "type": "LineString",
        "coordinates": [
          [
            -114.59141894287923,
            41.82101210169176
          ],
          [
            -114.59082391590303,
            41.82008489674655
          ],
          [
            -114.58986220740762,
            41.81862770187024
          ],
          [
            -114.58929773662581,
            41.817796606755664
          ]
        ]
      },
      "properties": {
        "fault_name": "Contact fault zone",
        "age": "undifferentiated Quaternary",
        "slip_rate": "Less than 0.2 mm/yr"
      }
    },
    {
      "type": "Feature",
      "geometry": {
        "type": "LineString",
        "coordinates": [
          [
            -114.76297165268694,
            41.71487569801471
          ],
          [
            -114.763910036426,
            41.71343738623599
          ]
        ]
      },
      "properties": {
        "fault_name": "Contact fault zone",
        "age": "undifferentiated Quaternary",
        "slip_rate": "Less than 0.2 mm/yr"
      }
    },
    {
      "type": "Feature",
      "geometry": {
        "type": "LineString",
        "coordinates": [
          [
            -114.75915643760669,
            41.7231377892622
          ],
          [
            -114.76007982127715,
            41.72130670703883
          ],
          [
            -114.760743747239,
            41.71991061630173
          ],
          [
            -114.76153712672152,
            41.718217311891976
          ],
          [
            -114.76236106239841,
            41.716340118179815
          ]
        ]
      },
      "properties": {
        "fault_name": "Contact fault zone",
        "age": "undifferentiated Quaternary",
        "slip_rate": "Less than 0.2 mm/yr"
      }
    },
    {
      "type": "Feature",
      "geometry": {
        "type": "LineString",
        "coordinates": [
          [
            -114.75267108724393,
            41.73381151202796
          ],
          [
            -114.75367836188379,
            41.7325793073275
          ],
          [
            -114.7544945163537,
            41.731205996045865
          ],
          [
            -114.75525011359369,
            41.72969935322638
          ],
          [
            -114.7560434921779,
            41.728184931691686
          ],
          [
            -114.75692854024359,
            41.72652162626585
          ]
        ]
      },
      "properties": {
        "fault_name": "Contact fault zone",
        "age": "undifferentiated Quaternary",
        "slip_rate": "Less than 0.2 mm/yr"
      }
    },
    {
      "type": "Feature",
      "geometry": {
        "type": "LineString",
        "coordinates": [
          [
            -114.74701749508753,
            41.742424738262365
          ],
          [
            -114.74812365357897,
            41.74036087368006
          ],
          [
            -114.74878757415092,
            41.73896866985929
          ],
          [
            -114.74955038396433,
            41.73759535173877
          ],
          [
            -114.7504659810379,
            41.73594759588009
          ]
        ]
      },
      "properties": {
        "fault_name": "Contact fault zone",
        "age": "undifferentiated Quaternary",
        "slip_rate": "Less than 0.2 mm/yr"
      }
    },
    {
      "type": "Feature",
      "geometry": {
        "type": "LineString",
        "coordinates": [
          [
            -114.70318540813469,
            41.80764829191415
          ],
          [
            -114.70372708506449,
            41.80653052127255
          ],
          [
            -114.70449043027382,
            41.80501608693055
          ],
          [
            -114.70568822860227,
            41.80282665374036
          ],
          [
            -114.70635213120798,
            41.80175443726375
          ]
        ]
      },
      "properties": {
        "fault_name": "Contact fault zone",
        "age": "undifferentiated Quaternary",
        "slip_rate": "Less than 0.2 mm/yr"
      }
    },
    {
      "type": "Feature",
      "geometry": {
        "type": "LineString",
        "coordinates": [
          [
            -114.70271223133854,
            41.723504422110516
          ],
          [
            -114.70361227228634,
            41.72109390120838
          ]
        ]
      },
      "properties": {
        "fault_name": "Contact fault zone",
        "age": "undifferentiated Quaternary",
        "slip_rate": "Less than 0.2 mm/yr"
      }
    },
    {
      "type": "Feature",
      "geometry": {
        "type": "LineString",
        "coordinates": [
          [
            -114.69988155364003,
            41.72969990027821
          ],
          [
            -114.7007665891293,
            41.728261583055335
          ],
          [
            -114.70149884364662,
            41.726747157126404
          ],
          [
            -114.70219331771803,
            41.725217730980326
          ]
        ]
      },
      "properties": {
        "fault_name": "Contact fault zone",
        "age": "undifferentiated Quaternary",
        "slip_rate": "Less than 0.2 mm/yr"
      }
    },
    {
      "type": "Feature",
      "geometry": {
        "type": "LineString",
        "coordinates": [
          [
            -114.69856199496297,
            41.81631879673109
          ],
          [
            -114.69919533778102,
            41.815082690769465
          ],
          [
            -114.70030146932297,
            41.81298103781489
          ],
          [
            -114.70143093909599,
            41.81145159929416
          ]
        ]
      },
      "properties": {
        "fault_name": "Contact fault zone",
        "age": "undifferentiated Quaternary",
        "slip_rate": "Less than 0.2 mm/yr"
      }
    },
    {
      "type": "Feature",
      "geometry": {
        "type": "LineString",
        "coordinates": [
          [
            -114.694037423422,
            41.739938117671166
          ],
          [
            -114.69521247461086,
            41.73747037033438
          ],
          [
            -114.69623473943788,
            41.735364284909885
          ],
          [
            -114.69746312270685,
            41.73302986786126
          ],
          [
            -114.69831760200172,
            41.731843769279045
          ]
        ]
      },
      "properties": {
        "fault_name": "Contact fault zone",
        "age": "undifferentiated Quaternary",
        "slip_rate": "Less than 0.2 mm/yr"
      }
    },
    {
      "type": "Feature",
      "geometry": {
        "type": "LineString",
        "coordinates": [
          [
            -114.69364857058328,
            41.82546652221226
          ],
          [
            -114.69421358484587,
            41.82477985628845
          ],
          [
            -114.69565528655373,
            41.82290708381305
          ],
          [
            -114.69686086429259,
            41.820709318829216
          ],
          [
            -114.69736420561765,
            41.81988932300563
          ]
        ]
      },
      "properties": {
        "fault_name": "Contact fault zone",
        "age": "undifferentiated Quaternary",
        "slip_rate": "Less than 0.2 mm/yr"
      }
    },
    {
      "type": "Feature",
      "geometry": {
        "type": "LineString",
        "coordinates": [
          [
            -114.66612893428089,
            41.848762654276776
          ],
          [
            -114.6671589641452,
            41.84803431877095
          ],
          [
            -114.6707218514453,
            41.84622985693276
          ],
          [
            -114.67443751971734,
            41.844535946791034
          ],
          [
            -114.67769539124926,
            41.842411492899934
          ],
          [
            -114.67957210842168,
            41.840496495989534
          ],
          [
            -114.68030434137944,
            41.83896650729082
          ],
          [
            -114.6813115863749,
            41.83743706897144
          ],
          [
            -114.68302829832392,
            41.83595706919254
          ],
          [
            -114.68492835193081,
            41.83457595274265
          ],
          [
            -114.68666006933829,
            41.83348483594044
          ],
          [
            -114.6881251110739,
            41.83242038821151
          ],
          [
            -114.69036017339972,
            41.83085649329596
          ],
          [
            -114.69285523960978,
            41.82878538000036
          ]
        ]
      },
      "properties": {
        "fault_name": "Contact fault zone",
        "age": "undifferentiated Quaternary",
        "slip_rate": "Less than 0.2 mm/yr"
      }
    },
    {
      "type": "Feature",
      "geometry": {
        "type": "LineString",
        "coordinates": [
          [
            -114.68630046025534,
            41.74947081297736
          ],
          [
            -114.68812441757451,
            41.747239721080824
          ],
          [
            -114.6894672480073,
            41.74552306927266
          ],
          [
            -114.69075674186843,
            41.743859751001324
          ],
          [
            -114.69232069081174,
            41.74201309966911
          ]
        ]
      },
      "properties": {
        "fault_name": "Contact fault zone",
        "age": "undifferentiated Quaternary",
        "slip_rate": "Less than 0.2 mm/yr"
      }
    },
    {
      "type": "Feature",
      "geometry": {
        "type": "LineString",
        "coordinates": [
          [
            -114.68509589671444,
            41.80638571986284
          ],
          [
            -114.68539311690263,
            41.80496295590471
          ],
          [
            -114.68579755730815,
            41.80281131087935
          ],
          [
            -114.68653756428637,
            41.80079354666799
          ],
          [
            -114.68739980143205,
            41.79903078077358
          ],
          [
            -114.68813203259316,
            41.79724579392362
          ],
          [
            -114.6892764952483,
            41.794915252757846
          ],
          [
            -114.6901004003825,
            41.79357248369843
          ]
        ]
      },
      "properties": {
        "fault_name": "Contact fault zone",
        "age": "undifferentiated Quaternary",
        "slip_rate": "Less than 0.2 mm/yr"
      }
    },
    {
      "type": "Feature",
      "geometry": {
        "type": "LineString",
        "coordinates": [
          [
            -114.68389042767176,
            41.82140000493321
          ],
          [
            -114.6839820818819,
            41.81938224909906
          ],
          [
            -114.68407318093317,
            41.81784115503957
          ],
          [
            -114.6843176197085,
            41.81616672722312
          ],
          [
            -114.684393709708,
            41.81322509423048
          ],
          [
            -114.68450091195903,
            41.81056679121167
          ],
          [
            -114.68469923212601,
            41.80812903881395
          ]
        ]
      },
      "properties": {
        "fault_name": "Contact fault zone",
        "age": "undifferentiated Quaternary",
        "slip_rate": "Less than 0.2 mm/yr"
      }
    },
    {
      "type": "Feature",
      "geometry": {
        "type": "LineString",
        "coordinates": [
          [
            -114.67841194411373,
            41.75930133578736
          ],
          [
            -114.67979252983957,
            41.7574552318168
          ],
          [
            -114.68173812713304,
            41.75484968533108
          ],
          [
            -114.68267647943107,
            41.75339247125
          ],
          [
            -114.68446207868763,
            41.75159191620745
          ]
        ]
      },
      "properties": {
        "fault_name": "Contact fault zone",
        "age": "undifferentiated Quaternary",
        "slip_rate": "Less than 0.2 mm/yr"
      }
    },
    {
      "type": "Feature",
      "geometry": {
        "type": "LineString",
        "coordinates": [
          [
            -114.68230322404062,
            41.82995658816039
          ],
          [
            -114.68275378305454,
            41.82858326694741
          ],
          [
            -114.68311210305507,
            41.82561940773141
          ],
          [
            -114.68373765837791,
            41.82314331893536
          ]
        ]
      },
      "properties": {
        "fault_name": "Contact fault zone",
        "age": "undifferentiated Quaternary",
        "slip_rate": "Less than 0.2 mm/yr"
      }
    },
    {
      "type": "Feature",
      "geometry": {
        "type": "LineString",
        "coordinates": [
          [
            -114.65318847623769,
            41.77735250687397
          ],
          [
            -114.65623244812065,
            41.77508305718231
          ],
          [
            -114.65974199076422,
            41.77263749185021
          ],
          [
            -114.66213761077738,
            41.7707991527121
          ],
          [
            -114.6636559845931,
            41.76980359318013
          ],
          [
            -114.66547214004405,
            41.767728042787105
          ],
          [
            -114.66801998856526,
            41.765916370132246
          ],
          [
            -114.66972170224226,
            41.76482525420371
          ],
          [
            -114.67125507432996,
            41.763325811916445
          ],
          [
            -114.67278122486111,
            41.76207858576896
          ]
        ]
      },
      "properties": {
        "fault_name": "Contact fault zone",
        "age": "undifferentiated Quaternary",
        "slip_rate": "Less than 0.2 mm/yr"
      }
    },
    {
      "type": "Feature",
      "geometry": {
        "type": "LineString",
        "coordinates": [
          [
            -114.67962559321539,
            41.53256737175432
          ],
          [
            -114.68011395243812,
            41.53075906678057
          ],
          [
            -114.68023618530052,
            41.529080762059934
          ],
          [
            -114.68044953338386,
            41.52734134280983
          ],
          [
            -114.68053343243815,
            41.525933589736816
          ]
        ]
      },
      "properties": {
        "fault_name": "Wilkins fault",
        "age": "undifferentiated Quaternary",
        "slip_rate": "Less than 0.2 mm/yr"
      }
    },
    {
      "type": "Feature",
      "geometry": {
        "type": "LineString",
        "coordinates": [
          [
            -114.67932833799291,
            41.5373434038907
          ],
          [
            -114.67955724669363,
            41.53477233429319
          ]
        ]
      },
      "properties": {
        "fault_name": "Wilkins fault",
        "age": "undifferentiated Quaternary",
        "slip_rate": "Less than 0.2 mm/yr"
      }
    },
    {
      "type": "Feature",
      "geometry": {
        "type": "LineString",
        "coordinates": [
          [
            -114.67764214091582,
            41.543347760293145
          ],
          [
            -114.67841273373284,
            41.5410816817793
          ],
          [
            -114.67906109907737,
            41.53890726872089
          ]
        ]
      },
      "properties": {
        "fault_name": "Wilkins fault",
        "age": "undifferentiated Quaternary",
        "slip_rate": "Less than 0.2 mm/yr"
      }
    },
    {
      "type": "Feature",
      "geometry": {
        "type": "LineString",
        "coordinates": [
          [
            -114.67578815471333,
            41.54974099884941
          ],
          [
            -114.676268735424,
            41.5485504602858
          ],
          [
            -114.67675709374845,
            41.54678437495862
          ],
          [
            -114.67703155601723,
            41.54488107170754
          ]
        ]
      },
      "properties": {
        "fault_name": "Wilkins fault",
        "age": "undifferentiated Quaternary",
        "slip_rate": "Less than 0.2 mm/yr"
      }
    },
    {
      "type": "Feature",
      "geometry": {
        "type": "LineString",
        "coordinates": [
          [
            -114.67162961880284,
            41.562058601931085
          ],
          [
            -114.67216353698352,
            41.5595408617187
          ],
          [
            -114.67275912540678,
            41.55699256778668
          ],
          [
            -114.67365916904951,
            41.55452038029089
          ]
        ]
      },
      "properties": {
        "fault_name": "Wilkins fault",
        "age": "undifferentiated Quaternary",
        "slip_rate": "Less than 0.2 mm/yr"
      }
    },
    {
      "type": "Feature",
      "geometry": {
        "type": "LineString",
        "coordinates": [
          [
            -114.67126345740822,
            41.571389000328544
          ],
          [
            -114.67141624826162,
            41.56931736867945
          ],
          [
            -114.67132458686497,
            41.567551288211384
          ],
          [
            -114.67143903941869,
            41.56633464231398
          ]
        ]
      },
      "properties": {
        "fault_name": "Wilkins fault",
        "age": "undifferentiated Quaternary",
        "slip_rate": "Less than 0.2 mm/yr"
      }
    },
    {
      "type": "Feature",
      "geometry": {
        "type": "LineString",
        "coordinates": [
          [
            -114.66846330086976,
            41.58486601918866
          ],
          [
            -114.66947056742481,
            41.5829932648042
          ],
          [
            -114.67017226664606,
            41.581413839700666
          ],
          [
            -114.6705006170521,
            41.57990330778391
          ],
          [
            -114.67084396932334,
            41.57790834020996
          ]
        ]
      },
      "properties": {
        "fault_name": "Wilkins fault",
        "age": "undifferentiated Quaternary",
        "slip_rate": "Less than 0.2 mm/yr"
      }
    },
    {
      "type": "Feature",
      "geometry": {
        "type": "LineString",
        "coordinates": [
          [
            -114.65695781076313,
            41.60431301425337
          ],
          [
            -114.6585295436084,
            41.601711376914785
          ],
          [
            -114.66010849890856,
            41.598968631155245
          ],
          [
            -114.66131410808845,
            41.59674865779149
          ],
          [
            -114.66263416263553,
            41.59455923881072
          ],
          [
            -114.66373309957034,
            41.59275092710676
          ],
          [
            -114.66453368982967,
            41.590965951260735
          ],
          [
            -114.66570874371347,
            41.58821931889092
          ],
          [
            -114.66599875671812,
            41.58737599782701
          ]
        ]
      },
      "properties": {
        "fault_name": "Wilkins fault",
        "age": "undifferentiated Quaternary",
        "slip_rate": "Less than 0.2 mm/yr"
      }
    },
    {
      "type": "Feature",
      "geometry": {
        "type": "LineString",
        "coordinates": [
          [
            -114.6622524388269,
            41.605835161686784
          ],
          [
            -114.66308414133773,
            41.604183517825476
          ],
          [
            -114.6635041639202,
            41.60276409204484
          ]
        ]
      },
      "properties": {
        "fault_name": "Wilkins fault",
        "age": "undifferentiated Quaternary",
        "slip_rate": "Less than 0.2 mm/yr"
      }
    },
    {
      "type": "Feature",
      "geometry": {
        "type": "LineString",
        "coordinates": [
          [
            -114.65460767604604,
            41.61812224568275
          ],
          [
            -114.65511881025618,
            41.61679448618032
          ],
          [
            -114.65597328955108,
            41.61528394869249
          ],
          [
            -114.65698055520778,
            41.61370841181339
          ],
          [
            -114.65811726899526,
            41.611793432969165
          ],
          [
            -114.65985678288112,
            41.60992456014845
          ],
          [
            -114.66145907102246,
            41.60775402707961
          ]
        ]
      },
      "properties": {
        "fault_name": "Wilkins fault",
        "age": "undifferentiated Quaternary",
        "slip_rate": "Less than 0.2 mm/yr"
      }
    },
    {
      "type": "Feature",
      "geometry": {
        "type": "LineString",
        "coordinates": [
          [
            -114.65196759929121,
            41.613430127231844
          ],
          [
            -114.65294430785525,
            41.61148848480036
          ],
          [
            -114.6538065665605,
            41.609565730752784
          ],
          [
            -114.6547299412478,
            41.607578536256234
          ]
        ]
      },
      "properties": {
        "fault_name": "Wilkins fault",
        "age": "undifferentiated Quaternary",
        "slip_rate": "Less than 0.2 mm/yr"
      }
    },
    {
      "type": "Feature",
      "geometry": {
        "type": "LineString",
        "coordinates": [
          [
            -114.64878631273058,
            41.63065708871607
          ],
          [
            -114.64944245479052,
            41.62836823393064
          ],
          [
            -114.64974747325364,
            41.626552705161835
          ],
          [
            -114.65017471559604,
            41.62483606279027
          ],
          [
            -114.65042640018247,
            41.62249387775089
          ],
          [
            -114.65051807595216,
            41.620727795141605
          ],
          [
            -114.65060975172184,
            41.6191406000109
          ],
          [
            -114.65062476167192,
            41.61647786596958
          ],
          [
            -114.65076977042004,
            41.61534899372671
          ]
        ]
      },
      "properties": {
        "fault_name": "Wilkins fault",
        "age": "undifferentiated Quaternary",
        "slip_rate": "Less than 0.2 mm/yr"
      }
    },
    {
      "type": "Feature",
      "geometry": {
        "type": "LineString",
        "coordinates": [
          [
            -114.6458187587322,
            41.53620702727491
          ],
          [
            -114.64657379183018,
            41.53481426812338
          ],
          [
            -114.64747438973345,
            41.53249874314806
          ],
          [
            -114.64783274117501,
            41.53098820879137
          ],
          [
            -114.64814553815019,
            41.528695469701425
          ],
          [
            -114.64819166035184,
            41.52612106697841
          ]
        ]
      },
      "properties": {
        "fault_name": "Thousand Springs Valley fault zone",
        "age": "late Quaternary",
        "slip_rate": "Less than 0.2 mm/yr"
      }
    },
    {
      "type": "Feature",
      "geometry": {
        "type": "LineString",
        "coordinates": [
          [
            -114.61414035744893,
            41.53482619580205
          ],
          [
            -114.61416313872454,
            41.53360899302817
          ],
          [
            -114.61451427040616,
            41.531080142293824
          ]
        ]
      },
      "properties": {
        "fault_name": "Thousand Springs Valley fault zone",
        "age": "late Quaternary",
        "slip_rate": "Less than 0.2 mm/yr"
      }
    },
    {
      "type": "Feature",
      "geometry": {
        "type": "LineString",
        "coordinates": [
          [
            -114.61097354364583,
            41.5446032837403
          ],
          [
            -114.61170635511863,
            41.54266164316152
          ],
          [
            -114.61219470895146,
            41.54110110927576
          ],
          [
            -114.61281251630496,
            41.53910613768503
          ],
          [
            -114.613270318435,
            41.537297827906485
          ]
        ]
      },
      "properties": {
        "fault_name": "Thousand Springs Valley fault zone",
        "age": "late Quaternary",
        "slip_rate": "Less than 0.2 mm/yr"
      }
    },
    {
      "type": "Feature",
      "geometry": {
        "type": "LineString",
        "coordinates": [
          [
            -114.6091273494301,
            41.5503554281526
          ],
          [
            -114.6107451927989,
            41.548574330743016
          ],
          [
            -114.61187412807435,
            41.547071013917915
          ],
          [
            -114.61265971557008,
            41.545770473289096
          ]
        ]
      },
      "properties": {
        "fault_name": "Thousand Springs Valley fault zone",
        "age": "late Quaternary",
        "slip_rate": "Less than 0.2 mm/yr"
      }
    },
    {
      "type": "Feature",
      "geometry": {
        "type": "LineString",
        "coordinates": [
          [
            -114.60270320128764,
            41.558629790674814
          ],
          [
            -114.6044199356945,
            41.5568559169119
          ],
          [
            -114.6057627670256,
            41.555284264205255
          ],
          [
            -114.60629667712145,
            41.554647046761495
          ]
        ]
      },
      "properties": {
        "fault_name": "Thousand Springs Valley fault zone",
        "age": "late Quaternary",
        "slip_rate": "Less than 0.2 mm/yr"
      }
    },
    {
      "type": "Feature",
      "geometry": {
        "type": "LineString",
        "coordinates": [
          [
            -114.60036866042556,
            41.562928629229916
          ],
          [
            -114.60086423401835,
            41.56237919000767
          ],
          [
            -114.60168093466397,
            41.56137975584196
          ]
        ]
      },
      "properties": {
        "fault_name": "Thousand Springs Valley fault zone",
        "age": "late Quaternary",
        "slip_rate": "Less than 0.2 mm/yr"
      }
    },
    {
      "type": "Feature",
      "geometry": {
        "type": "LineString",
        "coordinates": [
          [
            -114.59718686811338,
            41.56620138182559
          ],
          [
            -114.59865192512036,
            41.56460695218447
          ]
        ]
      },
      "properties": {
        "fault_name": "Thousand Springs Valley fault zone",
        "age": "late Quaternary",
        "slip_rate": "Less than 0.2 mm/yr"
      }
    },
    {
      "type": "Feature",
      "geometry": {
        "type": "LineString",
        "coordinates": [
          [
            -114.59054882930515,
            41.57307577281893
          ],
          [
            -114.59176221070886,
            41.571915778675375
          ],
          [
            -114.59307448494728,
            41.57036746078834
          ]
        ]
      },
      "properties": {
        "fault_name": "Thousand Springs Valley fault zone",
        "age": "late Quaternary",
        "slip_rate": "Less than 0.2 mm/yr"
      }
    },
    {
      "type": "Feature",
      "geometry": {
        "type": "LineString",
        "coordinates": [
          [
            -114.58720703266783,
            41.57665018631456
          ],
          [
            -114.588145958091,
            41.57564297528679
          ]
        ]
      },
      "properties": {
        "fault_name": "Thousand Springs Valley fault zone",
        "age": "late Quaternary",
        "slip_rate": "Less than 0.2 mm/yr"
      }
    },
    {
      "type": "Feature",
      "geometry": {
        "type": "LineString",
        "coordinates": [
          [
            -114.58434636740851,
            41.57940016671801
          ],
          [
            -114.5862153294251,
            41.57753518197675
          ]
        ]
      },
      "properties": {
        "fault_name": "Thousand Springs Valley fault zone",
        "age": "late Quaternary",
        "slip_rate": "Less than 0.2 mm/yr"
      }
    },
    {
      "type": "Feature",
      "geometry": {
        "type": "LineString",
        "coordinates": [
          [
            -114.57839502685458,
            41.585244570831044
          ],
          [
            -114.58028732171235,
            41.583726244794306
          ],
          [
            -114.58256074120247,
            41.58161292597161
          ]
        ]
      },
      "properties": {
        "fault_name": "Thousand Springs Valley fault zone",
        "age": "late Quaternary",
        "slip_rate": "Less than 0.2 mm/yr"
      }
    },
    {
      "type": "Feature",
      "geometry": {
        "type": "LineString",
        "coordinates": [
          [
            -114.56992581815372,
            41.591504544933194
          ],
          [
            -114.57154365703096,
            41.590165663837986
          ],
          [
            -114.57371040517437,
            41.58873511186527
          ]
        ]
      },
      "properties": {
        "fault_name": "Thousand Springs Valley fault zone",
        "age": "late Quaternary",
        "slip_rate": "Less than 0.2 mm/yr"
      }
    },
    {
      "type": "Feature",
      "geometry": {
        "type": "LineString",
        "coordinates": [
          [
            -114.65228066306607,
            41.53716418209858
          ],
          [
            -114.65357016321539,
            41.535249204682586
          ],
          [
            -114.65460020655445,
            41.533605334905005
          ]
        ]
      },
      "properties": {
        "fault_name": "Thousand Springs Valley fault zone",
        "age": "undifferentiated Quaternary",
        "slip_rate": "Less than 0.2 mm/yr"
      }
    },
    {
      "type": "Feature",
      "geometry": {
        "type": "LineString",
        "coordinates": [
          [
            -114.64938164872724,
            41.541936348266056
          ],
          [
            -114.65079337455242,
            41.54006692417173
          ],
          [
            -114.65176952885591,
            41.53846860813858
          ]
        ]
      },
      "properties": {
        "fault_name": "Thousand Springs Valley fault zone",
        "age": "undifferentiated Quaternary",
        "slip_rate": "Less than 0.2 mm/yr"
      }
    },
    {
      "type": "Feature",
      "geometry": {
        "type": "LineString",
        "coordinates": [
          [
            -114.64124072305879,
            41.56180663874313
          ],
          [
            -114.6434152551041,
            41.55970499025343
          ],
          [
            -114.6454447819946,
            41.55750000868611
          ],
          [
            -114.64666538944647,
            41.555676695790254
          ],
          [
            -114.64796266720951,
            41.55336894677848
          ],
          [
            -114.64904604891689,
            41.55096564523139
          ],
          [
            -114.65007609944247,
            41.54775735519927
          ],
          [
            -114.65060223641618,
            41.545807939802536
          ]
        ]
      },
      "properties": {
        "fault_name": "Thousand Springs Valley fault zone",
        "age": "undifferentiated Quaternary",
        "slip_rate": "Less than 0.2 mm/yr"
      }
    },
    {
      "type": "Feature",
      "geometry": {
        "type": "LineString",
        "coordinates": [
          [
            -114.6274001773554,
            41.5731404571782
          ],
          [
            -114.62895690833544,
            41.5715421362155
          ],
          [
            -114.63187146532532,
            41.569363815283715
          ],
          [
            -114.63416766698934,
            41.567708266822585
          ],
          [
            -114.63581606565424,
            41.56590772816373
          ],
          [
            -114.63728112535617,
            41.56426718718797
          ]
        ]
      },
      "properties": {
        "fault_name": "Thousand Springs Valley fault zone",
        "age": "undifferentiated Quaternary",
        "slip_rate": "Less than 0.2 mm/yr"
      }
    },
    {
      "type": "Feature",
      "geometry": {
        "type": "LineString",
        "coordinates": [
          [
            -114.6312764850615,
            41.55616903900155
          ],
          [
            -114.63265709773682,
            41.554211835979025
          ],
          [
            -114.63391604079342,
            41.55229296886487
          ],
          [
            -114.63493108316555,
            41.55043910280292
          ]
        ]
      },
      "properties": {
        "fault_name": "Thousand Springs Valley fault zone",
        "age": "undifferentiated Quaternary",
        "slip_rate": "Less than 0.2 mm/yr"
      }
    },
    {
      "type": "Feature",
      "geometry": {
        "type": "LineString",
        "coordinates": [
          [
            -114.62837691915708,
            41.56105898132286
          ],
          [
            -114.62932306883177,
            41.559602329810765
          ],
          [
            -114.62998698670881,
            41.55841179070248
          ]
        ]
      },
      "properties": {
        "fault_name": "Thousand Springs Valley fault zone",
        "age": "undifferentiated Quaternary",
        "slip_rate": "Less than 0.2 mm/yr"
      }
    },
    {
      "type": "Feature",
      "geometry": {
        "type": "LineString",
        "coordinates": [
          [
            -114.62836186698621,
            41.57742037670307
          ],
          [
            -114.62976581160439,
            41.57621483072
          ]
        ]
      },
      "properties": {
        "fault_name": "Thousand Springs Valley fault zone",
        "age": "undifferentiated Quaternary",
        "slip_rate": "Less than 0.2 mm/yr"
      }
    },
    {
      "type": "Feature",
      "geometry": {
        "type": "LineString",
        "coordinates": [
          [
            -114.62279222957963,
            41.57419325723738
          ],
          [
            -114.62447063197503,
            41.57131662319623
          ],
          [
            -114.6257601303277,
            41.569123314003875
          ],
          [
            -114.6267368379934,
            41.56743333523493
          ]
        ]
      },
      "properties": {
        "fault_name": "Thousand Springs Valley fault zone",
        "age": "undifferentiated Quaternary",
        "slip_rate": "Less than 0.2 mm/yr"
      }
    },
    {
      "type": "Feature",
      "geometry": {
        "type": "LineString",
        "coordinates": [
          [
            -114.62112102718125,
            41.58405366431544
          ],
          [
            -114.6234861188478,
            41.58166590583331
          ],
          [
            -114.62553897857948,
            41.57987313979112
          ],
          [
            -114.62666013444456,
            41.5787553733018
          ]
        ]
      },
      "properties": {
        "fault_name": "Thousand Springs Valley fault zone",
        "age": "undifferentiated Quaternary",
        "slip_rate": "Less than 0.2 mm/yr"
      }
    },
    {
      "type": "Feature",
      "geometry": {
        "type": "LineString",
        "coordinates": [
          [
            -114.61671863101049,
            41.58881473580558
          ],
          [
            -114.6179014553215,
            41.58768141202497
          ],
          [
            -114.61921372866158,
            41.586289200134864
          ],
          [
            -114.61999931705567,
            41.58519476600474
          ]
        ]
      },
      "properties": {
        "fault_name": "Thousand Springs Valley fault zone",
        "age": "undifferentiated Quaternary",
        "slip_rate": "Less than 0.2 mm/yr"
      }
    },
    {
      "type": "Feature",
      "geometry": {
        "type": "LineString",
        "coordinates": [
          [
            -114.6144296500047,
            41.591919705330675
          ],
          [
            -114.61540635767042,
            41.590409165221644
          ]
        ]
      },
      "properties": {
        "fault_name": "Thousand Springs Valley fault zone",
        "age": "undifferentiated Quaternary",
        "slip_rate": "Less than 0.2 mm/yr"
      }
    },
    {
      "type": "Feature",
      "geometry": {
        "type": "LineString",
        "coordinates": [
          [
            -114.61002787636642,
            41.57304116080329
          ],
          [
            -114.61082902088626,
            41.57106896503218
          ],
          [
            -114.61178239571076,
            41.56915009973734
          ],
          [
            -114.61314078586261,
            41.56656790799686
          ],
          [
            -114.61396470896308,
            41.5649657048886
          ],
          [
            -114.61481918915631,
            41.56375627272855
          ]
        ]
      },
      "properties": {
        "fault_name": "Thousand Springs Valley fault zone",
        "age": "undifferentiated Quaternary",
        "slip_rate": "Less than 0.2 mm/yr"
      }
    },
    {
      "type": "Feature",
      "geometry": {
        "type": "LineString",
        "coordinates": [
          [
            -114.60779222025421,
            41.579926623711714
          ],
          [
            -114.6083794687184,
            41.577958317981285
          ],
          [
            -114.60895171891056,
            41.57521169069886
          ]
        ]
      },
      "properties": {
        "fault_name": "Thousand Springs Valley fault zone",
        "age": "undifferentiated Quaternary",
        "slip_rate": "Less than 0.2 mm/yr"
      }
    },
    {
      "type": "Feature",
      "geometry": {
        "type": "LineString",
        "coordinates": [
          [
            -114.6066860545763,
            41.58531654667918
          ],
          [
            -114.60689939996469,
            41.58387101282627
          ],
          [
            -114.60695274012963,
            41.58263492197589
          ]
        ]
      },
      "properties": {
        "fault_name": "Thousand Springs Valley fault zone",
        "age": "undifferentiated Quaternary",
        "slip_rate": "Less than 0.2 mm/yr"
      }
    },
    {
      "type": "Feature",
      "geometry": {
        "type": "LineString",
        "coordinates": [
          [
            -114.59664513997963,
            41.58267334277503
          ],
          [
            -114.59759129055261,
            41.58114002477269
          ],
          [
            -114.59876633904652,
            41.57866783379429
          ],
          [
            -114.59922413758332,
            41.57699674527167
          ]
        ]
      },
      "properties": {
        "fault_name": "Thousand Springs Valley fault zone",
        "age": "undifferentiated Quaternary",
        "slip_rate": "Less than 0.2 mm/yr"
      }
    },
    {
      "type": "Feature",
      "geometry": {
        "type": "LineString",
        "coordinates": [
          [
            -114.58855760657838,
            41.58964663382002
          ],
          [
            -114.59044990143617,
            41.58855941209885
          ],
          [
            -114.59202162799325,
            41.58765885678563
          ],
          [
            -114.5941350413616,
            41.58588497977447
          ],
          [
            -114.59535564701683,
            41.58442777126295
          ]
        ]
      },
      "properties": {
        "fault_name": "Thousand Springs Valley fault zone",
        "age": "undifferentiated Quaternary",
        "slip_rate": "Less than 0.2 mm/yr"
      }
    },
    {
      "type": "Feature",
      "geometry": {
        "type": "LineString",
        "coordinates": [
          [
            -114.57915059265352,
            41.59389609412254
          ],
          [
            -114.5810578857833,
            41.59317497719869
          ],
          [
            -114.58405633104765,
            41.591874415736086
          ],
          [
            -114.58556694162272,
            41.591107193310386
          ]
        ]
      },
      "properties": {
        "fault_name": "Thousand Springs Valley fault zone",
        "age": "undifferentiated Quaternary",
        "slip_rate": "Less than 0.2 mm/yr"
      }
    },
    {
      "type": "Feature",
      "geometry": {
        "type": "LineString",
        "coordinates": [
          [
            -114.55377403119184,
            41.65113875605079
          ],
          [
            -114.55344568887064,
            41.64920490115005
          ],
          [
            -114.55262955236704,
            41.64717549581503
          ],
          [
            -114.55137062368345,
            41.645531089127076
          ],
          [
            -114.55011169140663,
            41.6440700129051
          ]
        ]
      },
      "properties": {
        "fault_name": "Thousand Springs Valley fault zone",
        "age": "undifferentiated Quaternary",
        "slip_rate": "Less than 0.2 mm/yr"
      }
    },
    {
      "type": "Feature",
      "geometry": {
        "type": "LineString",
        "coordinates": [
          [
            -114.55274396359826,
            41.6715467818321
          ],
          [
            -114.55271341189543,
            41.668514607231835
          ],
          [
            -114.55293453399925,
            41.66634019418514
          ],
          [
            -114.5531023204297,
            41.664135226780004
          ],
          [
            -114.55307176782858,
            41.662273590335374
          ],
          [
            -114.55311010522996,
            41.66037028601558
          ],
          [
            -114.55327789255873,
            41.65823365224445
          ],
          [
            -114.55324733816096,
            41.656532565683165
          ]
        ]
      },
      "properties": {
        "fault_name": "Thousand Springs Valley fault zone",
        "age": "undifferentiated Quaternary",
        "slip_rate": "Less than 0.2 mm/yr"
      }
    },
    {
      "type": "Feature",
      "geometry": {
        "type": "LineString",
        "coordinates": [
          [
            -114.5467927209607,
            41.619038764697265
          ],
          [
            -114.54801332122604,
            41.61751266697261
          ],
          [
            -114.54942504166132,
            41.615990455904516
          ]
        ]
      },
      "properties": {
        "fault_name": "Thousand Springs Valley fault zone",
        "age": "undifferentiated Quaternary",
        "slip_rate": "Less than 0.2 mm/yr"
      }
    },
    {
      "type": "Feature",
      "geometry": {
        "type": "LineString",
        "coordinates": [
          [
            -114.54893665189587,
            41.6429794850026
          ],
          [
            -114.54750215916812,
            41.64130841281064
          ],
          [
            -114.54621267159521,
            41.63982844925866
          ],
          [
            -114.54516763717069,
            41.63846292170303
          ],
          [
            -114.54436649893906,
            41.63693684328874
          ],
          [
            -114.54349702676207,
            41.63460633303677
          ],
          [
            -114.54351980713936,
            41.63350745982715
          ]
        ]
      },
      "properties": {
        "fault_name": "Thousand Springs Valley fault zone",
        "age": "undifferentiated Quaternary",
        "slip_rate": "Less than 0.2 mm/yr"
      }
    },
    {
      "type": "Feature",
      "geometry": {
        "type": "LineString",
        "coordinates": [
          [
            -114.5422608775575,
            41.63034529776701
          ],
          [
            -114.54252033526606,
            41.62821310630119
          ],
          [
            -114.54288646072808,
            41.626374243133505
          ],
          [
            -114.54350426179337,
            41.62475314929144
          ],
          [
            -114.54401539330857,
            41.62324261421778
          ],
          [
            -114.54572490256562,
            41.62033931125144
          ]
        ]
      },
      "properties": {
        "fault_name": "Thousand Springs Valley fault zone",
        "age": "undifferentiated Quaternary",
        "slip_rate": "Less than 0.2 mm/yr"
      }
    }
  ]
}