{
  "type": "FeatureCollection",
  "features": [
    {
      "type": "Feature",
      "geometry": {
        "type": "LineString",
        "coordinates": [
          [
            -105.364189152478,
            31.8967652686369
          ],
          [
            -105.366516318171,
            31.9038509504544
          ],
          [
            -105.367729487573,
            31.9069999265311
          ]
        ]
      },
      "properties": {
        "STATE": "TX",
        "DESCRIPTION": "Normal fault, certain",
        "RuleID": 22
      }
    },
    {
      "type": "Feature",
      "geometry": {
        "type": "LineString",
        "coordinates": [
          [
            -105.364189152478,
            31.8967652686369
          ],
          [
            -105.365966860035,
            31.896530648608
          ],
          [
            -105.367736931013,
            31.8959183788007
          ],
          [
            -105.371315244183,
            31.8960270580717
          ],
          [
            -105.372917492799,
            31.8971447325437
          ],
          [
            -105.374077219627,
            31.8982681339778
          ],
          [
            -105.372940504043,
            31.9044459646039
          ]
        ]
      },
      "properties": {
        "STATE": "TX",
        "DESCRIPTION": "Normal fault, certain",
        "RuleID": 22
      }
    },
    {
      "type": "Feature",
      "geometry": {
        "type": "LineString",
        "coordinates": [
          [
            -105.353545822262,
            31.8996988474969
          ],
          [
            -105.353759442535,
            31.8991113887546
          ],
          [
            -105.356773108853,
            31.8961645404415
          ],
          [
            -105.359008598777,
            31.8959165651522
          ],
          [
            -105.361022828257,
            31.8958783969202
          ],
          [
            -105.362609807309,
            31.8964219668807
          ],
          [
            -105.364189152478,
            31.8967652686369
          ]
        ]
      },
      "properties": {
        "STATE": "TX",
        "DESCRIPTION": "Normal fault, certain",
        "RuleID": 22
      }
    }
  ]
}