{
  "type": "FeatureCollection",
  "features": [
    {
      "type": "Feature",
      "geometry": {
        "type": "LineString",
        "coordinates": [
          [
            -117.00761595279452,
            40.31343962875255
          ],
          [
            -117.01098045524895,
            40.310079111193566
          ],
          [
            -117.01314770734722,
            40.3072063702983
          ],
          [
            -117.01533717927406,
            40.30396030599665
          ],
          [
            -117.01878557090127,
            40.300595896696656
          ],
          [
            -117.02090672595075,
            40.299279791259956
          ],
          [
            -117.02427123738835,
            40.29715480421096
          ]
        ]
      },
      "properties": {
        "fault_name": "Shoshone Range fault zone",
        "age": "latest Quaternary",
        "slip_rate": "Less than 0.2 mm/yr"
      }
    },
    {
      "type": "Feature",
      "geometry": {
        "type": "LineString",
        "coordinates": [
          [
            -117.0086317326835,
            40.395984044300036
          ],
          [
            -117.01362907767705,
            40.39410348118602
          ],
          [
            -117.01737472991665,
            40.39310013525947
          ],
          [
            -117.02051091206691,
            40.39136847396637
          ]
        ]
      },
      "properties": {
        "fault_name": "Shoshone Range fault zone",
        "age": "latest Quaternary",
        "slip_rate": "Less than 0.2 mm/yr"
      }
    },
    {
      "type": "Feature",
      "geometry": {
        "type": "LineString",
        "coordinates": [
          [
            -117.00974531036084,
            40.358535909965376
          ],
          [
            -117.01255259413277,
            40.356873140104405
          ]
        ]
      },
      "properties": {
        "fault_name": "Shoshone Range fault zone",
        "age": "latest Quaternary",
        "slip_rate": "Less than 0.2 mm/yr"
      }
    },
    {
      "type": "Feature",
      "geometry": {
        "type": "LineString",
        "coordinates": [
          [
            -116.99943022814286,
            40.382102737323876
          ],
          [
            -117.00181807323722,
            40.38090108196512
          ],
          [
            -117.00589985259823,
            40.38092770995215
          ],
          [
            -117.00841769559234,
            40.3806226942261
          ],
          [
            -117.0102410752948,
            40.37990157880138
          ],
          [
            -117.0123622321409,
            40.37842159067733
          ]
        ]
      },
      "properties": {
        "fault_name": "Shoshone Range fault zone",
        "age": "latest Quaternary",
        "slip_rate": "Less than 0.2 mm/yr"
      }
    },
    {
      "type": "Feature",
      "geometry": {
        "type": "LineString",
        "coordinates": [
          [
            -117.00425957739847,
            40.35557602171083
          ],
          [
            -117.00696017275565,
            40.35187218381579
          ],
          [
            -117.00925688196784,
            40.34959443122281
          ]
        ]
      },
      "properties": {
        "fault_name": "Shoshone Range fault zone",
        "age": "latest Quaternary",
        "slip_rate": "Less than 0.2 mm/yr"
      }
    },
    {
      "type": "Feature",
      "geometry": {
        "type": "LineString",
        "coordinates": [
          [
            -117.00083391943613,
            40.35446996370634
          ],
          [
            -117.00324451975497,
            40.35227998824103
          ]
        ]
      },
      "properties": {
        "fault_name": "Shoshone Range fault zone",
        "age": "latest Quaternary",
        "slip_rate": "Less than 0.2 mm/yr"
      }
    },
    {
      "type": "Feature",
      "geometry": {
        "type": "LineString",
        "coordinates": [
          [
            -116.98767250996902,
            40.372837404824494
          ],
          [
            -116.99093039228069,
            40.371822416847486
          ],
          [
            -116.99411215405014,
            40.369999110678386
          ],
          [
            -116.99513439731759,
            40.368294142767255
          ],
          [
            -116.99700387766211,
            40.364990316331294
          ],
          [
            -116.99901782237568,
            40.36336534419043
          ],
          [
            -116.9999795084132,
            40.36179759592794
          ],
          [
            -117.00097897579496,
            40.36036317669566
          ],
          [
            -117.00187120319637,
            40.358219324335764
          ]
        ]
      },
      "properties": {
        "fault_name": "Shoshone Range fault zone",
        "age": "latest Quaternary",
        "slip_rate": "Less than 0.2 mm/yr"
      }
    },
    {
      "type": "Feature",
      "geometry": {
        "type": "LineString",
        "coordinates": [
          [
            -116.99419635583666,
            40.40425452398134
          ],
          [
            -116.99707255566221,
            40.403071761798174
          ],
          [
            -116.9996131844235,
            40.40129789971019
          ],
          [
            -117.00143657131245,
            40.40053124030964
          ]
        ]
      },
      "properties": {
        "fault_name": "Shoshone Range fault zone",
        "age": "latest Quaternary",
        "slip_rate": "Less than 0.2 mm/yr"
      }
    },
    {
      "type": "Feature",
      "geometry": {
        "type": "LineString",
        "coordinates": [
          [
            -116.99192297856736,
            40.408340005708155
          ],
          [
            -116.99304411736445,
            40.406997248972566
          ],
          [
            -116.99403635959634,
            40.40545227882761
          ],
          [
            -116.9964547707666,
            40.40464339698545
          ],
          [
            -116.99917875106725,
            40.40406728876474
          ],
          [
            -117.00082658020025,
            40.40352951476664
          ]
        ]
      },
      "properties": {
        "fault_name": "Shoshone Range fault zone",
        "age": "latest Quaternary",
        "slip_rate": "Less than 0.2 mm/yr"
      }
    },
    {
      "type": "Feature",
      "geometry": {
        "type": "LineString",
        "coordinates": [
          [
            -116.97699934490572,
            40.43276901174037
          ],
          [
            -116.97815157978468,
            40.4296329592772
          ],
          [
            -116.97931880664741,
            40.42576525515432
          ],
          [
            -116.98119551304008,
            40.422854750948666
          ],
          [
            -116.98250775763407,
            40.42029868720409
          ],
          [
            -116.98390389409585,
            40.41773539919566
          ],
          [
            -116.98703232198854,
            40.41605319930808
          ],
          [
            -116.98861125932238,
            40.415278765304116
          ],
          [
            -116.9901679588614,
            40.41310824680134
          ],
          [
            -116.99196077967451,
            40.41061329218186
          ],
          [
            -116.99409695186058,
            40.409213312950634
          ]
        ]
      },
      "properties": {
        "fault_name": "Shoshone Range fault zone",
        "age": "latest Quaternary",
        "slip_rate": "Less than 0.2 mm/yr"
      }
    },
    {
      "type": "Feature",
      "geometry": {
        "type": "LineString",
        "coordinates": [
          [
            -116.97800597275858,
            40.36349540089893
          ],
          [
            -116.97934099503492,
            40.36084044891973
          ],
          [
            -116.9814999431067,
            40.358891038018534
          ],
          [
            -116.98308720243337,
            40.356766076665565
          ],
          [
            -116.98396444234258,
            40.35542721279322
          ]
        ]
      },
      "properties": {
        "fault_name": "Shoshone Range fault zone",
        "age": "latest Quaternary",
        "slip_rate": "Less than 0.2 mm/yr"
      }
    },
    {
      "type": "Feature",
      "geometry": {
        "type": "LineString",
        "coordinates": [
          [
            -116.97311538085847,
            40.37852844727352
          ],
          [
            -116.97570156678105,
            40.37673958598771
          ],
          [
            -116.97799052712558,
            40.37568293275418
          ],
          [
            -116.98076005560442,
            40.37423739930889
          ],
          [
            -116.9834918018407,
            40.3723263166585
          ]
        ]
      },
      "properties": {
        "fault_name": "Shoshone Range fault zone",
        "age": "latest Quaternary",
        "slip_rate": "Less than 0.2 mm/yr"
      }
    },
    {
      "type": "Feature",
      "geometry": {
        "type": "LineString",
        "coordinates": [
          [
            -116.97302362513871,
            40.36911807900217
          ],
          [
            -116.97525146770457,
            40.3675158829609
          ],
          [
            -116.97705207241962,
            40.36579924466222
          ]
        ]
      },
      "properties": {
        "fault_name": "Shoshone Range fault zone",
        "age": "latest Quaternary",
        "slip_rate": "Less than 0.2 mm/yr"
      }
    },
    {
      "type": "Feature",
      "geometry": {
        "type": "LineString",
        "coordinates": [
          [
            -116.9616329540984,
            40.40008138678674
          ],
          [
            -116.96524918066511,
            40.398940841745365
          ],
          [
            -116.96779760141318,
            40.398624174327225
          ],
          [
            -116.96904096768276,
            40.397601966003585
          ],
          [
            -116.97191773344694,
            40.39732307467451
          ],
          [
            -116.9738022408095,
            40.39693418674784
          ],
          [
            -116.97544229143048,
            40.39598031230363
          ],
          [
            -116.97623619642745,
            40.394870332141
          ]
        ]
      },
      "properties": {
        "fault_name": "Shoshone Range fault zone",
        "age": "latest Quaternary",
        "slip_rate": "Less than 0.2 mm/yr"
      }
    },
    {
      "type": "Feature",
      "geometry": {
        "type": "LineString",
        "coordinates": [
          [
            -116.97570943332798,
            40.38649716692167
          ],
          [
            -116.97570163415469,
            40.38410943810345
          ],
          [
            -116.9754960591935,
            40.382686689187274
          ]
        ]
      },
      "properties": {
        "fault_name": "Shoshone Range fault zone",
        "age": "latest Quaternary",
        "slip_rate": "Less than 0.2 mm/yr"
      }
    },
    {
      "type": "Feature",
      "geometry": {
        "type": "LineString",
        "coordinates": [
          [
            -116.9674702283742,
            40.44391882710846
          ],
          [
            -116.96957583807766,
            40.44201941179889
          ],
          [
            -116.9707736391011,
            40.4399672266779
          ],
          [
            -116.97093363264645,
            40.43865447326125
          ]
        ]
      },
      "properties": {
        "fault_name": "Shoshone Range fault zone",
        "age": "latest Quaternary",
        "slip_rate": "Less than 0.2 mm/yr"
      }
    },
    {
      "type": "Feature",
      "geometry": {
        "type": "LineString",
        "coordinates": [
          [
            -116.93674518933899,
            40.43531301080187
          ],
          [
            -116.939400253586,
            40.43244472285247
          ],
          [
            -116.94107862543866,
            40.430083649855476
          ],
          [
            -116.94281866394064,
            40.427886462788855
          ],
          [
            -116.94476371236347,
            40.425647056792
          ],
          [
            -116.94464923465694,
            40.422362677216384
          ],
          [
            -116.94515311586949,
            40.41994772221873
          ],
          [
            -116.94661036382168,
            40.41699944119338
          ],
          [
            -116.94814373141782,
            40.415031138699675
          ],
          [
            -116.94904430057497,
            40.41311617467721
          ],
          [
            -116.94946374015082,
            40.411071212738996
          ],
          [
            -116.94874647761726,
            40.40935458299988
          ],
          [
            -116.94866257137645,
            40.40795460973342
          ],
          [
            -116.94953203007871,
            40.40613520030575
          ]
        ]
      },
      "properties": {
        "fault_name": "Shoshone Range fault zone",
        "age": "latest Quaternary",
        "slip_rate": "Less than 0.2 mm/yr"
      }
    },
    {
      "type": "Feature",
      "geometry": {
        "type": "LineString",
        "coordinates": [
          [
            -116.92124975015126,
            40.44589509224946
          ],
          [
            -116.92391983692472,
            40.445345647153644
          ],
          [
            -116.9276432819122,
            40.443430669676175
          ],
          [
            -116.92887886517816,
            40.44164958603878
          ]
        ]
      },
      "properties": {
        "fault_name": "Shoshone Range fault zone",
        "age": "latest Quaternary",
        "slip_rate": "Less than 0.2 mm/yr"
      }
    },
    {
      "type": "Feature",
      "geometry": {
        "type": "LineString",
        "coordinates": [
          [
            -116.90329691380823,
            40.44701292174838
          ],
          [
            -116.90570031502837,
            40.44529627803656
          ],
          [
            -116.90679144740001,
            40.443583529037305
          ],
          [
            -116.90821815263259,
            40.442496320811884
          ],
          [
            -116.91185715328838,
            40.44088300418613
          ],
          [
            -116.91678619398098,
            40.43879635631083
          ],
          [
            -116.92070020487785,
            40.437339146663184
          ],
          [
            -116.92190578980323,
            40.43604194476715
          ],
          [
            -116.92253857297084,
            40.434172534991305
          ]
        ]
      },
      "properties": {
        "fault_name": "Shoshone Range fault zone",
        "age": "latest Quaternary",
        "slip_rate": "Less than 0.2 mm/yr"
      }
    },
    {
      "type": "Feature",
      "geometry": {
        "type": "LineString",
        "coordinates": [
          [
            -116.91143017594898,
            40.46815748818862
          ],
          [
            -116.91158293895462,
            40.46604419411051
          ],
          [
            -116.91378798677016,
            40.46308757287622
          ],
          [
            -116.91553525042197,
            40.4610276051028
          ]
        ]
      },
      "properties": {
        "fault_name": "Shoshone Range fault zone",
        "age": "latest Quaternary",
        "slip_rate": "Less than 0.2 mm/yr"
      }
    },
    {
      "type": "Feature",
      "geometry": {
        "type": "LineString",
        "coordinates": [
          [
            -116.91354328838173,
            40.43712140070354
          ],
          [
            -116.91381826538513,
            40.43367702201592
          ],
          [
            -116.91408492129406,
            40.43165539268077
          ],
          [
            -116.91417657191093,
            40.4296370983202
          ]
        ]
      },
      "properties": {
        "fault_name": "Shoshone Range fault zone",
        "age": "latest Quaternary",
        "slip_rate": "Less than 0.2 mm/yr"
      }
    },
    {
      "type": "Feature",
      "geometry": {
        "type": "LineString",
        "coordinates": [
          [
            -116.8878017944207,
            40.49035106978793
          ],
          [
            -116.89063965684488,
            40.48902330231593
          ],
          [
            -116.89308139277145,
            40.48743665431427
          ],
          [
            -116.89474421478656,
            40.48602500621409
          ],
          [
            -116.89803264700443,
            40.484571684190946
          ],
          [
            -116.90103884742462,
            40.482874480229974
          ],
          [
            -116.90297665901954,
            40.479574531779605
          ],
          [
            -116.90370943096647,
            40.47633236711648
          ],
          [
            -116.90456387432874,
            40.473104647198745
          ],
          [
            -116.90577666374267,
            40.46992747971052
          ]
        ]
      },
      "properties": {
        "fault_name": "Shoshone Range fault zone",
        "age": "latest Quaternary",
        "slip_rate": "Less than 0.2 mm/yr"
      }
    },
    {
      "type": "Feature",
      "geometry": {
        "type": "LineString",
        "coordinates": [
          [
            -116.89515617588764,
            40.457483873291096
          ],
          [
            -116.89720067320233,
            40.455721674244145
          ],
          [
            -116.89823069408352,
            40.45389837127291
          ]
        ]
      },
      "properties": {
        "fault_name": "Shoshone Range fault zone",
        "age": "latest Quaternary",
        "slip_rate": "Less than 0.2 mm/yr"
      }
    },
    {
      "type": "Feature",
      "geometry": {
        "type": "LineString",
        "coordinates": [
          [
            -116.8945534350781,
            40.46348042932924
          ],
          [
            -116.89209670357444,
            40.465773175323235
          ],
          [
            -116.88969331043911,
            40.46801981131903
          ],
          [
            -116.88669489841244,
            40.47041589023207
          ],
          [
            -116.88416983296345,
            40.47286474503073
          ],
          [
            -116.88060640038599,
            40.47551582266015
          ],
          [
            -116.87919525217754,
            40.476648588108084
          ]
        ]
      },
      "properties": {
        "fault_name": "Shoshone Range fault zone",
        "age": "latest Quaternary",
        "slip_rate": "Less than 0.2 mm/yr"
      }
    },
    {
      "type": "Feature",
      "geometry": {
        "type": "LineString",
        "coordinates": [
          [
            -116.8861608769255,
            40.45889166302442
          ],
          [
            -116.88832760440764,
            40.45738112624914
          ],
          [
            -116.89099046423468,
            40.45632835731052
          ]
        ]
      },
      "properties": {
        "fault_name": "Shoshone Range fault zone",
        "age": "latest Quaternary",
        "slip_rate": "Less than 0.2 mm/yr"
      }
    },
    {
      "type": "Feature",
      "geometry": {
        "type": "LineString",
        "coordinates": [
          [
            -116.88288808527504,
            40.46913371089887
          ],
          [
            -116.88223137997143,
            40.4674898542916
          ],
          [
            -116.88030907419662,
            40.465758229332025
          ],
          [
            -116.87869900664492,
            40.464510481235806
          ],
          [
            -116.8768678133961,
            40.46270996699025
          ]
        ]
      },
      "properties": {
        "fault_name": "Shoshone Range fault zone",
        "age": "latest Quaternary",
        "slip_rate": "Less than 0.2 mm/yr"
      }
    },
    {
      "type": "Feature",
      "geometry": {
        "type": "LineString",
        "coordinates": [
          [
            -116.87757005160653,
            40.46162665231924
          ],
          [
            -116.87956899984475,
            40.4605777712759
          ],
          [
            -116.88145350002083,
            40.45964333682041
          ]
        ]
      },
      "properties": {
        "fault_name": "Shoshone Range fault zone",
        "age": "latest Quaternary",
        "slip_rate": "Less than 0.2 mm/yr"
      }
    },
    {
      "type": "Feature",
      "geometry": {
        "type": "LineString",
        "coordinates": [
          [
            -116.8798130164119,
            40.47285698820495
          ],
          [
            -116.87939357593777,
            40.474855842210616
          ],
          [
            -116.87919525217754,
            40.476648588108084
          ]
        ]
      },
      "properties": {
        "fault_name": "Shoshone Range fault zone",
        "age": "latest Quaternary",
        "slip_rate": "Less than 0.2 mm/yr"
      }
    },
    {
      "type": "Feature",
      "geometry": {
        "type": "LineString",
        "coordinates": [
          [
            -116.87618128582169,
            40.47936077371197
          ],
          [
            -116.87766132313435,
            40.47788079431257
          ],
          [
            -116.87919525217754,
            40.476648588108084
          ]
        ]
      },
      "properties": {
        "fault_name": "Shoshone Range fault zone",
        "age": "latest Quaternary",
        "slip_rate": "Less than 0.2 mm/yr"
      }
    },
    {
      "type": "Feature",
      "geometry": {
        "type": "LineString",
        "coordinates": [
          [
            -116.8480694450497,
            40.148074944334304
          ],
          [
            -116.8506100405733,
            40.145847187331945
          ],
          [
            -116.85559235765045,
            40.142383885057406
          ],
          [
            -116.85720959824972,
            40.140579459117184
          ],
          [
            -116.85744625941132,
            40.13986224418971
          ]
        ]
      },
      "properties": {
        "fault_name": "Carico Lake Valley fault zone",
        "age": "latest Quaternary",
        "slip_rate": "Less than 0.2 mm/yr"
      }
    },
    {
      "type": "Feature",
      "geometry": {
        "type": "LineString",
        "coordinates": [
          [
            -116.84060069906393,
            40.168681962869954
          ],
          [
            -116.84427799579859,
            40.166175876247586
          ],
          [
            -116.84506409982563,
            40.164402003018616
          ],
          [
            -116.8469785686979,
            40.162319246261994
          ]
        ]
      },
      "properties": {
        "fault_name": "Carico Lake Valley fault zone",
        "age": "latest Quaternary",
        "slip_rate": "Less than 0.2 mm/yr"
      }
    },
    {
      "type": "Feature",
      "geometry": {
        "type": "LineString",
        "coordinates": [
          [
            -116.98253289519066,
            40.08521719132565
          ],
          [
            -116.98577574239944,
            40.08399275832049
          ],
          [
            -116.99051359644673,
            40.08117000871589
          ],
          [
            -116.99577036770783,
            40.07886947533569
          ],
          [
            -116.99939433056578,
            40.077481156078186
          ],
          [
            -117.00227828644549,
            40.07644337172654
          ],
          [
            -117.00831342993393,
            40.074112767737674
          ],
          [
            -117.01086904978067,
            40.07325829975818
          ],
          [
            -117.0125323308349,
            40.068722215735775
          ],
          [
            -117.01472177132065,
            40.065437778757556
          ],
          [
            -117.0171556344121,
            40.060803352709904
          ],
          [
            -117.02007786121787,
            40.05682446827739
          ],
          [
            -117.01993281743549,
            40.055126710255394
          ],
          [
            -117.01943654315676,
            40.048836781812014
          ],
          [
            -117.02107706179999,
            40.04489568977368
          ],
          [
            -117.02191594544323,
            40.04337402679704
          ]
        ]
      },
      "properties": {
        "fault_name": "Carico Lake Valley fault zone",
        "age": "latest Quaternary",
        "slip_rate": "Less than 0.2 mm/yr"
      }
    },
    {
      "type": "Feature",
      "geometry": {
        "type": "LineString",
        "coordinates": [
          [
            -116.96788430860103,
            40.09357100026882
          ],
          [
            -116.97167603632985,
            40.09114880033653
          ],
          [
            -116.97530774356386,
            40.08817716272043
          ],
          [
            -116.97820722143338,
            40.08578552130419
          ],
          [
            -116.9797405773514,
            40.08478608602561
          ],
          [
            -116.98150284376676,
            40.084377755065915
          ],
          [
            -116.98426457397059,
            40.08348165373214
          ]
        ]
      },
      "properties": {
        "fault_name": "Carico Lake Valley fault zone",
        "age": "latest Quaternary",
        "slip_rate": "Less than 0.2 mm/yr"
      }
    },
    {
      "type": "Feature",
      "geometry": {
        "type": "LineString",
        "coordinates": [
          [
            -116.92946169393115,
            40.10421034797076
          ],
          [
            -116.92981996362599,
            40.100674274232006
          ],
          [
            -116.93315443540045,
            40.097240975236645
          ],
          [
            -116.93657224657882,
            40.094017672761844
          ],
          [
            -116.93862447120158,
            40.09124436784283
          ],
          [
            -116.94089839015501,
            40.08943605327247
          ],
          [
            -116.94331670790044,
            40.085438316167476
          ],
          [
            -116.94584175178987,
            40.08390110925765
          ],
          [
            -116.950007919787,
            40.08088002670791
          ],
          [
            -116.9512206768616,
            40.07827838687826
          ],
          [
            -116.9539523539276,
            40.07507786429925
          ],
          [
            -116.95666070084737,
            40.07211733919238
          ],
          [
            -116.95711066966813,
            40.07006902428996
          ],
          [
            -116.96039910907251,
            40.07045068800529
          ],
          [
            -116.96445813859897,
            40.0713584546617
          ],
          [
            -116.96648760440401,
            40.06956958429271
          ],
          [
            -116.96731145743593,
            40.066944613270245
          ],
          [
            -116.96940193501844,
            40.06088356270648
          ],
          [
            -116.97098077443594,
            40.05671804992952
          ]
        ]
      },
      "properties": {
        "fault_name": "Carico Lake Valley fault zone",
        "age": "latest Quaternary",
        "slip_rate": "Less than 0.2 mm/yr"
      }
    },
    {
      "type": "Feature",
      "geometry": {
        "type": "LineString",
        "coordinates": [
          [
            -116.95199158858054,
            40.09309823284917
          ],
          [
            -116.95519608940477,
            40.09119102923032
          ],
          [
            -116.95766836984764,
            40.0904543687823
          ]
        ]
      },
      "properties": {
        "fault_name": "Carico Lake Valley fault zone",
        "age": "latest Quaternary",
        "slip_rate": "Less than 0.2 mm/yr"
      }
    },
    {
      "type": "Feature",
      "geometry": {
        "type": "LineString",
        "coordinates": [
          [
            -116.94693313479148,
            40.09463544028937
          ],
          [
            -116.94868813563282,
            40.09228157473985
          ],
          [
            -116.95076316578572,
            40.09074436911116
          ]
        ]
      },
      "properties": {
        "fault_name": "Carico Lake Valley fault zone",
        "age": "latest Quaternary",
        "slip_rate": "Less than 0.2 mm/yr"
      }
    },
    {
      "type": "Feature",
      "geometry": {
        "type": "LineString",
        "coordinates": [
          [
            -116.94060851728754,
            40.09556987924551
          ],
          [
            -116.94143241164196,
            40.094665997771855
          ],
          [
            -116.9437590994318,
            40.092396021268264
          ]
        ]
      },
      "properties": {
        "fault_name": "Carico Lake Valley fault zone",
        "age": "latest Quaternary",
        "slip_rate": "Less than 0.2 mm/yr"
      }
    },
    {
      "type": "Feature",
      "geometry": {
        "type": "LineString",
        "coordinates": [
          [
            -116.93013297529856,
            40.11102305409144
          ],
          [
            -116.93161350758291,
            40.107956418902724
          ],
          [
            -116.93342907014576,
            40.10553033230987
          ]
        ]
      },
      "properties": {
        "fault_name": "Carico Lake Valley fault zone",
        "age": "latest Quaternary",
        "slip_rate": "Less than 0.2 mm/yr"
      }
    },
    {
      "type": "Feature",
      "geometry": {
        "type": "LineString",
        "coordinates": [
          [
            -116.91231063542023,
            40.13177507175954
          ],
          [
            -116.91606457641494,
            40.12864343609774
          ],
          [
            -116.91961240884918,
            40.125923461790975
          ],
          [
            -116.92186300214793,
            40.124366811260145
          ],
          [
            -116.92322850066861,
            40.119671301770644
          ],
          [
            -116.92457901529032,
            40.11582189678033
          ],
          [
            -116.92619620917719,
            40.112133601016126
          ],
          [
            -116.92895073399416,
            40.11188526896325
          ]
        ]
      },
      "properties": {
        "fault_name": "Carico Lake Valley fault zone",
        "age": "latest Quaternary",
        "slip_rate": "Less than 0.2 mm/yr"
      }
    },
    {
      "type": "Feature",
      "geometry": {
        "type": "LineString",
        "coordinates": [
          [
            -116.90046201402785,
            40.13624225570744
          ],
          [
            -116.90282704371066,
            40.133991166165565
          ],
          [
            -116.90430762360572,
            40.132877286689734
          ],
          [
            -116.9051998231594,
            40.130481758256735
          ],
          [
            -116.90783208457124,
            40.12832677771049
          ],
          [
            -116.91066271376071,
            40.12749900730476
          ],
          [
            -116.91268443159645,
            40.12688456797939
          ],
          [
            -116.9142716603804,
            40.124824587773944
          ],
          [
            -116.9148205435954,
            40.123764042914104
          ]
        ]
      },
      "properties": {
        "fault_name": "Carico Lake Valley fault zone",
        "age": "latest Quaternary",
        "slip_rate": "Less than 0.2 mm/yr"
      }
    },
    {
      "type": "Feature",
      "geometry": {
        "type": "LineString",
        "coordinates": [
          [
            -116.90117821115948,
            40.0857205502439
          ],
          [
            -116.90306267540292,
            40.08400779030558
          ],
          [
            -116.90479430567385,
            40.07967450087975
          ],
          [
            -116.90546596882525,
            40.0784995129489
          ]
        ]
      },
      "properties": {
        "fault_name": "Carico Lake Valley fault zone",
        "age": "latest Quaternary",
        "slip_rate": "Less than 0.2 mm/yr"
      }
    },
    {
      "type": "Feature",
      "geometry": {
        "type": "LineString",
        "coordinates": [
          [
            -116.89100293285084,
            40.22336525885401
          ],
          [
            -116.89339129357818,
            40.22065639733062
          ],
          [
            -116.8955046413695,
            40.217654203302715
          ],
          [
            -116.8964657444004,
            40.215652000178686
          ],
          [
            -116.8968701416868,
            40.212683697206714
          ],
          [
            -116.89718291081422,
            40.21171870675232
          ]
        ]
      },
      "properties": {
        "fault_name": "Carico Lake Valley fault zone",
        "age": "latest Quaternary",
        "slip_rate": "Less than 0.2 mm/yr"
      }
    },
    {
      "type": "Feature",
      "geometry": {
        "type": "LineString",
        "coordinates": [
          [
            -116.87887807142373,
            40.140331114901485
          ],
          [
            -116.88236478158774,
            40.13710781399854
          ],
          [
            -116.88368423156862,
            40.13512449913667
          ],
          [
            -116.88453864259156,
            40.13215675075478
          ],
          [
            -116.88384467696658,
            40.12947455672302
          ],
          [
            -116.88521022040302,
            40.12668236168612
          ],
          [
            -116.88629355719463,
            40.125179598981184
          ],
          [
            -116.88608013455111,
            40.12112075293477
          ],
          [
            -116.88578226757596,
            40.117080793198525
          ],
          [
            -116.88591168157072,
            40.11542525422038
          ]
        ]
      },
      "properties": {
        "fault_name": "Carico Lake Valley fault zone",
        "age": "latest Quaternary",
        "slip_rate": "Less than 0.2 mm/yr"
      }
    },
    {
      "type": "Feature",
      "geometry": {
        "type": "LineString",
        "coordinates": [
          [
            -116.86864714787312,
            40.1667441867281
          ],
          [
            -116.86943270033458,
            40.16529086688697
          ],
          [
            -116.87136325713526,
            40.16206701073344
          ],
          [
            -116.87347661301142,
            40.15971369890758
          ],
          [
            -116.87477329069988,
            40.158164825242494
          ],
          [
            -116.87709276501799,
            40.155761516205594
          ],
          [
            -116.87865667892704,
            40.15449152613756
          ]
        ]
      },
      "properties": {
        "fault_name": "Carico Lake Valley fault zone",
        "age": "latest Quaternary",
        "slip_rate": "Less than 0.2 mm/yr"
      }
    },
    {
      "type": "Feature",
      "geometry": {
        "type": "LineString",
        "coordinates": [
          [
            -116.86352730501419,
            40.155040420329556
          ],
          [
            -116.8676701922724,
            40.15367098574781
          ],
          [
            -116.87157641477576,
            40.152835991300016
          ],
          [
            -116.87413257810326,
            40.15125656328838
          ]
        ]
      },
      "properties": {
        "fault_name": "Carico Lake Valley fault zone",
        "age": "latest Quaternary",
        "slip_rate": "Less than 0.2 mm/yr"
      }
    },
    {
      "type": "Feature",
      "geometry": {
        "type": "LineString",
        "coordinates": [
          [
            -116.83773108658436,
            40.134933415159274
          ],
          [
            -116.84108054674934,
            40.1300584612864
          ],
          [
            -116.84414776613356,
            40.12472962587698
          ],
          [
            -116.84877834606459,
            40.1181946890406
          ],
          [
            -116.85320334744115,
            40.111088091684465
          ],
          [
            -116.85760559359328,
            40.105152594749306
          ],
          [
            -116.8615272707128,
            40.09937709622137
          ],
          [
            -116.86396894735057,
            40.096073793125875
          ],
          [
            -116.86946958695675,
            40.09175938973875
          ],
          [
            -116.87174350411357,
            40.089626634230164
          ]
        ]
      },
      "properties": {
        "fault_name": "Carico Lake Valley fault zone",
        "age": "latest Quaternary",
        "slip_rate": "Less than 0.2 mm/yr"
      }
    },
    {
      "type": "Feature",
      "geometry": {
        "type": "LineString",
        "coordinates": [
          [
            -116.86293975920766,
            40.13936224500074
          ],
          [
            -116.8645647864038,
            40.1379739237183
          ],
          [
            -116.86683086665803,
            40.132717310957126
          ],
          [
            -116.86873031210551,
            40.129761227832816
          ],
          [
            -116.8697603222069,
            40.12865457201583
          ]
        ]
      },
      "properties": {
        "fault_name": "Carico Lake Valley fault zone",
        "age": "latest Quaternary",
        "slip_rate": "Less than 0.2 mm/yr"
      }
    },
    {
      "type": "Feature",
      "geometry": {
        "type": "LineString",
        "coordinates": [
          [
            -116.8652593934259,
            40.17364856326309
          ],
          [
            -116.86733494190669,
            40.16981471229346
          ]
        ]
      },
      "properties": {
        "fault_name": "Carico Lake Valley fault zone",
        "age": "latest Quaternary",
        "slip_rate": "Less than 0.2 mm/yr"
      }
    },
    {
      "type": "Feature",
      "geometry": {
        "type": "LineString",
        "coordinates": [
          [
            -116.86172680719864,
            40.16109091419865
          ],
          [
            -116.8634435065712,
            40.15983926094722
          ],
          [
            -116.86492353040913,
            40.15846982771148
          ]
        ]
      },
      "properties": {
        "fault_name": "Carico Lake Valley fault zone",
        "age": "latest Quaternary",
        "slip_rate": "Less than 0.2 mm/yr"
      }
    },
    {
      "type": "Feature",
      "geometry": {
        "type": "LineString",
        "coordinates": [
          [
            -116.86069684201301,
            40.1646381008529
          ],
          [
            -116.86321466344752,
            40.162570898694426
          ]
        ]
      },
      "properties": {
        "fault_name": "Carico Lake Valley fault zone",
        "age": "latest Quaternary",
        "slip_rate": "Less than 0.2 mm/yr"
      }
    },
    {
      "type": "Feature",
      "geometry": {
        "type": "LineString",
        "coordinates": [
          [
            -116.86009424044232,
            40.17470133387274
          ],
          [
            -116.86209314735801,
            40.1722674677962
          ]
        ]
      },
      "properties": {
        "fault_name": "Carico Lake Valley fault zone",
        "age": "latest Quaternary",
        "slip_rate": "Less than 0.2 mm/yr"
      }
    },
    {
      "type": "Feature",
      "geometry": {
        "type": "LineString",
        "coordinates": [
          [
            -116.84628565140686,
            40.21487760626778
          ],
          [
            -116.8486734578737,
            40.21214596474381
          ],
          [
            -116.8545407915755,
            40.20734711888228
          ],
          [
            -116.85940084973913,
            40.2016366172194
          ],
          [
            -116.86121636918284,
            40.19654777799666
          ],
          [
            -116.86197906401189,
            40.19098227866791
          ],
          [
            -116.86148343831681,
            40.18821286173106
          ],
          [
            -116.85846933631537,
            40.18240681223973
          ]
        ]
      },
      "properties": {
        "fault_name": "Carico Lake Valley fault zone",
        "age": "latest Quaternary",
        "slip_rate": "Less than 0.2 mm/yr"
      }
    },
    {
      "type": "Feature",
      "geometry": {
        "type": "LineString",
        "coordinates": [
          [
            -116.85734720757483,
            40.1605564777795
          ],
          [
            -116.85946056075608,
            40.157874837752765
          ]
        ]
      },
      "properties": {
        "fault_name": "Carico Lake Valley fault zone",
        "age": "latest Quaternary",
        "slip_rate": "Less than 0.2 mm/yr"
      }
    },
    {
      "type": "Feature",
      "geometry": {
        "type": "LineString",
        "coordinates": [
          [
            -116.85744625941132,
            40.13986224418971
          ],
          [
            -116.85801068707403,
            40.138096147801036
          ],
          [
            -116.85827787209065,
            40.135703952214655
          ],
          [
            -116.85788837515986,
            40.133594529328754
          ]
        ]
      },
      "properties": {
        "fault_name": "Carico Lake Valley fault zone",
        "age": "latest Quaternary",
        "slip_rate": "Less than 0.2 mm/yr"
      }
    },
    {
      "type": "Feature",
      "geometry": {
        "type": "LineString",
        "coordinates": [
          [
            -116.85746193411472,
            40.17492633275796
          ],
          [
            -116.85686692240986,
            40.175322997325345
          ],
          [
            -116.85547856266355,
            40.176364653672124
          ],
          [
            -116.85519633266253,
            40.17646743114091
          ]
        ]
      },
      "properties": {
        "fault_name": "Carico Lake Valley fault zone",
        "age": "latest Quaternary",
        "slip_rate": "Less than 0.2 mm/yr"
      }
    },
    {
      "type": "Feature",
      "geometry": {
        "type": "LineString",
        "coordinates": [
          [
            -116.84954247011326,
            40.15856928329436
          ],
          [
            -116.85022136739764,
            40.15789762178842
          ],
          [
            -116.85190750967752,
            40.15657430125691
          ],
          [
            -116.85337975680002,
            40.15530375584008
          ],
          [
            -116.85512701416361,
            40.154232098995514
          ],
          [
            -116.85717206214557,
            40.15317933086215
          ]
        ]
      },
      "properties": {
        "fault_name": "Carico Lake Valley fault zone",
        "age": "latest Quaternary",
        "slip_rate": "Less than 0.2 mm/yr"
      }
    },
    {
      "type": "Feature",
      "geometry": {
        "type": "LineString",
        "coordinates": [
          [
            -116.85644754391946,
            40.17945851118877
          ],
          [
            -116.85570749112716,
            40.17799741474112
          ],
          [
            -116.85519633266253,
            40.17646743114091
          ]
        ]
      },
      "properties": {
        "fault_name": "Carico Lake Valley fault zone",
        "age": "latest Quaternary",
        "slip_rate": "Less than 0.2 mm/yr"
      }
    },
    {
      "type": "Feature",
      "geometry": {
        "type": "LineString",
        "coordinates": [
          [
            -116.85419686168751,
            40.17683742832776
          ],
          [
            -116.85519633266253,
            40.17646743114091
          ]
        ]
      },
      "properties": {
        "fault_name": "Carico Lake Valley fault zone",
        "age": "latest Quaternary",
        "slip_rate": "Less than 0.2 mm/yr"
      }
    },
    {
      "type": "Feature",
      "geometry": {
        "type": "LineString",
        "coordinates": [
          [
            -116.84349236787868,
            40.19324838101169
          ],
          [
            -116.84235558941249,
            40.18926175489409
          ],
          [
            -116.84289719537539,
            40.185149573668554
          ],
          [
            -116.84433163869579,
            40.18256737578443
          ],
          [
            -116.84600999527711,
            40.18074017186888
          ]
        ]
      },
      "properties": {
        "fault_name": "Carico Lake Valley fault zone",
        "age": "latest Quaternary",
        "slip_rate": "Less than 0.2 mm/yr"
      }
    },
    {
      "type": "Feature",
      "geometry": {
        "type": "LineString",
        "coordinates": [
          [
            -116.83873911940233,
            40.176639107966935
          ],
          [
            -116.84030299558212,
            40.17325580619438
          ],
          [
            -116.8420196886665,
            40.17153915725296
          ]
        ]
      },
      "properties": {
        "fault_name": "Carico Lake Valley fault zone",
        "age": "latest Quaternary",
        "slip_rate": "Less than 0.2 mm/yr"
      }
    },
    {
      "type": "Feature",
      "geometry": {
        "type": "LineString",
        "coordinates": [
          [
            -116.8365801578558,
            40.17661633228025
          ],
          [
            -116.8380368174115,
            40.17354913869397
          ],
          [
            -116.8396923972088,
            40.17199693171249
          ]
        ]
      },
      "properties": {
        "fault_name": "Carico Lake Valley fault zone",
        "age": "latest Quaternary",
        "slip_rate": "Less than 0.2 mm/yr"
      }
    },
    {
      "type": "Feature",
      "geometry": {
        "type": "LineString",
        "coordinates": [
          [
            -116.82237415144373,
            40.20866324280386
          ],
          [
            -116.82358694714587,
            40.207416033101055
          ],
          [
            -116.8249375138699,
            40.20550105068379
          ],
          [
            -116.82846977939857,
            40.2011522031849
          ]
        ]
      },
      "properties": {
        "fault_name": "Carico Lake Valley fault zone",
        "age": "latest Quaternary",
        "slip_rate": "Less than 0.2 mm/yr"
      }
    },
    {
      "type": "Feature",
      "geometry": {
        "type": "LineString",
        "coordinates": [
          [
            -116.81945955402965,
            40.20579494218261
          ],
          [
            -116.822457950785,
            40.20363551578439
          ],
          [
            -116.82455576940002,
            40.201873310039545
          ],
          [
            -116.82606686865857,
            40.19844389868902
          ],
          [
            -116.82760022367829,
            40.19670835815879
          ]
        ]
      },
      "properties": {
        "fault_name": "Carico Lake Valley fault zone",
        "age": "latest Quaternary",
        "slip_rate": "Less than 0.2 mm/yr"
      }
    },
    {
      "type": "Feature",
      "geometry": {
        "type": "LineString",
        "coordinates": [
          [
            -116.82071836683058,
            40.19914945077886
          ],
          [
            -116.8209927922684,
            40.19761224420282
          ],
          [
            -116.82396838259531,
            40.19393505584084
          ],
          [
            -116.82555506340691,
            40.19173785375968
          ],
          [
            -116.82631060764629,
            40.18973509571984
          ]
        ]
      },
      "properties": {
        "fault_name": "Carico Lake Valley fault zone",
        "age": "latest Quaternary",
        "slip_rate": "Less than 0.2 mm/yr"
      }
    },
    {
      "type": "Feature",
      "geometry": {
        "type": "LineString",
        "coordinates": [
          [
            -116.81439349779836,
            40.21864648377255
          ],
          [
            -116.8174757891164,
            40.216533169761966
          ],
          [
            -116.82003195963037,
            40.21493096169836
          ]
        ]
      },
      "properties": {
        "fault_name": "Carico Lake Valley fault zone",
        "age": "latest Quaternary",
        "slip_rate": "Less than 0.2 mm/yr"
      }
    },
    {
      "type": "Feature",
      "geometry": {
        "type": "LineString",
        "coordinates": [
          [
            -116.8178415606422,
            40.1968989197534
          ],
          [
            -116.81887932500115,
            40.19416005818888
          ],
          [
            -116.81949706857424,
            40.19111953231531
          ]
        ]
      },
      "properties": {
        "fault_name": "Carico Lake Valley fault zone",
        "age": "latest Quaternary",
        "slip_rate": "Less than 0.2 mm/yr"
      }
    },
    {
      "type": "Feature",
      "geometry": {
        "type": "LineString",
        "coordinates": [
          [
            -116.81324896956622,
            40.216243175147284
          ],
          [
            -116.81618626022099,
            40.21433985897186
          ],
          [
            -116.81897909459153,
            40.212203211980054
          ]
        ]
      },
      "properties": {
        "fault_name": "Carico Lake Valley fault zone",
        "age": "latest Quaternary",
        "slip_rate": "Less than 0.2 mm/yr"
      }
    },
    {
      "type": "Feature",
      "geometry": {
        "type": "LineString",
        "coordinates": [
          [
            -116.52842716006944,
            40.26431575995721
          ],
          [
            -116.5363312592863,
            40.2593602637052
          ],
          [
            -116.5451053633811,
            40.25228424426894
          ],
          [
            -116.55046160239863,
            40.24782873534139
          ],
          [
            -116.55288775165674,
            40.24457487072228
          ],
          [
            -116.55365828069337,
            40.240646015886476
          ],
          [
            -116.55461159083919,
            40.23652605068079
          ],
          [
            -116.55491713302017,
            40.23469106681736
          ],
          [
            -116.55604600541352,
            40.2306477678046
          ],
          [
            -116.55769379591894,
            40.22751168176023
          ],
          [
            -116.5620278069404,
            40.22576836012134
          ],
          [
            -116.56411059404576,
            40.22120617620682
          ],
          [
            -116.56822288468543,
            40.21613288282229
          ],
          [
            -116.57380744580378,
            40.210887368092095
          ],
          [
            -116.580803731849,
            40.20643962219692
          ],
          [
            -116.58967728842893,
            40.20126688084809
          ],
          [
            -116.59731416669652,
            40.197963567766244
          ],
          [
            -116.60125872570298,
            40.19688024176145
          ]
        ]
      },
      "properties": {
        "fault_name": "Cortez Mountains fault zone",
        "age": "latest Quaternary",
        "slip_rate": "Less than 0.2 mm/yr"
      }
    },
    {
      "type": "Feature",
      "geometry": {
        "type": "LineString",
        "coordinates": [
          [
            -116.6051806049434,
            40.20268573981564
          ],
          [
            -116.6139319690851,
            40.199878533936676
          ],
          [
            -116.62165273742383,
            40.19677688796327
          ],
          [
            -116.62398776696942,
            40.19334358405081
          ],
          [
            -116.62765727800551,
            40.18946417018709
          ],
          [
            -116.6351952490654,
            40.18537475614432
          ],
          [
            -116.64393883289841,
            40.18265532790412
          ],
          [
            -116.64800562656384,
            40.182166995332196
          ],
          [
            -116.65574196180816,
            40.17989311927871
          ],
          [
            -116.66143378536468,
            40.1776042476923
          ],
          [
            -116.66588164527202,
            40.17335094874839
          ],
          [
            -116.6668811045689,
            40.17198929468158
          ],
          [
            -116.67160398639537,
            40.16839598866494
          ],
          [
            -116.677425224845,
            40.164134912668125
          ],
          [
            -116.67992021290165,
            40.15771497168247
          ],
          [
            -116.68105686919696,
            40.15455999972061
          ],
          [
            -116.68336854344344,
            40.15004337395581
          ],
          [
            -116.68498575080505,
            40.14544286088675
          ],
          [
            -116.68579462532789,
            40.14263566424623
          ]
        ]
      },
      "properties": {
        "fault_name": "Cortez Mountains fault zone",
        "age": "middle and late Quaternary",
        "slip_rate": "Less than 0.2 mm/yr"
      }
    },
    {
      "type": "Feature",
      "geometry": {
        "type": "LineString",
        "coordinates": [
          [
            -116.77337546881294,
            40.15531158493139
          ],
          [
            -116.77725113781685,
            40.15441881416116
          ],
          [
            -116.77918174761815,
            40.1539571490026
          ],
          [
            -116.78145515004026,
            40.15365603987516
          ],
          [
            -116.78356854544232,
            40.15312937771201
          ],
          [
            -116.78559804718,
            40.152759381053734
          ],
          [
            -116.78743698660148,
            40.152096051819775
          ],
          [
            -116.78871869206905,
            40.15190105311068
          ]
        ]
      },
      "properties": {
        "fault_name": "Cortez Mountains fault zone",
        "age": "undifferentiated Quaternary",
        "slip_rate": "Less than 0.2 mm/yr"
      }
    },
    {
      "type": "Feature",
      "geometry": {
        "type": "LineString",
        "coordinates": [
          [
            -116.75948953033996,
            40.159896548911135
          ],
          [
            -116.7625340663649,
            40.15929044193199
          ],
          [
            -116.76457856278128,
            40.15834822728481
          ],
          [
            -116.76640971740251,
            40.157344903202926
          ],
          [
            -116.76797363939642,
            40.156265466754
          ],
          [
            -116.76986590281315,
            40.154868815202974
          ],
          [
            -116.76988867780058,
            40.15472770375045
          ]
        ]
      },
      "properties": {
        "fault_name": "Cortez Mountains fault zone",
        "age": "undifferentiated Quaternary",
        "slip_rate": "Less than 0.2 mm/yr"
      }
    },
    {
      "type": "Feature",
      "geometry": {
        "type": "LineString",
        "coordinates": [
          [
            -116.72708559214102,
            40.117695314949536
          ],
          [
            -116.73069456481184,
            40.11552088930468
          ],
          [
            -116.7359513711072,
            40.11353701598329
          ],
          [
            -116.74019370635895,
            40.11197314020784
          ],
          [
            -116.7438710237549,
            40.11041315213105
          ],
          [
            -116.74954728579577,
            40.108375946202855
          ],
          [
            -116.75251514072976,
            40.1072659549097
          ],
          [
            -116.75462130289714,
            40.10630096424149
          ],
          [
            -116.75911473344048,
            40.103748762857926
          ],
          [
            -116.76061809730614,
            40.102653774087514
          ],
          [
            -116.76181589024472,
            40.10123878733099
          ]
        ]
      },
      "properties": {
        "fault_name": "Cortez Mountains fault zone",
        "age": "undifferentiated Quaternary",
        "slip_rate": "Less than 0.2 mm/yr"
      }
    },
    {
      "type": "Feature",
      "geometry": {
        "type": "LineString",
        "coordinates": [
          [
            -116.74274914205107,
            40.09899604128992
          ],
          [
            -116.74471030355518,
            40.09817160178917
          ],
          [
            -116.74705256184383,
            40.095684402706354
          ],
          [
            -116.74785311886546,
            40.094143308106545
          ],
          [
            -116.74889868419432,
            40.09254499127651
          ],
          [
            -116.7505848094062,
            40.08997779026205
          ],
          [
            -116.75303374712644,
            40.088341139315204
          ],
          [
            -116.75596381263136,
            40.08679670804026
          ],
          [
            -116.75835942096643,
            40.08555283124725
          ],
          [
            -116.7610600387815,
            40.08437395224416
          ],
          [
            -116.76096114415019,
            40.08414173297447
          ]
        ]
      },
      "properties": {
        "fault_name": "Cortez Mountains fault zone",
        "age": "undifferentiated Quaternary",
        "slip_rate": "Less than 0.2 mm/yr"
      }
    },
    {
      "type": "Feature",
      "geometry": {
        "type": "LineString",
        "coordinates": [
          [
            -116.74159726919316,
            40.12384802332168
          ],
          [
            -116.75432365960246,
            40.11548642881373
          ]
        ]
      },
      "properties": {
        "fault_name": "Cortez Mountains fault zone",
        "age": "undifferentiated Quaternary",
        "slip_rate": "Less than 0.2 mm/yr"
      }
    },
    {
      "type": "Feature",
      "geometry": {
        "type": "LineString",
        "coordinates": [
          [
            -116.72574987456868,
            40.073979069989626
          ],
          [
            -116.72814550805657,
            40.07394851421874
          ],
          [
            -116.7310067257798,
            40.07490628067725
          ],
          [
            -116.73304404016548,
            40.07672181784627
          ],
          [
            -116.73572970103106,
            40.0779962491119
          ],
          [
            -116.73898758334273,
            40.07793902476426
          ],
          [
            -116.74364939859451,
            40.07786624669627
          ],
          [
            -116.74787618760197,
            40.07708458417169
          ],
          [
            -116.75017236680813,
            40.07680180769941
          ],
          [
            -116.75255298495605,
            40.07615736877333
          ],
          [
            -116.75391857690151,
            40.075775706791966
          ]
        ]
      },
      "properties": {
        "fault_name": "Cortez Mountains fault zone",
        "age": "undifferentiated Quaternary",
        "slip_rate": "Less than 0.2 mm/yr"
      }
    },
    {
      "type": "Feature",
      "geometry": {
        "type": "LineString",
        "coordinates": [
          [
            -116.72580379414696,
            40.111763706065794
          ],
          [
            -116.72836773688482,
            40.11001260999323
          ],
          [
            -116.73083945228737,
            40.10796429604777
          ],
          [
            -116.73392951133768,
            40.10527098618679
          ],
          [
            -116.7362184357496,
            40.10287934080099
          ],
          [
            -116.73789678334774,
            40.10022047583024
          ],
          [
            -116.73880454711204,
            40.09743161473782
          ],
          [
            -116.73937674340529,
            40.09462441905895
          ],
          [
            -116.7402922731052,
            40.091057230318285
          ],
          [
            -116.74158171306739,
            40.088127814000465
          ],
          [
            -116.74404618086226,
            40.0845150702604
          ],
          [
            -116.74569399023233,
            40.083168970084365
          ],
          [
            -116.74701401064343,
            40.081913981722984
          ],
          [
            -116.74872293240227,
            40.08035344118776
          ],
          [
            -116.75030240064044,
            40.07865956811819
          ]
        ]
      },
      "properties": {
        "fault_name": "Cortez Mountains fault zone",
        "age": "undifferentiated Quaternary",
        "slip_rate": "Less than 0.2 mm/yr"
      }
    },
    {
      "type": "Feature",
      "geometry": {
        "type": "LineString",
        "coordinates": [
          [
            -116.70682883221579,
            40.08159734012327
          ],
          [
            -116.70978114719367,
            40.08147511894627
          ],
          [
            -116.71265012456435,
            40.08137567287536
          ],
          [
            -116.71506853483628,
            40.08125400597561
          ],
          [
            -116.71760138688214,
            40.08076956522928
          ],
          [
            -116.72036368032965,
            40.07970512968938
          ],
          [
            -116.72298820455195,
            40.07940013112603
          ],
          [
            -116.72788615994246,
            40.08077289124204
          ],
          [
            -116.73029736213253,
            40.08175343726777
          ],
          [
            -116.7321741035595,
            40.08271842691796
          ],
          [
            -116.73389083976302,
            40.0835311962043
          ],
          [
            -116.73633259635086,
            40.08432840771539
          ],
          [
            -116.73899546156778,
            40.084461738746036
          ],
          [
            -116.74102496689869,
            40.08414174190938
          ],
          [
            -116.7410477427844,
            40.08397729882999
          ]
        ]
      },
      "properties": {
        "fault_name": "Cortez Mountains fault zone",
        "age": "undifferentiated Quaternary",
        "slip_rate": "Less than 0.2 mm/yr"
      }
    },
    {
      "type": "Feature",
      "geometry": {
        "type": "LineString",
        "coordinates": [
          [
            -116.72708585085584,
            40.13449904323522
          ],
          [
            -116.73614994280244,
            40.128502426767284
          ]
        ]
      },
      "properties": {
        "fault_name": "Cortez Mountains fault zone",
        "age": "undifferentiated Quaternary",
        "slip_rate": "Less than 0.2 mm/yr"
      }
    },
    {
      "type": "Feature",
      "geometry": {
        "type": "LineString",
        "coordinates": [
          [
            -116.70153352322903,
            40.07235409932199
          ],
          [
            -116.70344858409106,
            40.072357985305466
          ],
          [
            -116.70611867266119,
            40.072582982200615
          ],
          [
            -116.70872042638764,
            40.072876866936305
          ],
          [
            -116.71165774578853,
            40.07312075220059
          ],
          [
            -116.71444283757964,
            40.07331908194874
          ],
          [
            -116.71802906490744,
            40.073345747263296
          ],
          [
            -116.72056970175356,
            40.07336518995621
          ],
          [
            -116.72218697918373,
            40.073624630866014
          ]
        ]
      },
      "properties": {
        "fault_name": "Cortez Mountains fault zone",
        "age": "undifferentiated Quaternary",
        "slip_rate": "Less than 0.2 mm/yr"
      }
    },
    {
      "type": "Feature",
      "geometry": {
        "type": "LineString",
        "coordinates": [
          [
            -116.6940496990212,
            40.12960078114747
          ],
          [
            -116.69740646069282,
            40.12862411977778
          ],
          [
            -116.70008486856082,
            40.12788801505729
          ],
          [
            -116.70414387922266,
            40.127220240719986
          ],
          [
            -116.70751620600322,
            40.12679302132992
          ],
          [
            -116.71040740230411,
            40.12618691292514
          ],
          [
            -116.71344415442712,
            40.12523692029999
          ],
          [
            -116.71622922555702,
            40.12413081727372
          ],
          [
            -116.7188003952413,
            40.12240249831436
          ],
          [
            -116.71900595313453,
            40.12212416831654
          ]
        ]
      },
      "properties": {
        "fault_name": "Cortez Mountains fault zone",
        "age": "undifferentiated Quaternary",
        "slip_rate": "Less than 0.2 mm/yr"
      }
    },
    {
      "type": "Feature",
      "geometry": {
        "type": "LineString",
        "coordinates": [
          [
            -116.67797339030611,
            40.07676406806264
          ],
          [
            -116.68044513086153,
            40.076394068803815
          ],
          [
            -116.68304687740145,
            40.076111849680295
          ],
          [
            -116.68519083169284,
            40.07595129498133
          ],
          [
            -116.68867760204397,
            40.075409631277914
          ],
          [
            -116.69123378243944,
            40.074513526706504
          ],
          [
            -116.69400330463003,
            40.073884085910436
          ],
          [
            -116.69671171443188,
            40.073144093269775
          ]
        ]
      },
      "properties": {
        "fault_name": "Cortez Mountains fault zone",
        "age": "undifferentiated Quaternary",
        "slip_rate": "Less than 0.2 mm/yr"
      }
    },
    {
      "type": "Feature",
      "geometry": {
        "type": "LineString",
        "coordinates": [
          [
            -116.75911112760292,
            40.372929749177885
          ],
          [
            -116.7588816538619,
            40.37072478683952
          ],
          [
            -116.75858439594451,
            40.36848149114175
          ],
          [
            -116.75820270088197,
            40.366810964127986
          ],
          [
            -116.75760765593947,
            40.36467822300797
          ],
          [
            -116.75766874137878,
            40.36194715672785
          ],
          [
            -116.75901153677727,
            40.35909386823979
          ],
          [
            -116.75933206555212,
            40.35553836787831
          ],
          [
            -116.75919482273963,
            40.35400117268898
          ],
          [
            -116.75881312588048,
            40.352486756224764
          ],
          [
            -116.75849254141008,
            40.35067845174975
          ]
        ]
      },
      "properties": {
        "fault_name": "unnamed faults east of Mount Lewis, Shoshone Range",
        "age": "undifferentiated Quaternary",
        "slip_rate": "Less than 0.2 mm/yr"
      }
    },
    {
      "type": "Feature",
      "geometry": {
        "type": "LineString",
        "coordinates": [
          [
            -116.7349175638271,
            40.42883668279944
          ],
          [
            -116.73526088914892,
            40.42699449076489
          ],
          [
            -116.73556643582143,
            40.42515562988911
          ],
          [
            -116.73646643814168,
            40.42251622526563
          ],
          [
            -116.73744311706129,
            40.42078791668924
          ],
          [
            -116.73856480742397,
            40.419357380955304
          ],
          [
            -116.73968649778662,
            40.41809128830274
          ],
          [
            -116.74099097015679,
            40.41668352966791
          ],
          [
            -116.74322658314986,
            40.41506188424026
          ],
          [
            -116.7450649611243,
            40.413444681750896
          ],
          [
            -116.74607220342479,
            40.412105812683954
          ],
          [
            -116.74727777936702,
            40.410377504112724
          ],
          [
            -116.7480711211203,
            40.40872197325564
          ],
          [
            -116.74859778899835,
            40.407204219150415
          ],
          [
            -116.7492611211738,
            40.40499536526793
          ],
          [
            -116.74977222663786,
            40.402790399681145
          ],
          [
            -116.75097779988513,
            40.40065043026813
          ],
          [
            -116.75197726277528,
            40.39912434229603
          ],
          [
            -116.75331285009194,
            40.397606583853076
          ],
          [
            -116.7547623240237,
            40.39573327625912
          ],
          [
            -116.7557923458032,
            40.394192188128415
          ],
          [
            -116.75707402432134,
            40.391041122846424
          ],
          [
            -116.75750123971426,
            40.389019489679825
          ],
          [
            -116.75792845959879,
            40.38724951668966
          ],
          [
            -116.75828677420941,
            40.38442678482597
          ],
          [
            -116.75859231459371,
            40.381924603767004
          ]
        ]
      },
      "properties": {
        "fault_name": "unnamed faults east of Mount Lewis, Shoshone Range",
        "age": "undifferentiated Quaternary",
        "slip_rate": "Less than 0.2 mm/yr"
      }
    },
    {
      "type": "Feature",
      "geometry": {
        "type": "LineString",
        "coordinates": [
          [
            -116.74122769869201,
            40.42168066994642
          ],
          [
            -116.74324941113785,
            40.4196473627878
          ],
          [
            -116.74552278661052,
            40.41660685127858
          ],
          [
            -116.74777339068906,
            40.41413521870882
          ]
        ]
      },
      "properties": {
        "fault_name": "unnamed faults east of Mount Lewis, Shoshone Range",
        "age": "undifferentiated Quaternary",
        "slip_rate": "Less than 0.2 mm/yr"
      }
    },
    {
      "type": "Feature",
      "geometry": {
        "type": "LineString",
        "coordinates": [
          [
            -116.94046986142511,
            40.0308427730997
          ],
          [
            -116.94045419390825,
            40.025861156796836
          ],
          [
            -116.9403930357054,
            40.02379340071787
          ],
          [
            -116.93995796364699,
            40.021111762271715
          ]
        ]
      },
      "properties": {
        "fault_name": "Central Carico Lake Valley fault group",
        "age": "late Quaternary",
        "slip_rate": "Less than 0.2 mm/yr"
      }
    },
    {
      "type": "Feature",
      "geometry": {
        "type": "LineString",
        "coordinates": [
          [
            -116.93033734741556,
            40.03072833180992
          ],
          [
            -116.9320539910926,
            40.027497810190106
          ],
          [
            -116.93326726110521,
            40.02296563409544
          ],
          [
            -116.93390777337753,
            40.02020399565657
          ]
        ]
      },
      "properties": {
        "fault_name": "Central Carico Lake Valley fault group",
        "age": "late Quaternary",
        "slip_rate": "Less than 0.2 mm/yr"
      }
    },
    {
      "type": "Feature",
      "geometry": {
        "type": "LineString",
        "coordinates": [
          [
            -116.92059437255759,
            40.03455829430084
          ],
          [
            -116.92140320306302,
            40.03071333277678
          ],
          [
            -116.92191424923826,
            40.0270628162897
          ],
          [
            -116.92152530477136,
            40.02497617119521
          ],
          [
            -116.92099081795712,
            40.02374007325828
          ]
        ]
      },
      "properties": {
        "fault_name": "Central Carico Lake Valley fault group",
        "age": "late Quaternary",
        "slip_rate": "Less than 0.2 mm/yr"
      }
    },
    {
      "type": "Feature",
      "geometry": {
        "type": "LineString",
        "coordinates": [
          [
            -116.92121241706633,
            40.0202228880208
          ],
          [
            -116.92094514581143,
            40.018346238161485
          ],
          [
            -116.92070843524247,
            40.01658014575936
          ],
          [
            -116.92099064458225,
            40.0156529340078
          ]
        ]
      },
      "properties": {
        "fault_name": "Central Carico Lake Valley fault group",
        "age": "late Quaternary",
        "slip_rate": "Less than 0.2 mm/yr"
      }
    },
    {
      "type": "Feature",
      "geometry": {
        "type": "LineString",
        "coordinates": [
          [
            -116.90898277255128,
            40.05360143467562
          ],
          [
            -116.90921940137353,
            40.051396455809105
          ],
          [
            -116.90780759559826,
            40.046887616293944
          ],
          [
            -116.90670141824224,
            40.04512485470682
          ]
        ]
      },
      "properties": {
        "fault_name": "Central Carico Lake Valley fault group",
        "age": "late Quaternary",
        "slip_rate": "Less than 0.2 mm/yr"
      }
    },
    {
      "type": "Feature",
      "geometry": {
        "type": "LineString",
        "coordinates": [
          [
            -116.89791921942842,
            40.03170110622929
          ],
          [
            -116.89727079389678,
            40.028172808990924
          ],
          [
            -116.89710294368594,
            40.024911175842064
          ],
          [
            -116.89733182004728,
            40.023946185265125
          ]
        ]
      },
      "properties": {
        "fault_name": "Central Carico Lake Valley fault group",
        "age": "late Quaternary",
        "slip_rate": "Less than 0.2 mm/yr"
      }
    },
    {
      "type": "Feature",
      "geometry": {
        "type": "LineString",
        "coordinates": [
          [
            -116.61376417906138,
            40.1993863169547
          ],
          [
            -116.61223018983108,
            40.19592246166578
          ],
          [
            -116.6093994672168,
            40.19072695529237
          ],
          [
            -116.60704210375663,
            40.18638588467527
          ],
          [
            -116.60421135778616,
            40.179305953981405
          ],
          [
            -116.60143394659072,
            40.17247768471743
          ],
          [
            -116.59856543095408,
            40.166225523244556
          ],
          [
            -116.59606247933246,
            40.15953447402411
          ],
          [
            -116.59359843105085,
            40.15392674929915
          ],
          [
            -116.59206439241319,
            40.14683570301057
          ],
          [
            -116.58972975632975,
            40.138565223677055
          ],
          [
            -116.58554839512618,
            40.130299190336615
          ],
          [
            -116.58364883918594,
            40.126694225321835
          ]
        ]
      },
      "properties": {
        "fault_name": "Simpson Park Mountains fault zone",
        "age": "latest Quaternary",
        "slip_rate": "Between 0.2 and 1.0 mm/yr"
      }
    },
    {
      "type": "Feature",
      "geometry": {
        "type": "LineString",
        "coordinates": [
          [
            -116.58364883918594,
            40.126694225321835
          ],
          [
            -116.58354161268038,
            40.12648811427626
          ],
          [
            -116.58215318825533,
            40.123238145022086
          ],
          [
            -116.58129865056996,
            40.11847374406093
          ],
          [
            -116.58208417069207,
            40.11406767218022
          ],
          [
            -116.58335082039552,
            40.1098754877717
          ],
          [
            -116.58444189796992,
            40.10487442019848
          ],
          [
            -116.5860213473435,
            40.10137611729661
          ],
          [
            -116.58709691191127,
            40.09964057668374
          ],
          [
            -116.58893582617993,
            40.09719504213341
          ],
          [
            -116.58947747885522,
            40.09488339619931
          ],
          [
            -116.5879590646153,
            40.09259119415803
          ],
          [
            -116.5858300834431,
            40.09084787816316
          ],
          [
            -116.58515113495471,
            40.08808234895632
          ],
          [
            -116.58489941982559,
            40.085095153280776
          ],
          [
            -116.58508995519229,
            40.0832451700984
          ]
        ]
      },
      "properties": {
        "fault_name": "Simpson Park Mountains fault zone",
        "age": "latest Quaternary",
        "slip_rate": "Between 0.2 and 1.0 mm/yr"
      }
    },
    {
      "type": "Feature",
      "geometry": {
        "type": "LineString",
        "coordinates": [
          [
            -116.58508995519229,
            40.0832451700984
          ],
          [
            -116.58514328278083,
            40.08266128832947
          ],
          [
            -116.58500601840876,
            40.07989964406369
          ],
          [
            -116.58459430793764,
            40.07773688465705
          ],
          [
            -116.58409037192787,
            40.07550524012717
          ],
          [
            -116.58369366961018,
            40.073914698764746
          ]
        ]
      },
      "properties": {
        "fault_name": "Simpson Park Mountains fault zone",
        "age": "latest Quaternary",
        "slip_rate": "Between 0.2 and 1.0 mm/yr"
      }
    },
    {
      "type": "Feature",
      "geometry": {
        "type": "LineString",
        "coordinates": [
          [
            -116.58508995519229,
            40.0832451700984
          ],
          [
            -116.58184759936199,
            40.08120407831605
          ],
          [
            -116.5790930440023,
            40.07948020787561
          ],
          [
            -116.57728463831735,
            40.07838132925604
          ],
          [
            -116.5757134606309,
            40.07719133913849
          ]
        ]
      },
      "properties": {
        "fault_name": "Simpson Park Mountains fault zone",
        "age": "latest Quaternary",
        "slip_rate": "Between 0.2 and 1.0 mm/yr"
      }
    },
    {
      "type": "Feature",
      "geometry": {
        "type": "LineString",
        "coordinates": [
          [
            -116.57580428389939,
            40.05593986315912
          ],
          [
            -116.57556036614693,
            40.054352655675004
          ],
          [
            -116.57392750204825,
            40.05178545728553
          ],
          [
            -116.57223352466247,
            40.04926047967139
          ],
          [
            -116.5704939982002,
            40.04731883221257
          ],
          [
            -116.56948724188824,
            40.0430577589544
          ],
          [
            -116.56929608309073,
            40.03992945389998
          ],
          [
            -116.56904436796161,
            40.03705725731369
          ]
        ]
      },
      "properties": {
        "fault_name": "Simpson Park Mountains fault zone",
        "age": "latest Quaternary",
        "slip_rate": "Between 0.2 and 1.0 mm/yr"
      }
    },
    {
      "type": "Feature",
      "geometry": {
        "type": "LineString",
        "coordinates": [
          [
            -116.56514544157497,
            40.043354979919705
          ],
          [
            -116.5647792972483,
            40.04172610630562
          ],
          [
            -116.5629330976427,
            40.039502237281845
          ],
          [
            -116.5616663509212,
            40.03654615267601
          ],
          [
            -116.56160521337961,
            40.03466172574109
          ],
          [
            -116.56177295399596,
            40.031537308985094
          ],
          [
            -116.5603006619577,
            40.02982454578858
          ],
          [
            -116.55839335265826,
            40.02787512013425
          ],
          [
            -116.55798108433333,
            40.025319586726454
          ],
          [
            -116.55766825861205,
            40.0225118351419
          ],
          [
            -116.55755378360045,
            40.02048629774836
          ],
          [
            -116.55758431374369,
            40.018514091662354
          ],
          [
            -116.55794315925867,
            40.01444746222143
          ],
          [
            -116.55902649425366,
            40.01204803772238
          ],
          [
            -116.5590947985546,
            40.00977083622791
          ],
          [
            -116.5586980773723,
            40.00671141929511
          ],
          [
            -116.55829358396616,
            40.00385811086719
          ],
          [
            -116.55806465819748,
            40.001752575038566
          ],
          [
            -116.55820185968746,
            39.99992147933023
          ]
        ]
      },
      "properties": {
        "fault_name": "Simpson Park Mountains fault zone",
        "age": "latest Quaternary",
        "slip_rate": "Between 0.2 and 1.0 mm/yr"
      }
    }
  ]
}