{
  "type": "FeatureCollection",
  "features": [
    {
      "type": "Feature",
      "geometry": {
        "type": "LineString",
        "coordinates": [
          [
            -109.59023034030221,
            31.83105502733509
          ],
          [
            -109.58740033903509,
            31.82778502702801
          ],
          [
            -109.5846303380424,
            31.824415025628358
          ],
          [
            -109.5823403383471,
            31.82103502566261
          ],
          [
            -109.57974033633543,
            31.817405024666968
          ],
          [
            -109.57701033642405,
            31.81445502489775
          ],
          [
            -109.57475033596765,
            31.81165502510601
          ],
          [
            -109.57234033572341,
            31.809125024294406
          ],
          [
            -109.57014033374482,
            31.806085023746462
          ],
          [
            -109.56834033359596,
            31.803885024202597
          ],
          [
            -109.56634033343055,
            31.80152502393499
          ],
          [
            -109.56434033326512,
            31.799155023663708
          ],
          [
            -109.56195033311239,
            31.796795021697278
          ],
          [
            -109.56014033201944,
            31.794935023181615
          ],
          [
            -109.55734033088957,
            31.79189502305287
          ],
          [
            -109.55545033032902,
            31.78983502271947
          ],
          [
            -109.55242032994366,
            31.78714502237458
          ],
          [
            -109.54952032925465,
            31.783365021277522
          ],
          [
            -109.54683032772962,
            31.780275019722048
          ],
          [
            -109.54441032833796,
            31.777635021154296
          ],
          [
            -109.54326032756912,
            31.775755020712513
          ]
        ]
      },
      "properties": {
        "fault_name": "North Swisshelm fault",
        "age": "undifferentiated Quaternary",
        "slip_rate": "Less than 0.2 mm/yr"
      }
    }
  ]
}