{
  "type": "FeatureCollection",
  "features": [
    {
      "type": "Feature",
      "geometry": {
        "type": "LineString",
        "coordinates": [
          [
            -108.16356573765027,
            42.47493787780704
          ],
          [
            -108.1597200238678,
            42.473758928210565
          ],
          [
            -108.15363921721682,
            42.471927714196255
          ],
          [
            -108.15333420414358,
            42.47151937406065
          ],
          [
            -108.14603223667851,
            42.46921925329667
          ],
          [
            -108.13332893297199,
            42.46561015928022
          ],
          [
            -108.12040451075494,
            42.462054954829526
          ],
          [
            -108.10847901693047,
            42.4585069911402
          ],
          [
            -108.09608072360228,
            42.455634581817016
          ],
          [
            -108.08676478177922,
            42.45359721984698
          ],
          [
            -108.07729661144815,
            42.45115541221042
          ],
          [
            -108.0688962622071,
            42.44969473383292
          ],
          [
            -108.05678798188355,
            42.447798450204914
          ],
          [
            -108.04227626800049,
            42.44638657927623
          ],
          [
            -108.03138859333217,
            42.44547087029359
          ],
          [
            -108.02011145856399,
            42.445062936958585
          ],
          [
            -108.01229113533222,
            42.445207829102834
          ],
          [
            -108.00756871613812,
            42.44549720868936
          ],
          [
            -108.00361633100894,
            42.44602771026454
          ],
          [
            -108.00020563897922,
            42.44627544617874
          ]
        ]
      },
      "properties": {
        "fault_name": "Split Rock syncline",
        "age": "class B",
        "slip_rate": "Less than 0.2 mm/yr"
      }
    },
    {
      "type": "Feature",
      "geometry": {
        "type": "LineString",
        "coordinates": [
          [
            -108.00022119241004,
            42.44552044477575
          ],
          [
            -107.99191259260053,
            42.445794892843146
          ],
          [
            -107.98431346064287,
            42.446012118025195
          ],
          [
            -107.97018300793604,
            42.44702712281528
          ],
          [
            -107.95621311471325,
            42.44826324005818
          ],
          [
            -107.93339293936123,
            42.45057102616775
          ],
          [
            -107.911412233354,
            42.45362269981586
          ],
          [
            -107.88882094963468,
            42.45655604018934
          ],
          [
            -107.87141761095434,
            42.45977938121648
          ],
          [
            -107.84888743782717,
            42.463907166732646
          ],
          [
            -107.82480054629639,
            42.46796606374621
          ],
          [
            -107.80662662378215,
            42.47072384781643
          ],
          [
            -107.78518704044421,
            42.47226496520104
          ],
          [
            -107.76383190143791,
            42.474081083020785
          ],
          [
            -107.74907641982107,
            42.47443553686928
          ],
          [
            -107.73028410335345,
            42.474939505086056
          ],
          [
            -107.70770832186099,
            42.47290626578772
          ],
          [
            -107.68141629807303,
            42.47011415191808
          ],
          [
            -107.6598549930141,
            42.467729795290886
          ],
          [
            -107.63421187086489,
            42.461542675147086
          ],
          [
            -107.61385559108088,
            42.45537830919675
          ],
          [
            -107.59072253880362,
            42.44770672885186
          ],
          [
            -107.57208352702575,
            42.441424016221454
          ],
          [
            -107.55384063455898,
            42.43434408108452
          ],
          [
            -107.53737613596184,
            42.42835524931775
          ],
          [
            -107.51618812941246,
            42.422053102200366
          ],
          [
            -107.49229224127063,
            42.41487040791355
          ],
          [
            -107.47179094195877,
            42.410113265823
          ],
          [
            -107.43899863241812,
            42.4027472801659
          ],
          [
            -107.40425347438301,
            42.39639574420899
          ],
          [
            -107.37338345624413,
            42.391208080105685
          ],
          [
            -107.34290289191686,
            42.38618430278861
          ],
          [
            -107.31288012073654,
            42.3819005220608
          ],
          [
            -107.28246844371687,
            42.37777674131096
          ],
          [
            -107.25600857959952,
            42.37453849983313
          ]
        ]
      },
      "properties": {
        "fault_name": "Split Rock syncline",
        "age": "class B",
        "slip_rate": "Less than 0.2 mm/yr"
      }
    },
    {
      "type": "Feature",
      "geometry": {
        "type": "LineString",
        "coordinates": [
          [
            -108.15705714068456,
            42.44588483185859
          ],
          [
            -108.15689713366449,
            42.4458887183263
          ],
          [
            -108.15217416020984,
            42.44641865579405
          ],
          [
            -108.14799343142028,
            42.44660582217995
          ],
          [
            -108.14265987576198,
            42.44638074597507
          ],
          [
            -108.13817413300083,
            42.44628123772849
          ],
          [
            -108.13386284396618,
            42.445548952769904
          ],
          [
            -108.12993379167818,
            42.44448445018993
          ],
          [
            -108.12641642381017,
            42.442622723712766
          ],
          [
            -108.1216784493886,
            42.43965875832906
          ],
          [
            -108.11890111095671,
            42.43489758628683
          ],
          [
            -108.11494928098635,
            42.430274178306185
          ],
          [
            -108.1124158414423,
            42.42862635978649
          ],
          [
            -108.10643448098821,
            42.42778683220286
          ],
          [
            -108.09565347766662,
            42.427146131749794
          ],
          [
            -108.08898486559599,
            42.426642152815
          ],
          [
            -108.08394965571492,
            42.42698931013674
          ],
          [
            -108.07520595959248,
            42.4275275287894
          ],
          [
            -108.06700395117963,
            42.4276718667063
          ],
          [
            -108.05929029659964,
            42.42684398530858
          ],
          [
            -108.05435398134988,
            42.42650836619527
          ],
          [
            -108.04113898557944,
            42.42585207730142
          ],
          [
            -108.0270545104455,
            42.42617245021049
          ]
        ]
      },
      "properties": {
        "fault_name": "South Granite Mountains fault system",
        "age": "undifferentiated Quaternary",
        "slip_rate": "Less than 0.2 mm/yr"
      }
    },
    {
      "type": "Feature",
      "geometry": {
        "type": "LineString",
        "coordinates": [
          [
            -108.0270545104455,
            42.42617245021049
          ],
          [
            -108.02072202190305,
            42.42254847217418
          ],
          [
            -108.01480899719095,
            42.420770613994996
          ],
          [
            -108.01058993010167,
            42.41918000278436
          ],
          [
            -108.00704978185637,
            42.418340511838146
          ],
          [
            -108.00188456688905,
            42.4174821123171
          ],
          [
            -108.0003433938314,
            42.41735654221034
          ],
          [
            -107.9998778230708,
            42.41757376384578
          ]
        ]
      },
      "properties": {
        "fault_name": "South Granite Mountains fault system",
        "age": "undifferentiated Quaternary",
        "slip_rate": "Less than 0.2 mm/yr"
      }
    },
    {
      "type": "Feature",
      "geometry": {
        "type": "LineString",
        "coordinates": [
          [
            -108.0270545104455,
            42.42617245021049
          ],
          [
            -108.0255972283573,
            42.426202984786194
          ],
          [
            -108.01924974244119,
            42.426649013081516
          ],
          [
            -108.01266502403494,
            42.42714503767002
          ],
          [
            -108.00724813166774,
            42.42736996614809
          ],
          [
            -108.00477580630908,
            42.427236600809806
          ],
          [
            -108.00346353027406,
            42.42733158330248
          ],
          [
            -108.00214347482866,
            42.427377677724834
          ],
          [
            -107.99927503644716,
            42.42780099210117
          ],
          [
            -107.99888613599772,
            42.42785432625279
          ]
        ]
      },
      "properties": {
        "fault_name": "South Granite Mountains fault system",
        "age": "undifferentiated Quaternary",
        "slip_rate": "Less than 0.2 mm/yr"
      }
    },
    {
      "type": "Feature",
      "geometry": {
        "type": "LineString",
        "coordinates": [
          [
            -108.0005339570459,
            42.41778709718157
          ],
          [
            -107.99998449441753,
            42.41795876379468
          ],
          [
            -107.99859611580658,
            42.41801987475401
          ],
          [
            -107.99727607563254,
            42.418359318724065
          ],
          [
            -107.99594825425152,
            42.41904598802777
          ],
          [
            -107.99314816867998,
            42.42167432307493
          ],
          [
            -107.98938694055167,
            42.4259621047801
          ]
        ]
      },
      "properties": {
        "fault_name": "South Granite Mountains fault system",
        "age": "undifferentiated Quaternary",
        "slip_rate": "Less than 0.2 mm/yr"
      }
    },
    {
      "type": "Feature",
      "geometry": {
        "type": "LineString",
        "coordinates": [
          [
            -108.00027451191373,
            42.42667154732113
          ],
          [
            -107.99592548465401,
            42.42666432501335
          ],
          [
            -107.99073753961505,
            42.42603099328465
          ],
          [
            -107.98938694055167,
            42.4259621047801
          ]
        ]
      },
      "properties": {
        "fault_name": "South Granite Mountains fault system",
        "age": "undifferentiated Quaternary",
        "slip_rate": "Less than 0.2 mm/yr"
      }
    },
    {
      "type": "Feature",
      "geometry": {
        "type": "LineString",
        "coordinates": [
          [
            -107.98938694055167,
            42.4259621047801
          ],
          [
            -107.98561793211469,
            42.42579043885943
          ],
          [
            -107.980185535724,
            42.4254398851483
          ],
          [
            -107.97561538905539,
            42.424459331190576
          ],
          [
            -107.97142692217797,
            42.423074331230794
          ],
          [
            -107.9691835162998,
            42.42226988780478
          ],
          [
            -107.96523172316037,
            42.42111766589697
          ],
          [
            -107.96182105897844,
            42.41991211113053
          ],
          [
            -107.95995933199313,
            42.41938933312305
          ],
          [
            -107.95755592178983,
            42.418928223196104
          ],
          [
            -107.95654922297004,
            42.418809889809225
          ]
        ]
      },
      "properties": {
        "fault_name": "South Granite Mountains fault system",
        "age": "undifferentiated Quaternary",
        "slip_rate": "Less than 0.2 mm/yr"
      }
    },
    {
      "type": "Feature",
      "geometry": {
        "type": "LineString",
        "coordinates": [
          [
            -107.96491115755462,
            42.424844335279516
          ],
          [
            -107.95955487811288,
            42.42580600430243
          ],
          [
            -107.95567142071545,
            42.42574489430065
          ],
          [
            -107.94962122775102,
            42.425332676245134
          ],
          [
            -107.94287656610507,
            42.42497823088364
          ],
          [
            -107.93760473368995,
            42.424966566262555
          ],
          [
            -107.93349237926991,
            42.424844345226035
          ],
          [
            -107.92915112872558,
            42.42420768022532
          ],
          [
            -107.92449709108755,
            42.42385268077161
          ],
          [
            -107.91542513618725,
            42.423551572149215
          ],
          [
            -107.90922216135259,
            42.42279601975287
          ],
          [
            -107.90488868842198,
            42.42112157578457
          ],
          [
            -107.90070022244285,
            42.41996546525671
          ],
          [
            -107.89652675743066,
            42.41795157828422
          ],
          [
            -107.8913382581312,
            42.41605157773486
          ],
          [
            -107.88824093710015,
            42.41386991279307
          ],
          [
            -107.88553973987172,
            42.41173713379869
          ],
          [
            -107.88283132288338,
            42.40978435625299
          ],
          [
            -107.8807484773875,
            42.40812102299121
          ],
          [
            -107.87958899669745,
            42.40702602329133
          ],
          [
            -107.87897842168032,
            42.405877690811884
          ],
          [
            -107.87874952555603,
            42.405023245185106
          ]
        ]
      },
      "properties": {
        "fault_name": "South Granite Mountains fault system",
        "age": "undifferentiated Quaternary",
        "slip_rate": "Less than 0.2 mm/yr"
      }
    },
    {
      "type": "Feature",
      "geometry": {
        "type": "LineString",
        "coordinates": [
          [
            -107.8840063552076,
            42.424573807238616
          ],
          [
            -107.87934454085415,
            42.425592143238596
          ],
          [
            -107.87616332705703,
            42.42638547579467
          ],
          [
            -107.87266877100733,
            42.427183256186474
          ],
          [
            -107.86971589907395,
            42.427400478259074
          ],
          [
            -107.86521464510281,
            42.427392703692874
          ],
          [
            -107.86274289915752,
            42.426237147766194
          ],
          [
            -107.85856165473498,
            42.42445159273055
          ],
          [
            -107.85476986861565,
            42.423181593066865
          ],
          [
            -107.84911635640935,
            42.42191103982224
          ]
        ]
      },
      "properties": {
        "fault_name": "South Granite Mountains fault system",
        "age": "undifferentiated Quaternary",
        "slip_rate": "Less than 0.2 mm/yr"
      }
    },
    {
      "type": "Feature",
      "geometry": {
        "type": "LineString",
        "coordinates": [
          [
            -107.84911635640935,
            42.42191103982224
          ],
          [
            -107.84527845527491,
            42.42158715172822
          ]
        ]
      },
      "properties": {
        "fault_name": "South Granite Mountains fault system",
        "age": "class B",
        "slip_rate": "Less than 0.2 mm/yr"
      }
    },
    {
      "type": "Feature",
      "geometry": {
        "type": "LineString",
        "coordinates": [
          [
            -107.84527845527491,
            42.42158715172822
          ],
          [
            -107.84523234205642,
            42.42149937481499
          ],
          [
            -107.84314949925553,
            42.420343263295386
          ],
          [
            -107.83362808757417,
            42.41636826628649
          ],
          [
            -107.82131380738629,
            42.414213268322136
          ],
          [
            -107.81031179335199,
            42.4121149389638
          ],
          [
            -107.80140040242728,
            42.41077216420564
          ],
          [
            -107.79264901403106,
            42.40885716711626
          ],
          [
            -107.78250147030849,
            42.406931059784775
          ],
          [
            -107.76979829416275,
            42.4043138409404
          ],
          [
            -107.7593457427568,
            42.40255939972177
          ],
          [
            -107.7539211266748,
            42.402024956763725
          ],
          [
            -107.74640587131348,
            42.40039219575341
          ],
          [
            -107.74199571100372,
            42.39946165575375
          ],
          [
            -107.73541158279063,
            42.398355569703696
          ],
          [
            -107.73085641732601,
            42.39814558670832
          ],
          [
            -107.72642403359444,
            42.397340605248004
          ],
          [
            -107.7233261439298,
            42.39687561619249
          ],
          [
            -107.71519306774029,
            42.39621564573447
          ],
          [
            -107.71216406807815,
            42.396142878708396
          ],
          [
            -107.70394654576037,
            42.39622679891053
          ],
          [
            -107.69887302722398,
            42.396429041101364
          ]
        ]
      },
      "properties": {
        "fault_name": "South Granite Mountains fault system",
        "age": "class B",
        "slip_rate": "Less than 0.2 mm/yr"
      }
    },
    {
      "type": "Feature",
      "geometry": {
        "type": "LineString",
        "coordinates": [
          [
            -107.84527845527491,
            42.42158715172822
          ],
          [
            -107.84275281939571,
            42.42137326499948
          ],
          [
            -107.83770988130826,
            42.421766044073685
          ],
          [
            -107.83398642913427,
            42.42135437678818
          ],
          [
            -107.83073632623295,
            42.42117104817562
          ],
          [
            -107.82343498040206,
            42.42201049326875
          ],
          [
            -107.81279908643991,
            42.42369994167695
          ],
          [
            -107.8085339492513,
            42.42391383306776
          ],
          [
            -107.79975977957947,
            42.424577724867945
          ],
          [
            -107.79518963380919,
            42.42432939323574
          ],
          [
            -107.7885899782164,
            42.42517272822305
          ],
          [
            -107.78214310359554,
            42.42624106529152
          ],
          [
            -107.7781835328424,
            42.42674440028199
          ],
          [
            -107.77088941126304,
            42.427522736085855
          ],
          [
            -107.76599091867999,
            42.42865162513375
          ],
          [
            -107.75984905443745,
            42.43086829481698
          ],
          [
            -107.7551038988835,
            42.43291274176848
          ],
          [
            -107.7502054036055,
            42.43484274583145
          ],
          [
            -107.74739752425057,
            42.43661275770562
          ],
          [
            -107.74397184472866,
            42.43848999301825
          ],
          [
            -107.74147731032126,
            42.43956944680493
          ],
          [
            -107.73984447586696,
            42.44030945529093
          ],
          [
            -107.73604489506593,
            42.44035169180881
          ],
          [
            -107.73364925618814,
            42.43919559118461
          ],
          [
            -107.72954411074825,
            42.437635605863306
          ],
          [
            -107.72451615655972,
            42.43544173776653
          ],
          [
            -107.7167875486235,
            42.43203176678265
          ],
          [
            -107.71106512485512,
            42.428972343113685
          ],
          [
            -107.70689164277496,
            42.42735124882793
          ],
          [
            -107.70240537180442,
            42.425157376140916
          ],
          [
            -107.69916303394042,
            42.42376516498158
          ],
          [
            -107.69645460257902,
            42.422387952726
          ],
          [
            -107.69304392492236,
            42.422254633155156
          ]
        ]
      },
      "properties": {
        "fault_name": "South Granite Mountains fault system",
        "age": "class B",
        "slip_rate": "Less than 0.2 mm/yr"
      }
    },
    {
      "type": "Feature",
      "geometry": {
        "type": "LineString",
        "coordinates": [
          [
            -107.7127363083889,
            42.4031962142072
          ],
          [
            -107.70875338503163,
            42.40633234131442
          ],
          [
            -107.70377153777333,
            42.40865902820044
          ],
          [
            -107.70011640337503,
            42.41024959918248
          ],
          [
            -107.69508122044343,
            42.40965850675413
          ],
          [
            -107.69035049362955,
            42.41004019124316
          ],
          [
            -107.68623812214153,
            42.4099674303004
          ],
          [
            -107.68142406041541,
            42.41028800575072
          ],
          [
            -107.6780061576089,
            42.41096301794363
          ],
          [
            -107.67382489522005,
            42.410776367232295
          ],
          [
            -107.66667574915114,
            42.41183695025647
          ],
          [
            -107.6644328912453,
            42.41148195769906
          ],
          [
            -107.66017551190747,
            42.410143087257616
          ],
          [
            -107.65514755232903,
            42.4090942161274
          ],
          [
            -107.650500714688,
            42.40792312119487
          ],
          [
            -107.64833396923953,
            42.40734313018538
          ],
          [
            -107.64608333282166,
            42.407732026721206
          ],
          [
            -107.64575554296438,
            42.407793141013094
          ]
        ]
      },
      "properties": {
        "fault_name": "South Granite Mountains fault system",
        "age": "class B",
        "slip_rate": "Less than 0.2 mm/yr"
      }
    },
    {
      "type": "Feature",
      "geometry": {
        "type": "LineString",
        "coordinates": [
          [
            -107.69887302722398,
            42.396429041101364
          ],
          [
            -107.69581347136747,
            42.39510905200754
          ],
          [
            -107.6925711299102,
            42.39337739585943
          ],
          [
            -107.69056438878692,
            42.39210351468001
          ],
          [
            -107.68895433021835,
            42.390321852309185
          ],
          [
            -107.68764983718694,
            42.388544079813144
          ],
          [
            -107.68726815739576,
            42.38739241205047
          ],
          [
            -107.68696314701745,
            42.38664463627119
          ],
          [
            -107.6867114714142,
            42.38587019221775
          ]
        ]
      },
      "properties": {
        "fault_name": "South Granite Mountains fault system",
        "age": "class B",
        "slip_rate": "Less than 0.2 mm/yr"
      }
    },
    {
      "type": "Feature",
      "geometry": {
        "type": "LineString",
        "coordinates": [
          [
            -107.69887302722398,
            42.396429041101364
          ],
          [
            -107.6961873726466,
            42.39653960581654
          ],
          [
            -107.69138053068042,
            42.39738295828625
          ],
          [
            -107.68375858690443,
            42.39975965475114
          ],
          [
            -107.68111904644385,
            42.40043466481027
          ]
        ]
      },
      "properties": {
        "fault_name": "South Granite Mountains fault system",
        "age": "class B",
        "slip_rate": "Less than 0.2 mm/yr"
      }
    },
    {
      "type": "Feature",
      "geometry": {
        "type": "LineString",
        "coordinates": [
          [
            -107.63930807096386,
            42.396185375850706
          ],
          [
            -107.63604295092594,
            42.39428538667023
          ],
          [
            -107.63280782833033,
            42.391863175104724
          ],
          [
            -107.62958048155177,
            42.38875429530741
          ],
          [
            -107.62687926815369,
            42.38690819392687
          ],
          [
            -107.62295023113705,
            42.38436709294283
          ],
          [
            -107.61754058278429,
            42.382513223086036
          ],
          [
            -107.61203982370215,
            42.381739353139835
          ],
          [
            -107.60639350161136,
            42.38085048470249
          ],
          [
            -107.60051105914481,
            42.37973661731841
          ],
          [
            -107.5942319368184,
            42.37935886005024
          ],
          [
            -107.58773169598152,
            42.37881332867747
          ],
          [
            -107.5826959516028,
            42.37810001418228
          ],
          [
            -107.58091810840043,
            42.377771686001225
          ],
          [
            -107.57766798663451,
            42.377161697322116
          ],
          [
            -107.57379228618954,
            42.37737115526818
          ],
          [
            -107.56945101318735,
            42.37683728219186
          ],
          [
            -107.56620811207965,
            42.37595618104772
          ],
          [
            -107.56465916679818,
            42.37578063211512
          ],
          [
            -107.56295021359831,
            42.37571563829851
          ],
          [
            -107.5600128798244,
            42.375010092239755
          ]
        ]
      },
      "properties": {
        "fault_name": "South Granite Mountains fault system",
        "age": "class B",
        "slip_rate": "Less than 0.2 mm/yr"
      }
    },
    {
      "type": "Feature",
      "geometry": {
        "type": "LineString",
        "coordinates": [
          [
            -107.73085641732601,
            42.39814558670832
          ],
          [
            -107.73076530300338,
            42.39798947469941
          ],
          [
            -107.72590512895707,
            42.39401838229462
          ],
          [
            -107.72251000742618,
            42.39229006172057
          ],
          [
            -107.71794706075458,
            42.390035632876334
          ],
          [
            -107.71323966768023,
            42.387899538205325
          ],
          [
            -107.70852449519553,
            42.385816777240485
          ],
          [
            -107.70116977955531,
            42.384412915047626
          ],
          [
            -107.69675183893685,
            42.384565708680064
          ],
          [
            -107.69054161020627,
            42.385515176806585
          ],
          [
            -107.6867114714142,
            42.38587019221775
          ],
          [
            -107.68464361610548,
            42.386064642973125
          ],
          [
            -107.67564050629193,
            42.387289121759956
          ],
          [
            -107.66903359859987,
            42.38990248205635
          ],
          [
            -107.6649134485998,
            42.39090916472912
          ],
          [
            -107.65668092531507,
            42.39253808633081
          ],
          [
            -107.65140128923505,
            42.39349588271513
          ],
          [
            -107.64635054927933,
            42.39444201275983
          ],
          [
            -107.64277986280594,
            42.39488814025067
          ],
          [
            -107.6403842212332,
            42.395464259949854
          ],
          [
            -107.63930807096386,
            42.396185375850706
          ]
        ]
      },
      "properties": {
        "fault_name": "South Granite Mountains fault system",
        "age": "class B",
        "slip_rate": "Less than 0.2 mm/yr"
      }
    },
    {
      "type": "Feature",
      "geometry": {
        "type": "LineString",
        "coordinates": [
          [
            -107.69304392492236,
            42.422254633155156
          ],
          [
            -107.68956491062539,
            42.42087020121632
          ],
          [
            -107.68243854313711,
            42.41906578281665
          ],
          [
            -107.6743054723375,
            42.41811581424414
          ],
          [
            -107.669193619993,
            42.41728805667419
          ],
          [
            -107.66376120294106,
            42.417265298885056
          ],
          [
            -107.65941993622705,
            42.41730698324863
          ],
          [
            -107.65687151008912,
            42.41620476919049
          ],
          [
            -107.65385806475612,
            42.414187001006106
          ],
          [
            -107.65077572942066,
            42.412111456302945
          ],
          [
            -107.64754061041828,
            42.409517577009574
          ],
          [
            -107.64575554296438,
            42.407793141013094
          ],
          [
            -107.64569443057559,
            42.40773591688159
          ],
          [
            -107.6436187949582,
            42.40554647791978
          ],
          [
            -107.64255097835975,
            42.40376870220525
          ],
          [
            -107.64148260121256,
            42.40140759377006
          ],
          [
            -107.64049867378692,
            42.399114819013676
          ],
          [
            -107.63988809517652,
            42.39750870902029
          ],
          [
            -107.63960586158223,
            42.39635704121802
          ]
        ]
      },
      "properties": {
        "fault_name": "South Granite Mountains fault system",
        "age": "class B",
        "slip_rate": "Less than 0.2 mm/yr"
      }
    },
    {
      "type": "Feature",
      "geometry": {
        "type": "LineString",
        "coordinates": [
          [
            -107.6364546389392,
            42.39984372401781
          ],
          [
            -107.63103777441975,
            42.39890152100908
          ],
          [
            -107.62600203273603,
            42.398538760690265
          ],
          [
            -107.622126334986,
            42.39794766405802
          ],
          [
            -107.61639612641737,
            42.39774546324783
          ],
          [
            -107.61245153417326,
            42.396410477079336
          ],
          [
            -107.60688188239368,
            42.394834941261024
          ],
          [
            -107.60038164155677,
            42.393659963778944
          ],
          [
            -107.59520866963696,
            42.39140164718867
          ],
          [
            -107.59320192671701,
            42.390074433315
          ],
          [
            -107.59143185843342,
            42.388513881203316
          ],
          [
            -107.58920399340967,
            42.3866144440462
          ],
          [
            -107.58474826066723,
            42.382124456235495
          ],
          [
            -107.58252039474516,
            42.3803316830955
          ],
          [
            -107.58091088594554,
            42.37809613014776
          ],
          [
            -107.58091810840043,
            42.377771686001225
          ]
        ]
      },
      "properties": {
        "fault_name": "South Granite Mountains fault system",
        "age": "class B",
        "slip_rate": "Less than 0.2 mm/yr"
      }
    },
    {
      "type": "Feature",
      "geometry": {
        "type": "LineString",
        "coordinates": [
          [
            -107.68752631164885,
            42.110629101923635
          ],
          [
            -107.6822849698511,
            42.109346898276286
          ],
          [
            -107.67687529993876,
            42.10972468631045
          ],
          [
            -107.67255678755092,
            42.10988136420451
          ],
          [
            -107.66692599014488,
            42.10917137903631
          ],
          [
            -107.66237135288965,
            42.10903416990476
          ],
          [
            -107.65781616227221,
            42.1090152911803
          ],
          [
            -107.65449713792735,
            42.10940085375749
          ],
          [
            -107.65179646531506,
            42.109099193765466
          ],
          [
            -107.64817242340537,
            42.10897309326552
          ],
          [
            -107.64624178395967,
            42.108736987286925
          ],
          [
            -107.64509006830694,
            42.108668101718116
          ],
          [
            -107.6450061764392,
            42.108668101718116
          ]
        ]
      },
      "properties": {
        "fault_name": "Chicken Springs faults",
        "age": "latest Quaternary",
        "slip_rate": "Less than 0.2 mm/yr"
      }
    },
    {
      "type": "Feature",
      "geometry": {
        "type": "LineString",
        "coordinates": [
          [
            -107.74593952440847,
            42.13520272815647
          ],
          [
            -107.73791307464992,
            42.13454664098153
          ],
          [
            -107.72416472663741,
            42.13472222917137
          ],
          [
            -107.71413929719962,
            42.133486148739436
          ],
          [
            -107.70495279542251,
            42.13258617568503
          ],
          [
            -107.69523237995628,
            42.13129287371257
          ],
          [
            -107.68621420898866,
            42.12976345772621
          ],
          [
            -107.6752654048636,
            42.12811127088185
          ],
          [
            -107.66263095792192,
            42.12479631817824
          ],
          [
            -107.65199493460236,
            42.12228635471168
          ],
          [
            -107.64552464808858,
            42.12059304600948
          ],
          [
            -107.63990161571985,
            42.118735289687045
          ],
          [
            -107.63390467668212,
            42.11647309329498
          ],
          [
            -107.6314406760112,
            42.11571754477541
          ],
          [
            -107.62712215464022,
            42.11501200503167
          ],
          [
            -107.62631323160832,
            42.114885896303434
          ]
        ]
      },
      "properties": {
        "fault_name": "Chicken Springs faults",
        "age": "latest Quaternary",
        "slip_rate": "Less than 0.2 mm/yr"
      }
    },
    {
      "type": "Feature",
      "geometry": {
        "type": "LineString",
        "coordinates": [
          [
            -107.70831696819522,
            42.0865847217274
          ],
          [
            -107.69951992741629,
            42.08610030068021
          ],
          [
            -107.68902171194951,
            42.0868558781915
          ],
          [
            -107.67659286332524,
            42.08795423421576
          ],
          [
            -107.66246283282662,
            42.08897703982612
          ],
          [
            -107.65102570361476,
            42.09116261082921
          ],
          [
            -107.63927577922436,
            42.092887076236764
          ],
          [
            -107.62461183323998,
            42.09328377510737
          ],
          [
            -107.61743986097967,
            42.09295934929279
          ],
          [
            -107.61257965908561,
            42.09322269129418
          ],
          [
            -107.60633105971596,
            42.09307770707643
          ],
          [
            -107.60293536056834,
            42.09295160270768
          ],
          [
            -107.60047135989745,
            42.09219272408656
          ],
          [
            -107.59815959581942,
            42.09206661929149
          ],
          [
            -107.59538225469257,
            42.092055514874126
          ],
          [
            -107.59375718437728,
            42.091872185715175
          ],
          [
            -107.59237600755998,
            42.09123496917772
          ]
        ]
      },
      "properties": {
        "fault_name": "Chicken Springs faults",
        "age": "latest Quaternary",
        "slip_rate": "Less than 0.2 mm/yr"
      }
    },
    {
      "type": "Feature",
      "geometry": {
        "type": "LineString",
        "coordinates": [
          [
            -107.75115829244146,
            42.095167914712036
          ],
          [
            -107.74497803600032,
            42.09532015184708
          ],
          [
            -107.7375010470735,
            42.09454628206147
          ],
          [
            -107.73086299029896,
            42.09434741128018
          ],
          [
            -107.72423271023982,
            42.09450020431781
          ],
          [
            -107.71620625868462,
            42.09429800111786
          ],
          [
            -107.71288723164483,
            42.09434023079763
          ],
          [
            -107.70871372531013,
            42.094729126883934
          ],
          [
            -107.70446410741637,
            42.095282468214215
          ],
          [
            -107.69837551327018,
            42.09496970579526
          ],
          [
            -107.69182189813233,
            42.09442805766935
          ],
          [
            -107.68448214842475,
            42.094683627868136
          ],
          [
            -107.68078143620386,
            42.09455752669229
          ],
          [
            -107.67753907857693,
            42.09488975400668
          ],
          [
            -107.67530342875293,
            42.09482087072364
          ],
          [
            -107.67313667342302,
            42.09498087569396
          ],
          [
            -107.67236608419925,
            42.0949847671937
          ]
        ]
      },
      "properties": {
        "fault_name": "Chicken Springs faults",
        "age": "latest Quaternary",
        "slip_rate": "Less than 0.2 mm/yr"
      }
    },
    {
      "type": "Feature",
      "geometry": {
        "type": "LineString",
        "coordinates": [
          [
            -107.68326105857756,
            42.10264470419166
          ],
          [
            -107.68071317771701,
            42.10303748767934
          ],
          [
            -107.67740192559597,
            42.10274027428396
          ],
          [
            -107.67299951684879,
            42.1027169507985
          ],
          [
            -107.66798652769458,
            42.102640851819
          ],
          [
            -107.66227184560732,
            42.10284697475506
          ],
          [
            -107.65895281587258,
            42.10283531569899
          ],
          [
            -107.65316202312455,
            42.10331977223187
          ],
          [
            -107.64830181224731,
            42.10278589881977
          ],
          [
            -107.64660840439343,
            42.10249201475587
          ],
          [
            -107.64421219059388,
            42.102366464975155
          ],
          [
            -107.642442118717,
            42.10235869087944
          ],
          [
            -107.64135873700961,
            42.10218314096059
          ]
        ]
      },
      "properties": {
        "fault_name": "Chicken Springs faults",
        "age": "latest Quaternary",
        "slip_rate": "Less than 0.2 mm/yr"
      }
    },
    {
      "type": "Feature",
      "geometry": {
        "type": "LineString",
        "coordinates": [
          [
            -107.67642562666373,
            42.146627848733296
          ],
          [
            -107.67343436612502,
            42.14392342401285
          ],
          [
            -107.67120703829382,
            42.14247732416884
          ],
          [
            -107.66936806114306,
            42.14115400276989
          ],
          [
            -107.66628569885813,
            42.13988012697231
          ],
          [
            -107.66305055290631,
            42.138777364120884
          ],
          [
            -107.66097546076968,
            42.138251261309144
          ],
          [
            -107.65958650723692,
            42.13750348780638
          ],
          [
            -107.65766419697054,
            42.13669072131417
          ],
          [
            -107.65590133587047,
            42.135420730013166
          ],
          [
            -107.65474961482784,
            42.13484851292566
          ],
          [
            -107.65374234737449,
            42.13444018373026
          ],
          [
            -107.6529028609617,
            42.13386407799683
          ],
          [
            -107.65136167892092,
            42.1332268637944
          ]
        ]
      },
      "properties": {
        "fault_name": "Chicken Springs faults",
        "age": "latest Quaternary",
        "slip_rate": "Less than 0.2 mm/yr"
      }
    },
    {
      "type": "Feature",
      "geometry": {
        "type": "LineString",
        "coordinates": [
          [
            -107.67497600900155,
            42.13453568722973
          ],
          [
            -107.66881074095092,
            42.13324237510127
          ],
          [
            -107.66697231806071,
            42.13209016191839
          ],
          [
            -107.66381328456627,
            42.130587398131055
          ],
          [
            -107.66112760483608,
            42.12925963373666
          ],
          [
            -107.65418452241184,
            42.12790965789489
          ],
          [
            -107.65025546473396,
            42.12737522607499
          ],
          [
            -107.6477986793314,
            42.12564357228867
          ],
          [
            -107.64187784915781,
            42.12275971213717
          ],
          [
            -107.63672039024465,
            42.120608068005794
          ],
          [
            -107.63372191892914,
            42.119395302032174
          ],
          [
            -107.63111235255464,
            42.11806753694585
          ],
          [
            -107.62873168140612,
            42.11650754917289
          ],
          [
            -107.62757996036349,
            42.11575977684928
          ],
          [
            -107.62635156721306,
            42.11506533996484
          ],
          [
            -107.62631323160832,
            42.114885896303434
          ],
          [
            -107.6232692094197,
            42.11442090572466
          ],
          [
            -107.61964516122181,
            42.11377202881728
          ],
          [
            -107.61702782621673,
            42.11324592489111
          ],
          [
            -107.61432715540107,
            42.113058709958636
          ],
          [
            -107.61106069597507,
            42.1120519538243
          ],
          [
            -107.60814940256464,
            42.110749535266464
          ],
          [
            -107.6049316605731,
            42.110136632211095
          ],
          [
            -107.60248004677165,
            42.10929388774772
          ],
          [
            -107.5998752082305,
            42.10883420895272
          ],
          [
            -107.59313327027648,
            42.10745517922553
          ]
        ]
      },
      "properties": {
        "fault_name": "Chicken Springs faults",
        "age": "latest Quaternary",
        "slip_rate": "Less than 0.2 mm/yr"
      }
    },
    {
      "type": "Feature",
      "geometry": {
        "type": "LineString",
        "coordinates": [
          [
            -107.64499866832006,
            42.13658019819584
          ],
          [
            -107.64038290879458,
            42.13524132467801
          ],
          [
            -107.63683497844397,
            42.134771892280106
          ],
          [
            -107.63398152216479,
            42.134291346059285
          ],
          [
            -107.63143307536558,
            42.13365413215851
          ],
          [
            -107.62943409927959,
            42.13313191791241
          ],
          [
            -107.62742734198662,
            42.132544146687344
          ],
          [
            -107.62581004659013,
            42.13208248673347
          ],
          [
            -107.62489444682161,
            42.13138860180324
          ],
          [
            -107.6240471827951,
            42.13069416431551
          ]
        ]
      },
      "properties": {
        "fault_name": "Chicken Springs faults",
        "age": "latest Quaternary",
        "slip_rate": "Less than 0.2 mm/yr"
      }
    },
    {
      "type": "Feature",
      "geometry": {
        "type": "LineString",
        "coordinates": [
          [
            -107.64271716758564,
            42.10631478527128
          ],
          [
            -107.63708636658635,
            42.10531535785653
          ],
          [
            -107.63223393242454,
            42.10437259503031
          ],
          [
            -107.62860988692158,
            42.10395705130101
          ],
          [
            -107.62367300483486,
            42.10336206588575
          ],
          [
            -107.61959116259177,
            42.10294263185361
          ],
          [
            -107.61781386376843,
            42.102763193862344
          ],
          [
            -107.61064188791488,
            42.10198487932098
          ],
          [
            -107.6055527818117,
            42.10161489333298
          ],
          [
            -107.60046367840344,
            42.10158823887544
          ],
          [
            -107.5952906849241,
            42.10173325029312
          ],
          [
            -107.59251334289893,
            42.10148881327098
          ],
          [
            -107.5908882761769,
            42.101657150799504
          ],
          [
            -107.58957600283681,
            42.10211103971031
          ],
          [
            -107.58872152623687,
            42.10233604175535
          ]
        ]
      },
      "properties": {
        "fault_name": "Chicken Springs faults",
        "age": "latest Quaternary",
        "slip_rate": "Less than 0.2 mm/yr"
      }
    },
    {
      "type": "Feature",
      "geometry": {
        "type": "LineString",
        "coordinates": [
          [
            -107.64196958960618,
            42.129915789668914
          ],
          [
            -107.63897111379912,
            42.128245248797924
          ],
          [
            -107.63705602239435,
            42.12708525826288
          ],
          [
            -107.63404977436345,
            42.12581138395853
          ],
          [
            -107.63097518969224,
            42.124655285174775
          ],
          [
            -107.62928122218791,
            42.12384695978181
          ],
          [
            -107.62546392660947,
            42.122854377068045
          ],
          [
            -107.62033085965123,
            42.121398731711174
          ]
        ]
      },
      "properties": {
        "fault_name": "Chicken Springs faults",
        "age": "latest Quaternary",
        "slip_rate": "Less than 0.2 mm/yr"
      }
    },
    {
      "type": "Feature",
      "geometry": {
        "type": "LineString",
        "coordinates": [
          [
            -107.6392542537935,
            42.128830185819865
          ],
          [
            -107.63603651270031,
            42.129060023738916
          ],
          [
            -107.6306736045901,
            42.12814066772543
          ],
          [
            -107.61923303842397,
            42.12528864533173
          ],
          [
            -107.61715794628734,
            42.12464809679793
          ],
          [
            -107.61554009303704,
            42.123953660705006
          ],
          [
            -107.614082802864,
            42.1231447766754
          ],
          [
            -107.61308331122775,
            42.12250811693196
          ],
          [
            -107.61223660056345,
            42.121874788279214
          ]
        ]
      },
      "properties": {
        "fault_name": "Chicken Springs faults",
        "age": "latest Quaternary",
        "slip_rate": "Less than 0.2 mm/yr"
      }
    },
    {
      "type": "Feature",
      "geometry": {
        "type": "LineString",
        "coordinates": [
          [
            -107.63810869878702,
            42.11213976882663
          ],
          [
            -107.63425574817661,
            42.111147559179194
          ],
          [
            -107.63171508617768,
            42.11096090183408
          ],
          [
            -107.62893773876263,
            42.11026257578688
          ],
          [
            -107.6260081673311,
            42.10978980809382
          ],
          [
            -107.62284914371813,
            42.109488151285596
          ],
          [
            -107.62053737604683,
            42.109194824103625
          ],
          [
            -107.61821783435508,
            42.10906871912885
          ],
          [
            -107.61598274058825,
            42.109114834269896
          ],
          [
            -107.61412877504699,
            42.10927483916077
          ],
          [
            -107.61258760019271,
            42.10926706524571
          ],
          [
            -107.61050417708013,
            42.109087625827605
          ],
          [
            -107.60934468561031,
            42.10919485076089
          ]
        ]
      },
      "properties": {
        "fault_name": "Chicken Springs faults",
        "age": "latest Quaternary",
        "slip_rate": "Less than 0.2 mm/yr"
      }
    },
    {
      "type": "Feature",
      "geometry": {
        "type": "LineString",
        "coordinates": [
          [
            -107.62937118576868,
            42.12438663494347
          ],
          [
            -107.62239940935764,
            42.123926957674016
          ],
          [
            -107.61833892366211,
            42.12316082814297
          ],
          [
            -107.61558085858464,
            42.12270115130791
          ],
          [
            -107.61358892259553,
            42.12216485989506
          ],
          [
            -107.61190343788245,
            42.121705183163506
          ]
        ]
      },
      "properties": {
        "fault_name": "Chicken Springs faults",
        "age": "latest Quaternary",
        "slip_rate": "Less than 0.2 mm/yr"
      }
    },
    {
      "type": "Feature",
      "geometry": {
        "type": "LineString",
        "coordinates": [
          [
            -107.62645829335703,
            42.120509205280996
          ],
          [
            -107.62283424785409,
            42.12003199371946
          ],
          [
            -107.61882851627175,
            42.11915478381292
          ],
          [
            -107.6154333677914,
            42.11845312908358
          ],
          [
            -107.61343439080709,
            42.118155358272766
          ],
          [
            -107.61173264928232,
            42.117861472826824
          ],
          [
            -107.60834528111064,
            42.117270372776304
          ],
          [
            -107.6064224147871,
            42.116461492718706
          ],
          [
            -107.60518680277504,
            42.11605371802061
          ],
          [
            -107.6036456234292,
            42.115702614910596
          ]
        ]
      },
      "properties": {
        "fault_name": "Chicken Springs faults",
        "age": "latest Quaternary",
        "slip_rate": "Less than 0.2 mm/yr"
      }
    },
    {
      "type": "Feature",
      "geometry": {
        "type": "LineString",
        "coordinates": [
          [
            -107.61917984558275,
            42.1395558037211
          ],
          [
            -107.61834035557669,
            42.138407476327465
          ],
          [
            -107.6165780469405,
            42.13696526532786
          ],
          [
            -107.61465517882033,
            42.13603860781337
          ],
          [
            -107.61204616580805,
            42.134600289223656
          ],
          [
            -107.61058109802129,
            42.13401696099349
          ],
          [
            -107.60858212013866,
            42.13331863519639
          ],
          [
            -107.60804765129072,
            42.13308586021823
          ],
          [
            -107.60765874365475,
            42.13279586325334
          ]
        ]
      },
      "properties": {
        "fault_name": "Chicken Springs faults",
        "age": "latest Quaternary",
        "slip_rate": "Less than 0.2 mm/yr"
      }
    },
    {
      "type": "Feature",
      "geometry": {
        "type": "LineString",
        "coordinates": [
          [
            -107.61734295701504,
            42.12729792681643
          ],
          [
            -107.61305263106586,
            42.12630195831076
          ],
          [
            -107.61129053443209,
            42.12599550710521
          ],
          [
            -107.60960504971901,
            42.12530599080353
          ],
          [
            -107.60738327437457,
            42.12492292620611
          ]
        ]
      },
      "properties": {
        "fault_name": "Chicken Springs faults",
        "age": "latest Quaternary",
        "slip_rate": "Less than 0.2 mm/yr"
      }
    },
    {
      "type": "Feature",
      "geometry": {
        "type": "LineString",
        "coordinates": [
          [
            -107.61547157314044,
            42.10561651667488
          ],
          [
            -107.60813903959951,
            42.10552486976271
          ]
        ]
      },
      "properties": {
        "fault_name": "Chicken Springs faults",
        "age": "latest Quaternary",
        "slip_rate": "Less than 0.2 mm/yr"
      }
    },
    {
      "type": "Feature",
      "geometry": {
        "type": "LineString",
        "coordinates": [
          [
            -107.61435802241256,
            42.143660240669234
          ],
          [
            -107.61096231787504,
            42.14306914219797
          ],
          [
            -107.60819274987035,
            42.14214193123143
          ],
          [
            -107.60634655655294,
            42.1416197137042
          ],
          [
            -107.60472925756318,
            42.140749722152655
          ],
          [
            -107.60372976592694,
            42.14028417201181
          ],
          [
            -107.60296639825972,
            42.1398263979408
          ],
          [
            -107.60250137457312,
            42.13942195697328
          ]
        ]
      },
      "properties": {
        "fault_name": "Chicken Springs faults",
        "age": "latest Quaternary",
        "slip_rate": "Less than 0.2 mm/yr"
      }
    },
    {
      "type": "Feature",
      "geometry": {
        "type": "LineString",
        "coordinates": [
          [
            -107.61392296742216,
            42.14016581376712
          ],
          [
            -107.61177897001161,
            42.13825860468198
          ],
          [
            -107.60993277669422,
            42.137679169050415
          ],
          [
            -107.60739155414653,
            42.13715251021596
          ],
          [
            -107.60546147165633,
            42.136915849078626
          ],
          [
            -107.60445420689791,
            42.13685085375908
          ],
          [
            -107.6029130293487,
            42.13655752532834
          ],
          [
            -107.60191353771245,
            42.136149195827144
          ],
          [
            -107.60114294938701,
            42.135973642236415
          ]
        ]
      },
      "properties": {
        "fault_name": "Chicken Springs faults",
        "age": "latest Quaternary",
        "slip_rate": "Less than 0.2 mm/yr"
      }
    }
  ]
}