{
  "type": "FeatureCollection",
  "features": [
    {
      "type": "Feature",
      "geometry": {
        "type": "LineString",
        "coordinates": [
          [
            -115.71360799988801,
            33.920245000200126
          ],
          [
            -115.71428600065377,
            33.920294000652376
          ]
        ]
      },
      "properties": {
        "fault_name": "Blue Cut fault zone",
        "age": "undifferentiated Quaternary",
        "slip_rate": "Unspecified"
      }
    },
    {
      "type": "Feature",
      "geometry": {
        "type": "LineString",
        "coordinates": [
          [
            -115.6974429996066,
            33.917877000786106
          ],
          [
            -115.69923999938241,
            33.91820999996302
          ]
        ]
      },
      "properties": {
        "fault_name": "Blue Cut fault zone",
        "age": "undifferentiated Quaternary",
        "slip_rate": "Unspecified"
      }
    },
    {
      "type": "Feature",
      "geometry": {
        "type": "LineString",
        "coordinates": [
          [
            -115.65477900010251,
            33.91925900006501
          ],
          [
            -115.655019000302,
            33.919417001303444
          ],
          [
            -115.65536599973335,
            33.91961699966737
          ],
          [
            -115.65592599959999,
            33.91989799994858
          ],
          [
            -115.6566939998791,
            33.92028199989008
          ],
          [
            -115.6574619992599,
            33.92062199971375
          ],
          [
            -115.65798000019205,
            33.92081500012809
          ]
        ]
      },
      "properties": {
        "fault_name": "Blue Cut fault zone",
        "age": "undifferentiated Quaternary",
        "slip_rate": "Unspecified"
      }
    },
    {
      "type": "Feature",
      "geometry": {
        "type": "LineString",
        "coordinates": [
          [
            -115.64074700005588,
            33.916850000246114
          ],
          [
            -115.64230400142884,
            33.917875999638206
          ]
        ]
      },
      "properties": {
        "fault_name": "Blue Cut fault zone",
        "age": "undifferentiated Quaternary",
        "slip_rate": "Unspecified"
      }
    },
    {
      "type": "Feature",
      "geometry": {
        "type": "LineString",
        "coordinates": [
          [
            -115.63790699964133,
            33.91659900020472
          ],
          [
            -115.6396009985867,
            33.916640999835494
          ]
        ]
      },
      "properties": {
        "fault_name": "Blue Cut fault zone",
        "age": "undifferentiated Quaternary",
        "slip_rate": "Unspecified"
      }
    },
    {
      "type": "Feature",
      "geometry": {
        "type": "LineString",
        "coordinates": [
          [
            -115.61022500003787,
            33.91563000020675
          ],
          [
            -115.6111289998611,
            33.915737998739594
          ],
          [
            -115.6132900005833,
            33.916057000343685
          ],
          [
            -115.61488999981731,
            33.916330000055424
          ],
          [
            -115.61729900023663,
            33.91694399964659
          ]
        ]
      },
      "properties": {
        "fault_name": "Blue Cut fault zone",
        "age": "undifferentiated Quaternary",
        "slip_rate": "Unspecified"
      }
    },
    {
      "type": "Feature",
      "geometry": {
        "type": "LineString",
        "coordinates": [
          [
            -115.60878899993705,
            33.915439999777405
          ],
          [
            -115.60468200037441,
            33.91528300128848
          ],
          [
            -115.60064100003572,
            33.91512700070853
          ],
          [
            -115.59620100038717,
            33.915057999758844
          ],
          [
            -115.59196300040496,
            33.91478899996332
          ],
          [
            -115.58839099969633,
            33.91434200025154
          ],
          [
            -115.58508400019986,
            33.91393600020085
          ],
          [
            -115.58080399858822,
            33.913554999857446
          ],
          [
            -115.5772939996005,
            33.913329999729335
          ],
          [
            -115.57197199987,
            33.91319500070924
          ],
          [
            -115.56954400008243,
            33.913020000253034
          ],
          [
            -115.56429199977381,
            33.91266399995394
          ],
          [
            -115.56239299989075,
            33.91256800012131
          ],
          [
            -115.55695900000725,
            33.91252300006933
          ],
          [
            -115.55390799970553,
            33.912616000051166
          ],
          [
            -115.55152000010091,
            33.91273500004018
          ],
          [
            -115.54890900001521,
            33.912944000339174
          ],
          [
            -115.544097000821,
            33.91399299966546
          ],
          [
            -115.54165400006647,
            33.91469999963893
          ]
        ]
      },
      "properties": {
        "fault_name": "Blue Cut fault zone",
        "age": "undifferentiated Quaternary",
        "slip_rate": "Unspecified"
      }
    },
    {
      "type": "Feature",
      "geometry": {
        "type": "LineString",
        "coordinates": [
          [
            -115.52774800041657,
            33.91534200071659
          ],
          [
            -115.52446299976309,
            33.915997999919696
          ],
          [
            -115.5219859995717,
            33.91638399964082
          ],
          [
            -115.51445999856298,
            33.91750799983558
          ],
          [
            -115.50984400008565,
            33.91826700029609
          ],
          [
            -115.49990199988322,
            33.92051000066713
          ],
          [
            -115.49570400008399,
            33.92130999967886
          ],
          [
            -115.48739200015112,
            33.92326399981385
          ],
          [
            -115.48245100018715,
            33.9239790000506
          ],
          [
            -115.47989100015508,
            33.92414099981455
          ],
          [
            -115.47766000001099,
            33.92411300029151
          ],
          [
            -115.4755709992588,
            33.92389400021686
          ],
          [
            -115.47380500034345,
            33.92387200036888
          ],
          [
            -115.47227100033336,
            33.923853000021204
          ],
          [
            -115.47087600024044,
            33.92383600033428
          ],
          [
            -115.46915699938411,
            33.92377500015811
          ],
          [
            -115.4677119999608,
            33.923989999961485
          ],
          [
            -115.46523699941925,
            33.924579000367
          ],
          [
            -115.4624820002918,
            33.92520399989875
          ],
          [
            -115.45977599977158,
            33.9257129999112
          ],
          [
            -115.45722999998321,
            33.925822000134986
          ],
          [
            -115.45417899968146,
            33.92580699996885
          ],
          [
            -115.44978999918823,
            33.925919000251014
          ],
          [
            -115.4459780000767,
            33.92632800001738
          ],
          [
            -115.44146899993282,
            33.926780999757334
          ],
          [
            -115.4367190006629,
            33.92733300065132
          ],
          [
            -115.4319979999086,
            33.92821699874169
          ],
          [
            -115.42712500061499,
            33.929499001270244
          ]
        ]
      },
      "properties": {
        "fault_name": "Blue Cut fault zone",
        "age": "undifferentiated Quaternary",
        "slip_rate": "Unspecified"
      }
    },
    {
      "type": "Feature",
      "geometry": {
        "type": "LineString",
        "coordinates": [
          [
            -115.67558499987392,
            33.92527399965612
          ],
          [
            -115.67832600055428,
            33.92460699973692
          ],
          [
            -115.68059399960997,
            33.92382700032324
          ],
          [
            -115.68243200029198,
            33.92313199966442
          ],
          [
            -115.68340100041254,
            33.92256600022861
          ]
        ]
      },
      "properties": {
        "fault_name": "Blue Cut fault zone",
        "age": "undifferentiated Quaternary",
        "slip_rate": "Unspecified"
      }
    },
    {
      "type": "Feature",
      "geometry": {
        "type": "LineString",
        "coordinates": [
          [
            -115.67153500021271,
            33.923084999290786
          ],
          [
            -115.67270400034982,
            33.922467999673074
          ],
          [
            -115.67356600034024,
            33.92199200016325
          ],
          [
            -115.6743010001091,
            33.92161600036157
          ],
          [
            -115.67536000064135,
            33.921237999665436
          ],
          [
            -115.67842599921508,
            33.92021500013753
          ],
          [
            -115.68000500032933,
            33.919777999891444
          ],
          [
            -115.68154999931176,
            33.91954400007667
          ]
        ]
      },
      "properties": {
        "fault_name": "Blue Cut fault zone",
        "age": "undifferentiated Quaternary",
        "slip_rate": "Unspecified"
      }
    },
    {
      "type": "Feature",
      "geometry": {
        "type": "LineString",
        "coordinates": [
          [
            -115.67038800071523,
            33.921615000003044
          ],
          [
            -115.67202500065748,
            33.92078000066092
          ],
          [
            -115.67335499955473,
            33.9201080002009
          ],
          [
            -115.6744569997447,
            33.91958900014833
          ]
        ]
      },
      "properties": {
        "fault_name": "Blue Cut fault zone",
        "age": "undifferentiated Quaternary",
        "slip_rate": "Unspecified"
      }
    },
    {
      "type": "Feature",
      "geometry": {
        "type": "LineString",
        "coordinates": [
          [
            -115.66637699961544,
            33.91955400017746
          ],
          [
            -115.66602499926292,
            33.919651000721615
          ],
          [
            -115.66577400009108,
            33.91970099966019
          ],
          [
            -115.66555499980795,
            33.919695999991305
          ],
          [
            -115.66536599966207,
            33.91967000126099
          ],
          [
            -115.66512999966054,
            33.91967100015145
          ],
          [
            -115.66461099980175,
            33.91979800003693
          ],
          [
            -115.66460499995397,
            33.919796999657045
          ],
          [
            -115.6642069995707,
            33.91981899981195
          ],
          [
            -115.66400699955419,
            33.91982400021908
          ],
          [
            -115.66385700066465,
            33.9198519996609
          ],
          [
            -115.66360100057163,
            33.91988999990031
          ],
          [
            -115.66323100067578,
            33.919947998742224
          ],
          [
            -115.66299700032403,
            33.91994599873137
          ],
          [
            -115.66269600002514,
            33.91995800028645
          ],
          [
            -115.6623950006246,
            33.91993299977808
          ],
          [
            -115.66205400014275,
            33.919908999640946
          ],
          [
            -115.66159599858669,
            33.919802000065474
          ],
          [
            -115.66114899959626,
            33.919690000686366
          ],
          [
            -115.66012599994735,
            33.91940600005665
          ]
        ]
      },
      "properties": {
        "fault_name": "Blue Cut fault zone",
        "age": "undifferentiated Quaternary",
        "slip_rate": "Unspecified"
      }
    },
    {
      "type": "Feature",
      "geometry": {
        "type": "LineString",
        "coordinates": [
          [
            -115.65978299981566,
            33.92194000036885
          ],
          [
            -115.66076100015705,
            33.922448999757684
          ],
          [
            -115.66140800006237,
            33.92273200033433
          ],
          [
            -115.66203400005125,
            33.92303500010185
          ]
        ]
      },
      "properties": {
        "fault_name": "Blue Cut fault zone",
        "age": "undifferentiated Quaternary",
        "slip_rate": "Unspecified"
      }
    },
    {
      "type": "Feature",
      "geometry": {
        "type": "LineString",
        "coordinates": [
          [
            -115.65798000019205,
            33.92081500012809
          ],
          [
            -115.6587699993142,
            33.9210959986945
          ],
          [
            -115.65949599976051,
            33.92133499978317
          ],
          [
            -115.66027200043554,
            33.921615000003044
          ]
        ]
      },
      "properties": {
        "fault_name": "Blue Cut fault zone",
        "age": "undifferentiated Quaternary",
        "slip_rate": "Unspecified"
      }
    },
    {
      "type": "Feature",
      "geometry": {
        "type": "LineString",
        "coordinates": [
          [
            -115.65361400016334,
            33.91827600014903
          ],
          [
            -115.65402800044012,
            33.91860900000298
          ],
          [
            -115.65477900010251,
            33.91925900006501
          ]
        ]
      },
      "properties": {
        "fault_name": "Blue Cut fault zone",
        "age": "undifferentiated Quaternary",
        "slip_rate": "Unspecified"
      }
    },
    {
      "type": "Feature",
      "geometry": {
        "type": "LineString",
        "coordinates": [
          [
            -115.64718400039514,
            33.91879700003748
          ],
          [
            -115.64750400006227,
            33.918979000302166
          ],
          [
            -115.64780999858738,
            33.91910599972826
          ],
          [
            -115.64808699859681,
            33.91920599970658
          ]
        ]
      },
      "properties": {
        "fault_name": "Blue Cut fault zone",
        "age": "undifferentiated Quaternary",
        "slip_rate": "Unspecified"
      }
    },
    {
      "type": "Feature",
      "geometry": {
        "type": "LineString",
        "coordinates": [
          [
            -115.64230400142884,
            33.917875999638206
          ],
          [
            -115.64272200010694,
            33.91814100001885
          ],
          [
            -115.64299999994128,
            33.918290998659394
          ],
          [
            -115.64325800058246,
            33.91839100033971
          ],
          [
            -115.64352800002088,
            33.91847700009567
          ],
          [
            -115.64387799982526,
            33.91859999869429
          ]
        ]
      },
      "properties": {
        "fault_name": "Blue Cut fault zone",
        "age": "undifferentiated Quaternary",
        "slip_rate": "Unspecified"
      }
    },
    {
      "type": "Feature",
      "geometry": {
        "type": "LineString",
        "coordinates": [
          [
            -115.6396009985867,
            33.916640999835494
          ],
          [
            -115.6401000001506,
            33.916679000016025
          ],
          [
            -115.64043999990923,
            33.916710000248855
          ],
          [
            -115.64074700005588,
            33.916850000246114
          ]
        ]
      },
      "properties": {
        "fault_name": "Blue Cut fault zone",
        "age": "undifferentiated Quaternary",
        "slip_rate": "Unspecified"
      }
    },
    {
      "type": "Feature",
      "geometry": {
        "type": "LineString",
        "coordinates": [
          [
            -115.63790699964133,
            33.91659900020472
          ],
          [
            -115.6374460004072,
            33.916617000262
          ],
          [
            -115.63685899987807,
            33.91664599968365
          ],
          [
            -115.63614899932526,
            33.9166630000598
          ],
          [
            -115.63555400019682,
            33.916699999814284
          ],
          [
            -115.63490899994137,
            33.916810999726856
          ],
          [
            -115.63457699968033,
            33.91693900130682
          ]
        ]
      },
      "properties": {
        "fault_name": "Blue Cut fault zone",
        "age": "undifferentiated Quaternary",
        "slip_rate": "Unspecified"
      }
    },
    {
      "type": "Feature",
      "geometry": {
        "type": "LineString",
        "coordinates": [
          [
            -115.63022599972025,
            33.917909999896274
          ],
          [
            -115.63185500016489,
            33.9181969999994
          ],
          [
            -115.6329040006514,
            33.91831400034592
          ],
          [
            -115.63422299967802,
            33.91847900014101
          ]
        ]
      },
      "properties": {
        "fault_name": "Blue Cut fault zone",
        "age": "undifferentiated Quaternary",
        "slip_rate": "Unspecified"
      }
    },
    {
      "type": "Feature",
      "geometry": {
        "type": "LineString",
        "coordinates": [
          [
            -115.61729900023663,
            33.91694399964659
          ],
          [
            -115.61760399983517,
            33.91702099864203
          ],
          [
            -115.61812500024207,
            33.91706699971265
          ],
          [
            -115.61849500013791,
            33.91711200034703
          ],
          [
            -115.6189440005748,
            33.91723699875412
          ],
          [
            -115.61932199996826,
            33.91737700012189
          ],
          [
            -115.62001800027737,
            33.91763499996326
          ],
          [
            -115.62048600008251,
            33.917805000107926
          ]
        ]
      },
      "properties": {
        "fault_name": "Blue Cut fault zone",
        "age": "undifferentiated Quaternary",
        "slip_rate": "Unspecified"
      }
    },
    {
      "type": "Feature",
      "geometry": {
        "type": "LineString",
        "coordinates": [
          [
            -115.54142599956253,
            33.914757000083526
          ],
          [
            -115.541016000382,
            33.9148470000409
          ],
          [
            -115.54055600007447,
            33.9149300013172
          ],
          [
            -115.54020099934893,
            33.91499799969788
          ],
          [
            -115.53986600140979,
            33.915049999256155
          ]
        ]
      },
      "properties": {
        "fault_name": "Blue Cut fault zone",
        "age": "undifferentiated Quaternary",
        "slip_rate": "Unspecified"
      }
    },
    {
      "type": "Feature",
      "geometry": {
        "type": "LineString",
        "coordinates": [
          [
            -115.53828799922215,
            33.91496000025866
          ],
          [
            -115.53849099961174,
            33.914984999989734
          ],
          [
            -115.53876599997136,
            33.91495000036421
          ],
          [
            -115.53896099996504,
            33.914951000055495
          ],
          [
            -115.5391350000423,
            33.91495199974677
          ],
          [
            -115.53934900030252,
            33.914947001290216
          ]
        ]
      },
      "properties": {
        "fault_name": "Blue Cut fault zone",
        "age": "undifferentiated Quaternary",
        "slip_rate": "Unspecified"
      }
    },
    {
      "type": "Feature",
      "geometry": {
        "type": "LineString",
        "coordinates": [
          [
            -115.53356600043959,
            33.91477500127539
          ],
          [
            -115.53381400013669,
            33.91476900013305
          ],
          [
            -115.5340879997731,
            33.91478999965651
          ],
          [
            -115.53439900011773,
            33.914883999838445
          ],
          [
            -115.53464199979196,
            33.91492799969763
          ],
          [
            -115.53485300057748,
            33.914951000055495
          ],
          [
            -115.53510200009953,
            33.91494199985137
          ],
          [
            -115.53534699942357,
            33.91491999992823
          ],
          [
            -115.53563600002688,
            33.914938000340165
          ],
          [
            -115.53576600062156,
            33.91493399933779
          ],
          [
            -115.53591199931309,
            33.914922000057004
          ],
          [
            -115.53599300040227,
            33.91490700020818
          ],
          [
            -115.5361360014157,
            33.91485499981716
          ],
          [
            -115.53638000001656,
            33.91481599987582
          ],
          [
            -115.53655400009382,
            33.914764999868225
          ],
          [
            -115.53673999986667,
            33.91478499969944
          ],
          [
            -115.53691700031699,
            33.91481599987582
          ],
          [
            -115.53710899993762,
            33.91481800000702
          ]
        ]
      },
      "properties": {
        "fault_name": "Blue Cut fault zone",
        "age": "undifferentiated Quaternary",
        "slip_rate": "Unspecified"
      }
    },
    {
      "type": "Feature",
      "geometry": {
        "type": "LineString",
        "coordinates": [
          [
            -115.52818400043465,
            33.91534399934453
          ],
          [
            -115.52834100079347,
            33.91530899986639
          ],
          [
            -115.52845800007104,
            33.91531300010566
          ],
          [
            -115.5287440003013,
            33.91534399934453
          ],
          [
            -115.52898199995268,
            33.91545900125581
          ],
          [
            -115.52915100000709,
            33.91546500011315
          ],
          [
            -115.52944599955984,
            33.91554199969961
          ],
          [
            -115.52976000027753,
            33.91559599978437
          ],
          [
            -115.53064299928606,
            33.915640000021405
          ]
        ]
      },
      "properties": {
        "fault_name": "Blue Cut fault zone",
        "age": "undifferentiated Quaternary",
        "slip_rate": "Unspecified"
      }
    },
    {
      "type": "Feature",
      "geometry": {
        "type": "LineString",
        "coordinates": [
          [
            -115.71428600065377,
            33.920294000652376
          ],
          [
            -115.71497799986659,
            33.92041300035556
          ],
          [
            -115.71558299993904,
            33.92048199995067
          ],
          [
            -115.71597499957622,
            33.920483000322555
          ],
          [
            -115.71757200023383,
            33.92038199997905
          ],
          [
            -115.71893999966424,
            33.92033700032629
          ],
          [
            -115.7208310000497,
            33.920395999982155
          ],
          [
            -115.72225000043207,
            33.92044900034573
          ],
          [
            -115.72314300038465,
            33.92051100029319
          ],
          [
            -115.7244719985587,
            33.920397000355
          ],
          [
            -115.72634199992608,
            33.92007499970565
          ],
          [
            -115.72805600075954,
            33.91990400072971
          ],
          [
            -115.73056800021273,
            33.919663000081876
          ],
          [
            -115.73229099857205,
            33.919362000273395
          ],
          [
            -115.73383700007436,
            33.91896300003236
          ],
          [
            -115.73655899958979,
            33.91852499967904
          ]
        ]
      },
      "properties": {
        "fault_name": "Blue Cut fault zone",
        "age": "undifferentiated Quaternary",
        "slip_rate": "Unspecified"
      }
    },
    {
      "type": "Feature",
      "geometry": {
        "type": "LineString",
        "coordinates": [
          [
            -115.70032900005191,
            33.91895899996443
          ],
          [
            -115.70330300036073,
            33.919352999789716
          ],
          [
            -115.7049270007825,
            33.91947499972188
          ],
          [
            -115.70656100035171,
            33.9194359996587
          ],
          [
            -115.70826600006602,
            33.91945100020119
          ],
          [
            -115.70968799992312,
            33.919558999854694
          ],
          [
            -115.71091399996163,
            33.919747999664416
          ],
          [
            -115.71154800034644,
            33.919912999664284
          ],
          [
            -115.71256400032267,
            33.920138000301215
          ],
          [
            -115.71360799988801,
            33.920245000200126
          ]
        ]
      },
      "properties": {
        "fault_name": "Blue Cut fault zone",
        "age": "undifferentiated Quaternary",
        "slip_rate": "Unspecified"
      }
    },
    {
      "type": "Feature",
      "geometry": {
        "type": "LineString",
        "coordinates": [
          [
            -115.69189400009537,
            33.91846899991405
          ],
          [
            -115.69397999957619,
            33.918000000250856
          ],
          [
            -115.69568300143733,
            33.91783199981028
          ],
          [
            -115.69691700007513,
            33.91783600067659
          ],
          [
            -115.6974429996066,
            33.917877000786106
          ]
        ]
      },
      "properties": {
        "fault_name": "Blue Cut fault zone",
        "age": "undifferentiated Quaternary",
        "slip_rate": "Unspecified"
      }
    },
    {
      "type": "Feature",
      "geometry": {
        "type": "LineString",
        "coordinates": [
          [
            -115.68623900027896,
            33.919802000065474
          ],
          [
            -115.6873979985737,
            33.91969300033888
          ],
          [
            -115.68817600069518,
            33.91962400010476
          ],
          [
            -115.68870600042462,
            33.91957099997342
          ],
          [
            -115.68936400020056,
            33.91943000033547
          ],
          [
            -115.6906980001941,
            33.919123000359
          ],
          [
            -115.69220799991474,
            33.91881200069246
          ]
        ]
      },
      "properties": {
        "fault_name": "Blue Cut fault zone",
        "age": "undifferentiated Quaternary",
        "slip_rate": "Unspecified"
      }
    },
    {
      "type": "Feature",
      "geometry": {
        "type": "LineString",
        "coordinates": [
          [
            -115.62048600008251,
            33.917805000107926
          ],
          [
            -115.62091899972755,
            33.91795300002782
          ],
          [
            -115.62148600016522,
            33.91796199991397
          ],
          [
            -115.6219869995823,
            33.917894000171145
          ],
          [
            -115.62242900034651,
            33.917833000213236
          ],
          [
            -115.62295099968,
            33.91780799982681
          ],
          [
            -115.62417599989362,
            33.91776699968408
          ],
          [
            -115.62556699978856,
            33.917755000056744
          ],
          [
            -115.62655100087606,
            33.91775599971513
          ],
          [
            -115.62772399941451,
            33.91775599971513
          ],
          [
            -115.62899199928579,
            33.917803999704645
          ],
          [
            -115.63022599972025,
            33.917909999896274
          ]
        ]
      },
      "properties": {
        "fault_name": "Blue Cut fault zone",
        "age": "undifferentiated Quaternary",
        "slip_rate": "Unspecified"
      }
    }
  ]
}