{
  "type": "FeatureCollection",
  "features": [
    {
      "type": "Feature",
      "geometry": {
        "type": "LineString",
        "coordinates": [
          [
            -114.21270153230206,
            39.917162734894156
          ],
          [
            -114.21366320486483,
            39.915533866789026
          ],
          [
            -114.21514321163478,
            39.91289390371455
          ],
          [
            -114.21663098973023,
            39.909800056672815
          ],
          [
            -114.21782097091912,
            39.90601622313258
          ],
          [
            -114.21969762700614,
            39.901381290871456
          ],
          [
            -114.22075818791203,
            39.89940909576075
          ],
          [
            -114.22133041295137,
            39.8984441083096
          ],
          [
            -114.22169652404037,
            39.897665786306675
          ]
        ]
      },
      "properties": {
        "fault_name": "Eastern Antelope Valley fault zone",
        "age": "undifferentiated Quaternary",
        "slip_rate": "Less than 0.2 mm/yr"
      }
    },
    {
      "type": "Feature",
      "geometry": {
        "type": "LineString",
        "coordinates": [
          [
            -114.20659047668049,
            39.933268063290036
          ],
          [
            -114.20657544157758,
            39.9310592113361
          ],
          [
            -114.20686541056479,
            39.92830536403582
          ],
          [
            -114.20693371935731,
            39.926512056663356
          ],
          [
            -114.20754427191657,
            39.92497485831882
          ],
          [
            -114.20778815104148,
            39.92387265320498
          ],
          [
            -114.20800979865972,
            39.922217121113945
          ],
          [
            -114.20861979606016,
            39.920843808204395
          ],
          [
            -114.20897868289764,
            39.91996993116362
          ],
          [
            -114.20922257280232,
            39.91953549179608
          ]
        ]
      },
      "properties": {
        "fault_name": "Eastern Antelope Valley fault zone",
        "age": "undifferentiated Quaternary",
        "slip_rate": "Less than 0.2 mm/yr"
      }
    },
    {
      "type": "Feature",
      "geometry": {
        "type": "LineString",
        "coordinates": [
          [
            -114.21433461558968,
            39.9344085582566
          ],
          [
            -114.21527294992138,
            39.932619693216985
          ],
          [
            -114.21612016903214,
            39.93071583221436
          ],
          [
            -114.21694405260675,
            39.928651970196114
          ],
          [
            -114.21792070098365,
            39.92529924428784
          ],
          [
            -114.2189351154334,
            39.92116763778913
          ],
          [
            -114.21975898373665,
            39.91804379587153
          ],
          [
            -114.22022452485288,
            39.91609049172493
          ],
          [
            -114.22043784778339,
            39.91492328679677
          ],
          [
            -114.2206594971983,
            39.913271646287335
          ]
        ]
      },
      "properties": {
        "fault_name": "Eastern Antelope Valley fault zone",
        "age": "undifferentiated Quaternary",
        "slip_rate": "Less than 0.2 mm/yr"
      }
    },
    {
      "type": "Feature",
      "geometry": {
        "type": "LineString",
        "coordinates": [
          [
            -114.21643896316016,
            39.84788106403886
          ],
          [
            -114.21844561714688,
            39.84262058927056
          ]
        ]
      },
      "properties": {
        "fault_name": "Eastern Antelope Valley fault zone",
        "age": "undifferentiated Quaternary",
        "slip_rate": "Less than 0.2 mm/yr"
      }
    },
    {
      "type": "Feature",
      "geometry": {
        "type": "LineString",
        "coordinates": [
          [
            -114.21350175155715,
            39.85503762575797
          ],
          [
            -114.21425731466114,
            39.85388930823501
          ],
          [
            -114.21470731312631,
            39.852809880107685
          ],
          [
            -114.21507342062205,
            39.85175711929392
          ],
          [
            -114.21550064140486,
            39.8506810231372
          ],
          [
            -114.21556174660712,
            39.850265472800324
          ],
          [
            -114.21559230459815,
            39.850288250068616
          ]
        ]
      },
      "properties": {
        "fault_name": "Eastern Antelope Valley fault zone",
        "age": "undifferentiated Quaternary",
        "slip_rate": "Less than 0.2 mm/yr"
      }
    },
    {
      "type": "Feature",
      "geometry": {
        "type": "LineString",
        "coordinates": [
          [
            -114.20800117573133,
            39.86551247897369
          ],
          [
            -114.20855061320685,
            39.86391028031018
          ],
          [
            -114.20903838493142,
            39.86248363274187
          ],
          [
            -114.20942783155654,
            39.86179697615101
          ],
          [
            -114.21015228420562,
            39.86072143527337
          ],
          [
            -114.21058005655402,
            39.859389788958346
          ],
          [
            -114.21087727943714,
            39.85890535169015
          ],
          [
            -114.21141895636694,
            39.858451468784715
          ],
          [
            -114.21187673334416,
            39.857325928835635
          ],
          [
            -114.21190729043686,
            39.857303151144286
          ]
        ]
      },
      "properties": {
        "fault_name": "Eastern Antelope Valley fault zone",
        "age": "undifferentiated Quaternary",
        "slip_rate": "Less than 0.2 mm/yr"
      }
    },
    {
      "type": "Feature",
      "geometry": {
        "type": "LineString",
        "coordinates": [
          [
            -114.20459066785624,
            39.875976214672285
          ],
          [
            -114.20560563656653,
            39.871799054214854
          ],
          [
            -114.20653619687778,
            39.87008241126695
          ],
          [
            -114.20729175279527,
            39.86856798715063
          ]
        ]
      },
      "properties": {
        "fault_name": "Eastern Antelope Valley fault zone",
        "age": "undifferentiated Quaternary",
        "slip_rate": "Less than 0.2 mm/yr"
      }
    },
    {
      "type": "Feature",
      "geometry": {
        "type": "LineString",
        "coordinates": [
          [
            -114.03829518834871,
            40.19259792466358
          ],
          [
            -114.03838689016956,
            40.195302329812904
          ],
          [
            -114.03818858257901,
            40.198056735242226
          ],
          [
            -114.03750972212553,
            40.20230223283794
          ],
          [
            -114.03670084400945,
            40.20539219192511
          ],
          [
            -114.0371509008651,
            40.2091915801873
          ],
          [
            -114.03781486006463,
            40.21356706969401
          ]
        ]
      },
      "properties": {
        "fault_name": "unnamed fault zone in Ferber Hills",
        "age": "undifferentiated Quaternary",
        "slip_rate": "Less than 0.2 mm/yr"
      }
    },
    {
      "type": "Feature",
      "geometry": {
        "type": "LineString",
        "coordinates": [
          [
            -114.12408494387083,
            40.02081839519669
          ],
          [
            -114.12358158457948,
            40.019967851669804
          ],
          [
            -114.1230398905817,
            40.01893009325051
          ],
          [
            -114.12265098114909,
            40.017972885683925
          ],
          [
            -114.12220095393785,
            40.016797904884186
          ],
          [
            -114.12204815859286,
            40.015767919332376
          ],
          [
            -114.12213980112486,
            40.013604613823475
          ],
          [
            -114.12243700873663,
            40.011697415690705
          ],
          [
            -114.12320755843452,
            40.009332441780394
          ],
          [
            -114.12371866659353,
            40.00795523277175
          ],
          [
            -114.12419200059482,
            40.00682635569236
          ],
          [
            -114.12461143837402,
            40.00536137433772
          ],
          [
            -114.12475642825751,
            40.00407194501378
          ],
          [
            -114.12490919665304,
            40.003061402192614
          ],
          [
            -114.12497029736372,
            40.00207308129146
          ],
          [
            -114.12490917419515,
            40.00115753802392
          ],
          [
            -114.12467248518578,
            39.99993699986861
          ]
        ]
      },
      "properties": {
        "fault_name": "unnamed fault zone in Ferber Hills",
        "age": "undifferentiated Quaternary",
        "slip_rate": "Less than 0.2 mm/yr"
      }
    },
    {
      "type": "Feature",
      "geometry": {
        "type": "LineString",
        "coordinates": [
          [
            -114.12168174836488,
            39.99428376790801
          ],
          [
            -114.12265786314249,
            39.992948781175016
          ],
          [
            -114.12345896723814,
            39.991182134185834
          ],
          [
            -114.1242528372008,
            39.98874494119233
          ],
          [
            -114.12535116956944,
            39.98692884880971
          ],
          [
            -114.12591561340182,
            39.98589163566512
          ],
          [
            -114.12635057676407,
            39.982977233324114
          ],
          [
            -114.12619831861163,
            39.9811611486838
          ],
          [
            -114.12615993898942,
            39.97852174069345
          ],
          [
            -114.12557987075932,
            39.97548901091661
          ],
          [
            -114.12563317678827,
            39.973860145829796
          ],
          [
            -114.12559535412156,
            39.97125851689133
          ],
          [
            -114.12540419712067,
            39.968920217236125
          ],
          [
            -114.12545750674289,
            39.9673791280774
          ]
        ]
      },
      "properties": {
        "fault_name": "unnamed fault zone in Ferber Hills",
        "age": "undifferentiated Quaternary",
        "slip_rate": "Less than 0.2 mm/yr"
      }
    },
    {
      "type": "Feature",
      "geometry": {
        "type": "LineString",
        "coordinates": [
          [
            -114.11980409155464,
            39.97232687086715
          ],
          [
            -114.11991851805722,
            39.97101799928808
          ],
          [
            -114.11991848931112,
            39.969316912338215
          ],
          [
            -114.1197584562399,
            39.96771082430396
          ],
          [
            -114.11948396522504,
            39.96550585822517
          ],
          [
            -114.11974337801786,
            39.963183111694484
          ],
          [
            -114.11979668404682,
            39.961439802126684
          ],
          [
            -114.11981943837296,
            39.96015037677741
          ]
        ]
      },
      "properties": {
        "fault_name": "unnamed fault zone in Ferber Hills",
        "age": "undifferentiated Quaternary",
        "slip_rate": "Less than 0.2 mm/yr"
      }
    },
    {
      "type": "Feature",
      "geometry": {
        "type": "LineString",
        "coordinates": [
          [
            -114.11699689222436,
            39.97825847122869
          ],
          [
            -114.11660018541512,
            39.9766296067537
          ],
          [
            -114.11671460383286,
            39.97492463093637
          ],
          [
            -114.11661510912693,
            39.97217022572576
          ],
          [
            -114.11663005799159,
            39.96923304633079
          ],
          [
            -114.11629443033345,
            39.9656930967766
          ],
          [
            -114.11585936905482,
            39.9628470282597
          ],
          [
            -114.11591323114094,
            39.96118816378851
          ],
          [
            -114.11599709066934,
            39.95939874294381
          ],
          [
            -114.11598928071626,
            39.95758710172884
          ],
          [
            -114.11598927173311,
            39.956988221933926
          ]
        ]
      },
      "properties": {
        "fault_name": "unnamed fault zone in Ferber Hills",
        "age": "undifferentiated Quaternary",
        "slip_rate": "Less than 0.2 mm/yr"
      }
    },
    {
      "type": "Feature",
      "geometry": {
        "type": "LineString",
        "coordinates": [
          [
            -114.11053486302468,
            39.999971540864316
          ],
          [
            -114.11054264243505,
            39.999937096897774
          ],
          [
            -114.11082484818155,
            39.99870877996029
          ],
          [
            -114.11135871156502,
            39.99629769833764
          ],
          [
            -114.11161812615445,
            39.99418050167597
          ],
          [
            -114.1114275234141,
            39.99181553828236
          ],
          [
            -114.11070246799545,
            39.98975168199323
          ],
          [
            -114.10986295103993,
            39.98699783794712
          ],
          [
            -114.1094051246554,
            39.984998981022855
          ],
          [
            -114.10889396888568,
            39.98336622923368
          ],
          [
            -114.10861951470177,
            39.9832062331926
          ]
        ]
      },
      "properties": {
        "fault_name": "unnamed fault zone in Ferber Hills",
        "age": "undifferentiated Quaternary",
        "slip_rate": "Less than 0.2 mm/yr"
      }
    },
    {
      "type": "Feature",
      "geometry": {
        "type": "LineString",
        "coordinates": [
          [
            -114.10391233183319,
            39.993066682189806
          ],
          [
            -114.10378230069583,
            39.99148003885637
          ],
          [
            -114.10374448162236,
            39.98927895880626
          ],
          [
            -114.10349999793127,
            39.98741732019162
          ],
          [
            -114.10325606580575,
            39.98537290480042
          ],
          [
            -114.10235544634293,
            39.983263495773635
          ],
          [
            -114.10172206399903,
            39.981584632952824
          ],
          [
            -114.10163094608315,
            39.98128741614285
          ]
        ]
      },
      "properties": {
        "fault_name": "unnamed fault zone in Ferber Hills",
        "age": "undifferentiated Quaternary",
        "slip_rate": "Less than 0.2 mm/yr"
      }
    },
    {
      "type": "Feature",
      "geometry": {
        "type": "LineString",
        "coordinates": [
          [
            -114.17062069841916,
            40.19784084007608
          ],
          [
            -114.17071179657214,
            40.19673807518373
          ],
          [
            -114.17088733995506,
            40.19533420273557
          ],
          [
            -114.17091787369158,
            40.19349978289491
          ],
          [
            -114.17070450674358,
            40.1913442537348
          ],
          [
            -114.1705517113986,
            40.19016927015753
          ],
          [
            -114.17021613135117,
            40.189044286313255
          ],
          [
            -114.16979610787041,
            40.1881704096736
          ],
          [
            -114.16880438755967,
            40.18617543976439
          ],
          [
            -114.16829324526468,
            40.1848899040704
          ],
          [
            -114.16799544386653,
            40.18381047531194
          ],
          [
            -114.16757596925642,
            40.18229216170396
          ],
          [
            -114.16733205958879,
            40.181258287247566
          ],
          [
            -114.16703426088559,
            40.180178859043025
          ],
          [
            -114.16693534559302,
            40.178507769261586
          ],
          [
            -114.16685144564042,
            40.17767666921823
          ],
          [
            -114.16669865299038,
            40.17682556932964
          ],
          [
            -114.16681308667948,
            40.175658360054946
          ],
          [
            -114.16630194079123,
            40.17416282722866
          ],
          [
            -114.1660041465796,
            40.17347672374522
          ],
          [
            -114.16558467107114,
            40.17200397019052
          ],
          [
            -114.16510409215708,
            40.17118009469851
          ],
          [
            -114.16473740255306,
            40.1703978823302
          ],
          [
            -114.1642873807317,
            40.16961233927793
          ],
          [
            -114.16408125240827,
            40.168582353234946
          ],
          [
            -114.164432347259,
            40.16661015409472
          ],
          [
            -114.16470734672028,
            40.165892940804774
          ]
        ]
      },
      "properties": {
        "fault_name": "unnamed fault zone in Ferber Hills",
        "age": "undifferentiated Quaternary",
        "slip_rate": "Less than 0.2 mm/yr"
      }
    },
    {
      "type": "Feature",
      "geometry": {
        "type": "LineString",
        "coordinates": [
          [
            -114.15749611089552,
            40.083115152273855
          ],
          [
            -114.15698497219383,
            40.082107944741296
          ],
          [
            -114.15641271661177,
            40.08070796626075
          ],
          [
            -114.15593212512125,
            40.07900687931065
          ],
          [
            -114.15569543701021,
            40.07778967429681
          ],
          [
            -114.15554264256353,
            40.07677524409488
          ],
          [
            -114.15571818594645,
            40.07530637302002
          ],
          [
            -114.15598540240416,
            40.07429582812985
          ],
          [
            -114.1559853997092,
            40.07402083178941
          ]
        ]
      },
      "properties": {
        "fault_name": "unnamed fault zone in Ferber Hills",
        "age": "undifferentiated Quaternary",
        "slip_rate": "Less than 0.2 mm/yr"
      }
    },
    {
      "type": "Feature",
      "geometry": {
        "type": "LineString",
        "coordinates": [
          [
            -114.15240005362868,
            40.14440105483031
          ],
          [
            -114.1525144873178,
            40.143161626996196
          ],
          [
            -114.15272058779343,
            40.141902752068965
          ],
          [
            -114.15272057342037,
            40.14073165767705
          ],
          [
            -114.15278167323274,
            40.13966722478099
          ],
          [
            -114.15298777819994,
            40.13868334886041
          ],
          [
            -114.15304888070727,
            40.13787835798929
          ],
          [
            -114.15292664155665,
            40.13687115000823
          ],
          [
            -114.15307941534209,
            40.13603949280604
          ]
        ]
      },
      "properties": {
        "fault_name": "unnamed fault zone in Ferber Hills",
        "age": "undifferentiated Quaternary",
        "slip_rate": "Less than 0.2 mm/yr"
      }
    },
    {
      "type": "Feature",
      "geometry": {
        "type": "LineString",
        "coordinates": [
          [
            -114.14763846968484,
            40.072189794129486
          ],
          [
            -114.14784457644868,
            40.07124424979949
          ],
          [
            -114.14799679238028,
            40.070515369789085
          ],
          [
            -114.14814177867052,
            40.0689742773292
          ],
          [
            -114.1480812097625,
            40.0680548449608
          ],
          [
            -114.14828674968939,
            40.06626208880807
          ],
          [
            -114.1482867317231,
            40.06476655401285
          ],
          [
            -114.14816504323974,
            40.06350768170137
          ],
          [
            -114.14819502720731,
            40.062062143673685
          ],
          [
            -114.14807334680881,
            40.0610743803432
          ],
          [
            -114.14777554810561,
            40.06015105986544
          ],
          [
            -114.1474783081545,
            40.05946440392252
          ],
          [
            -114.14705828287711,
            40.05831608779478
          ],
          [
            -114.14675326531228,
            40.05757998887059
          ],
          [
            -114.14663103155156,
            40.057095550928885
          ]
        ]
      },
      "properties": {
        "fault_name": "unnamed fault zone in Ferber Hills",
        "age": "undifferentiated Quaternary",
        "slip_rate": "Less than 0.2 mm/yr"
      }
    },
    {
      "type": "Feature",
      "geometry": {
        "type": "LineString",
        "coordinates": [
          [
            -114.14444927255978,
            40.05452837678843
          ],
          [
            -114.14450981900991,
            40.05372338613695
          ],
          [
            -114.14456369816403,
            40.05283061932403
          ],
          [
            -114.1446548017069,
            40.05195729787109
          ],
          [
            -114.14420476910573,
            40.05039343176693
          ],
          [
            -114.14386916929539,
            40.04752458208441
          ],
          [
            -114.14360192229499,
            40.046048492241866
          ],
          [
            -114.14315189957532,
            40.045201284337516
          ],
          [
            -114.14225184784775,
            40.043206316301244
          ],
          [
            -114.14171737720314,
            40.042286886262
          ],
          [
            -114.14111456093511,
            40.04061246632459
          ],
          [
            -114.14075620769691,
            40.03984970204019
          ],
          [
            -114.14039785356042,
            40.0389074956783
          ],
          [
            -114.14030618138398,
            40.038746941330416
          ]
        ]
      },
      "properties": {
        "fault_name": "unnamed fault zone in Ferber Hills",
        "age": "undifferentiated Quaternary",
        "slip_rate": "Less than 0.2 mm/yr"
      }
    },
    {
      "type": "Feature",
      "geometry": {
        "type": "LineString",
        "coordinates": [
          [
            -114.1320276886112,
            39.999689175247305
          ],
          [
            -114.13307269967953,
            39.998559740328105
          ],
          [
            -114.13398825183732,
            39.996793649323294
          ],
          [
            -114.13466713295206,
            39.99518366769363
          ],
          [
            -114.13510989818255,
            39.9936425747902
          ],
          [
            -114.13584987910964,
            39.9913003816805
          ],
          [
            -114.13584987910964,
            39.991273717305425
          ]
        ]
      },
      "properties": {
        "fault_name": "unnamed fault zone in Ferber Hills",
        "age": "undifferentiated Quaternary",
        "slip_rate": "Less than 0.2 mm/yr"
      }
    },
    {
      "type": "Feature",
      "geometry": {
        "type": "LineString",
        "coordinates": [
          [
            -114.12687792287015,
            40.03076324310255
          ],
          [
            -114.12690846558979,
            40.02963770173286
          ],
          [
            -114.12705345996487,
            40.028741603225875
          ],
          [
            -114.126992335898,
            40.027932724275466
          ],
          [
            -114.12672509338918,
            40.02683385273439
          ],
          [
            -114.12657229804418,
            40.02573553512861
          ],
          [
            -114.12632838837655,
            40.02454166269614
          ],
          [
            -114.12588613608408,
            40.02320224030521
          ],
          [
            -114.12551944558173,
            40.02221836677029
          ]
        ]
      },
      "properties": {
        "fault_name": "unnamed fault zone in Ferber Hills",
        "age": "undifferentiated Quaternary",
        "slip_rate": "Less than 0.2 mm/yr"
      }
    },
    {
      "type": "Feature",
      "geometry": {
        "type": "LineString",
        "coordinates": [
          [
            -114.1161881228044,
            39.98648280469302
          ],
          [
            -114.11669143897664,
            39.98464394020273
          ],
          [
            -114.11682863328008,
            39.98287396169966
          ],
          [
            -114.1168824836881,
            39.9805778833059
          ],
          [
            -114.11696634770809,
            39.978902907070655
          ],
          [
            -114.11702745111371,
            39.9783690238076
          ]
        ]
      },
      "properties": {
        "fault_name": "unnamed fault zone in Ferber Hills",
        "age": "undifferentiated Quaternary",
        "slip_rate": "Less than 0.2 mm/yr"
      }
    },
    {
      "type": "Feature",
      "geometry": {
        "type": "LineString",
        "coordinates": [
          [
            -114.11364066774529,
            40.05926239324717
          ],
          [
            -114.11206890974718,
            40.05544801027341
          ],
          [
            -114.11116108040588,
            40.05331915480771
          ],
          [
            -114.11013102269378,
            40.05094641621779
          ],
          [
            -114.10955098410807,
            40.04911922121333
          ],
          [
            -114.10885705441572,
            40.04740647117952
          ]
        ]
      },
      "properties": {
        "fault_name": "unnamed fault zone in Ferber Hills",
        "age": "undifferentiated Quaternary",
        "slip_rate": "Less than 0.2 mm/yr"
      }
    },
    {
      "type": "Feature",
      "geometry": {
        "type": "LineString",
        "coordinates": [
          [
            -114.10763586036396,
            40.043382088845625
          ],
          [
            -114.10621689591422,
            40.040506024726824
          ],
          [
            -114.10472902888556,
            40.03664553076521
          ],
          [
            -114.10370674878716,
            40.034333902285155
          ],
          [
            -114.10334061524028,
            40.03326169725207
          ]
        ]
      },
      "properties": {
        "fault_name": "unnamed fault zone in Ferber Hills",
        "age": "undifferentiated Quaternary",
        "slip_rate": "Less than 0.2 mm/yr"
      }
    },
    {
      "type": "Feature",
      "geometry": {
        "type": "LineString",
        "coordinates": [
          [
            -114.09370621076756,
            40.199118945751366
          ],
          [
            -114.09337840923219,
            40.19780674382735
          ],
          [
            -114.09308061232562,
            40.19695620182414
          ],
          [
            -114.09256947362388,
            40.1958573282333
          ],
          [
            -114.09221055893865,
            40.19467845670602
          ],
          [
            -114.09193609487325,
            40.19371347273359
          ],
          [
            -114.09163829796668,
            40.19282070815262
          ],
          [
            -114.09154717466089,
            40.19206571879636
          ],
          [
            -114.0913716043285,
            40.191215176836565
          ]
        ]
      },
      "properties": {
        "fault_name": "unnamed fault zone in Ferber Hills",
        "age": "undifferentiated Quaternary",
        "slip_rate": "Less than 0.2 mm/yr"
      }
    },
    {
      "type": "Feature",
      "geometry": {
        "type": "LineString",
        "coordinates": [
          [
            -114.08834264419225,
            40.19277905771914
          ],
          [
            -114.08822039875344,
            40.19114241430092
          ],
          [
            -114.08798371243903,
            40.19013187271873
          ],
          [
            -114.08770924657699,
            40.188937444758785
          ],
          [
            -114.0875336762446,
            40.1881363463063
          ],
          [
            -114.08732032636463,
            40.187289690760835
          ],
          [
            -114.08732031558483,
            40.18634748388576
          ],
          [
            -114.08722863442526,
            40.1853824966693
          ],
          [
            -114.08678582427899,
            40.18379918784256
          ],
          [
            -114.0866335867878,
            40.18289920119331
          ]
        ]
      },
      "properties": {
        "fault_name": "unnamed fault zone in Ferber Hills",
        "age": "undifferentiated Quaternary",
        "slip_rate": "Less than 0.2 mm/yr"
      }
    },
    {
      "type": "Feature",
      "geometry": {
        "type": "LineString",
        "coordinates": [
          [
            -114.08579409588343,
            40.18110589468606
          ],
          [
            -114.08543573006881,
            40.179294255331776
          ],
          [
            -114.08519126434405,
            40.178050385328675
          ],
          [
            -114.08504624481616,
            40.17676873492553
          ],
          [
            -114.08513011781928,
            40.175136537324896
          ],
          [
            -114.08501565268914,
            40.17385044308122
          ],
          [
            -114.08471063422601,
            40.172954346099125
          ],
          [
            -114.084504501411,
            40.171668809054694
          ],
          [
            -114.08429115063272,
            40.17079493305327
          ],
          [
            -114.08429114075125,
            40.16997105524034
          ],
          [
            -114.08419946228662,
            40.169139400337464
          ],
          [
            -114.08393221798116,
            40.16797219478093
          ],
          [
            -114.08384054041484,
            40.167209429278216
          ]
        ]
      },
      "properties": {
        "fault_name": "unnamed fault zone in Ferber Hills",
        "age": "undifferentiated Quaternary",
        "slip_rate": "Less than 0.2 mm/yr"
      }
    },
    {
      "type": "Feature",
      "geometry": {
        "type": "LineString",
        "coordinates": [
          [
            -114.05601615424557,
            40.19470140130591
          ],
          [
            -114.05676338008541,
            40.1930003090137
          ],
          [
            -114.05727448734609,
            40.19144033025539
          ],
          [
            -114.05790060501428,
            40.19031867511114
          ],
          [
            -114.05823615901058,
            40.18942201879824
          ],
          [
            -114.05873948955583,
            40.187995371258445
          ],
          [
            -114.05937282518735,
            40.186690942201395
          ],
          [
            -114.05976171306034,
            40.18549317873613
          ],
          [
            -114.060059490204,
            40.18466541176026
          ],
          [
            -114.06015113363433,
            40.1824832188279
          ],
          [
            -114.06027279157496,
            40.18154100901981
          ],
          [
            -114.06021220470062,
            40.178947156954735
          ],
          [
            -114.06044830980505,
            40.17782161567761
          ],
          [
            -114.06044829992359,
            40.17692551828439
          ],
          [
            -114.06063162810676,
            40.176101640766326
          ],
          [
            -114.06078439740062,
            40.174880544797446
          ],
          [
            -114.06095938292975,
            40.173293899336635
          ],
          [
            -114.06131826976723,
            40.17219502402342
          ]
        ]
      },
      "properties": {
        "fault_name": "unnamed fault zone in Ferber Hills",
        "age": "undifferentiated Quaternary",
        "slip_rate": "Less than 0.2 mm/yr"
      }
    },
    {
      "type": "Feature",
      "geometry": {
        "type": "LineString",
        "coordinates": [
          [
            -113.9264362541112,
            40.12840160977276
          ],
          [
            -113.92703126132447,
            40.12724217989098
          ],
          [
            -113.92888575597341,
            40.12586885697177
          ],
          [
            -113.92932798490969,
            40.1250599790124
          ],
          [
            -113.92954909982699,
            40.12465942697695
          ]
        ]
      },
      "properties": {
        "fault_name": "Deep Creek Range (northwest side) fault zone",
        "age": "late Quaternary",
        "slip_rate": "Less than 0.2 mm/yr"
      }
    },
    {
      "type": "Feature",
      "geometry": {
        "type": "LineString",
        "coordinates": [
          [
            -113.93519503474387,
            40.09144543288337
          ],
          [
            -113.93518720772283,
            40.087261049326
          ],
          [
            -113.93392048525583,
            40.08640662193693
          ],
          [
            -113.93286764896305,
            40.08457942871561
          ],
          [
            -113.93279875626561,
            40.084457208768164
          ],
          [
            -113.93336373998547,
            40.08129114102336
          ],
          [
            -113.93353151294117,
            40.08033726466354
          ],
          [
            -113.93420263890006,
            40.079593383715874
          ],
          [
            -113.93441651429447,
            40.07770507681722
          ],
          [
            -113.93478261999357,
            40.07609898670402
          ],
          [
            -113.93396646103209,
            40.0743829037946
          ],
          [
            -113.9352253753426,
            40.07266625726707
          ],
          [
            -113.93551481881534,
            40.07180015708989
          ],
          [
            -113.93469085259572,
            40.06762688615563
          ],
          [
            -113.93498863512926,
            40.06705467094123
          ],
          [
            -113.9366136623254,
            40.06435803700098
          ],
          [
            -113.93832260294886,
            40.063442487256125
          ],
          [
            -113.93928372394606,
            40.06132140175628
          ],
          [
            -113.93942146173026,
            40.05731201528194
          ],
          [
            -113.93926866997855,
            40.05662924580081
          ],
          [
            -113.93978755934451,
            40.05507648909178
          ],
          [
            -113.94044365289545,
            40.05141487332016
          ],
          [
            -113.94029085305885,
            40.04986989473926
          ],
          [
            -113.94051195000986,
            40.048034922266794
          ],
          [
            -113.94154195382306,
            40.04505162689931
          ]
        ]
      },
      "properties": {
        "fault_name": "Deep Creek Range (northwest side) fault zone",
        "age": "late Quaternary",
        "slip_rate": "Less than 0.2 mm/yr"
      }
    },
    {
      "type": "Feature",
      "geometry": {
        "type": "LineString",
        "coordinates": [
          [
            -113.93497370243428,
            40.12133333872365
          ],
          [
            -113.93452366713818,
            40.11973114193892
          ],
          [
            -113.93228075713006,
            40.115267882312345
          ],
          [
            -113.93079290627107,
            40.1136084677819
          ],
          [
            -113.93048732995413,
            40.112692926204176
          ],
          [
            -113.93078510440283,
            40.11149127734252
          ],
          [
            -113.93346296609512,
            40.1104007236593
          ],
          [
            -113.93591248143206,
            40.10884795821385
          ],
          [
            -113.93724751179323,
            40.10747463819787
          ],
          [
            -113.9384297629791,
            40.10626909416979
          ],
          [
            -113.93865141868221,
            40.104548562906714
          ],
          [
            -113.93951300724424,
            40.09504647428516
          ]
        ]
      },
      "properties": {
        "fault_name": "Deep Creek Range (northwest side) fault zone",
        "age": "late Quaternary",
        "slip_rate": "Less than 0.2 mm/yr"
      }
    },
    {
      "type": "Feature",
      "geometry": {
        "type": "LineString",
        "coordinates": [
          [
            -113.92639083708707,
            40.14063921426767
          ],
          [
            -113.92668805458027,
            40.13932312124609
          ],
          [
            -113.92653581708909,
            40.1385220222205
          ],
          [
            -113.92601690167196,
            40.13783536693087
          ],
          [
            -113.92556687625732,
            40.13691593826085
          ],
          [
            -113.92563520211785,
            40.13606150467574
          ],
          [
            -113.92563519313467,
            40.13526040634337
          ],
          [
            -113.92585629906883,
            40.13422652978149
          ],
          [
            -113.92659687378233,
            40.13360098113891
          ],
          [
            -113.92623018866986,
            40.13308265515447
          ],
          [
            -113.92632184557493,
            40.132117113233875
          ]
        ]
      },
      "properties": {
        "fault_name": "Deep Creek Range (northwest side) fault zone",
        "age": "late Quaternary",
        "slip_rate": "Less than 0.2 mm/yr"
      }
    },
    {
      "type": "Feature",
      "geometry": {
        "type": "LineString",
        "coordinates": [
          [
            -113.87913923844502,
            39.733665359865846
          ],
          [
            -113.87682714109204,
            39.73518473776217
          ],
          [
            -113.87565524837972,
            39.73670224188751
          ],
          [
            -113.8725584061507,
            39.74133772972318
          ],
          [
            -113.8670093716052,
            39.746044499138996
          ],
          [
            -113.86695905157623,
            39.74731796024603
          ],
          [
            -113.86577074844031,
            39.748026295734846
          ],
          [
            -113.86559347041056,
            39.749324529051776
          ],
          [
            -113.8646559858851,
            39.74951264496745
          ],
          [
            -113.86436723142019,
            39.75096880133775
          ],
          [
            -113.86599756855797,
            39.75335160433705
          ],
          [
            -113.8670983964465,
            39.755567192114356
          ],
          [
            -113.86931536670248,
            39.758201472168686
          ],
          [
            -113.86910930934597,
            39.76180254419159
          ],
          [
            -113.86889544742627,
            39.763690853758675
          ],
          [
            -113.86794210943269,
            39.76523194972167
          ],
          [
            -113.86506539217754,
            39.76735693478769
          ]
        ]
      },
      "properties": {
        "fault_name": "Deep Creek Range (east side) faults",
        "age": "middle and late Quaternary",
        "slip_rate": "Less than 0.2 mm/yr"
      }
    },
    {
      "type": "Feature",
      "geometry": {
        "type": "LineString",
        "coordinates": [
          [
            -113.87217647842449,
            39.75316652179469
          ],
          [
            -113.87322154788335,
            39.75545149332034
          ],
          [
            -113.87360325821723,
            39.75739313508652
          ],
          [
            -113.87302327892033,
            39.75967422077171
          ],
          [
            -113.8721460857235,
            39.76293974066088
          ]
        ]
      },
      "properties": {
        "fault_name": "Deep Creek Range (east side) faults",
        "age": "middle and late Quaternary",
        "slip_rate": "Less than 0.2 mm/yr"
      }
    },
    {
      "type": "Feature",
      "geometry": {
        "type": "LineString",
        "coordinates": [
          [
            -113.85802344656304,
            39.7630881228418
          ],
          [
            -113.86002241456418,
            39.764282544213856
          ],
          [
            -113.86113636594068,
            39.76605252024494
          ],
          [
            -113.86129640979169,
            39.7685091582054
          ],
          [
            -113.86100699326839,
            39.77067968811825
          ],
          [
            -113.858725293108,
            39.77285744885615
          ],
          [
            -113.85637583033075,
            39.77600853091713
          ]
        ]
      },
      "properties": {
        "fault_name": "Deep Creek Range (east side) faults",
        "age": "middle and late Quaternary",
        "slip_rate": "Less than 0.2 mm/yr"
      }
    },
    {
      "type": "Feature",
      "geometry": {
        "type": "LineString",
        "coordinates": [
          [
            -113.85602436717079,
            39.754852668913976
          ],
          [
            -113.8585117015812,
            39.75731707503655
          ],
          [
            -113.85896952167754,
            39.759087053322915
          ],
          [
            -113.85925956881817,
            39.761455913695656
          ],
          [
            -113.85802344656304,
            39.7630881228418
          ]
        ]
      },
      "properties": {
        "fault_name": "Deep Creek Range (east side) faults",
        "age": "middle and late Quaternary",
        "slip_rate": "Less than 0.2 mm/yr"
      }
    },
    {
      "type": "Feature",
      "geometry": {
        "type": "LineString",
        "coordinates": [
          [
            -113.85602436717079,
            39.754852668913976
          ],
          [
            -113.85584881929628,
            39.75572210327697
          ],
          [
            -113.85586443740581,
            39.75943761471468
          ],
          [
            -113.85802344656304,
            39.7630881228418
          ]
        ]
      },
      "properties": {
        "fault_name": "Deep Creek Range (east side) faults",
        "age": "middle and late Quaternary",
        "slip_rate": "Less than 0.2 mm/yr"
      }
    },
    {
      "type": "Feature",
      "geometry": {
        "type": "LineString",
        "coordinates": [
          [
            -113.85802344656304,
            39.7630881228418
          ],
          [
            -113.8555134063355,
            39.76509477225008
          ],
          [
            -113.85441452958777,
            39.767955854160824
          ],
          [
            -113.85472011488787,
            39.769268059801846
          ],
          [
            -113.85561239618823,
            39.7711563683144
          ],
          [
            -113.85362905258481,
            39.77424245004896
          ],
          [
            -113.84994398542291,
            39.77699298677734
          ],
          [
            -113.84891396274513,
            39.77753075974801
          ],
          [
            -113.84454997943422,
            39.77980797226324
          ],
          [
            -113.84211604357922,
            39.7814674050805
          ],
          [
            -113.8395982508908,
            39.78532403600618
          ],
          [
            -113.83953713940032,
            39.785415701267006
          ],
          [
            -113.83695818581408,
            39.786163480046746
          ],
          [
            -113.8345170203177,
            39.78748680631209
          ],
          [
            -113.83318921600467,
            39.78828791283648
          ],
          [
            -113.83127420095671,
            39.79109566423836
          ],
          [
            -113.8295808496967,
            39.7933273097412
          ],
          [
            -113.82707804809371,
            39.79670339124183
          ],
          [
            -113.82361465460123,
            39.79974336666767
          ],
          [
            -113.81844901742572,
            39.804721662254465
          ],
          [
            -113.8175567792445,
            39.805572208699765
          ],
          [
            -113.81653398530977,
            39.8065527579662
          ],
          [
            -113.8135050476314,
            39.80953217677354
          ],
          [
            -113.81277282635175,
            39.811019384282915
          ],
          [
            -113.81034670224649,
            39.815311008733175
          ],
          [
            -113.80666167281383,
            39.82114762103616
          ],
          [
            -113.80350332922552,
            39.827152005727996
          ],
          [
            -113.80092444840284,
            39.83309861409372
          ],
          [
            -113.79753662658194,
            39.83768023828207
          ],
          [
            -113.79407324656417,
            39.84202908903054
          ]
        ]
      },
      "properties": {
        "fault_name": "Deep Creek Range (east side) faults",
        "age": "middle and late Quaternary",
        "slip_rate": "Less than 0.2 mm/yr"
      }
    },
    {
      "type": "Feature",
      "geometry": {
        "type": "LineString",
        "coordinates": [
          [
            -113.81214774803433,
            39.844393997946916
          ],
          [
            -113.81421556112223,
            39.84233401430853
          ],
          [
            -113.81509275791235,
            39.838840163329586
          ],
          [
            -113.81559607677951,
            39.83678740833023
          ],
          [
            -113.81603885278979,
            39.8357001972823
          ],
          [
            -113.81840389594733,
            39.83363687898522
          ]
        ]
      },
      "properties": {
        "fault_name": "Deep Creek Range (east side) faults",
        "age": "middle and late Quaternary",
        "slip_rate": "Less than 0.2 mm/yr"
      }
    },
    {
      "type": "Feature",
      "geometry": {
        "type": "LineString",
        "coordinates": [
          [
            -113.80613528161692,
            39.84091905988852
          ],
          [
            -113.80893531688278,
            39.837142427227924
          ],
          [
            -113.80966027258842,
            39.83274025275153
          ],
          [
            -113.81024022942744,
            39.82856696576923
          ],
          [
            -113.81081964817558,
            39.825595333198585
          ],
          [
            -113.81243741967917,
            39.8218187038032
          ],
          [
            -113.81368853571472,
            39.81953039227916
          ]
        ]
      },
      "properties": {
        "fault_name": "Deep Creek Range (east side) faults",
        "age": "middle and late Quaternary",
        "slip_rate": "Less than 0.2 mm/yr"
      }
    },
    {
      "type": "Feature",
      "geometry": {
        "type": "LineString",
        "coordinates": [
          [
            -113.77927954163196,
            39.848910727261476
          ],
          [
            -113.78119452613721,
            39.8435396722119
          ]
        ]
      },
      "properties": {
        "fault_name": "Deep Creek Range (east side) faults",
        "age": "middle and late Quaternary",
        "slip_rate": "Less than 0.2 mm/yr"
      }
    }
  ]
}