{
  "type": "FeatureCollection",
  "features": [
    {
      "type": "Feature",
      "geometry": {
        "type": "LineString",
        "coordinates": [
          [
            -80.5474512415017,
            36.4890246979254
          ],
          [
            -80.5480216007402,
            36.4956583161267
          ],
          [
            -80.545894642574,
            36.5026730786325
          ],
          [
            -80.5437108866273,
            36.5069405043676
          ],
          [
            -80.5408139276339,
            36.5111036109375
          ],
          [
            -80.5344232839566,
            36.5181770790721
          ],
          [
            -80.5302738632513,
            36.523616566938
          ],
          [
            -80.5258160275528,
            36.5279149822396
          ],
          [
            -80.5192436241507,
            36.5332728551007
          ],
          [
            -80.5122354255465,
            36.5382924296759
          ],
          [
            -80.5020056051271,
            36.545646321199
          ],
          [
            -80.493299864622,
            36.5510312827307
          ],
          [
            -80.4905499319928,
            36.5528759381626
          ]
        ]
      },
      "properties": {
        "STATE": "NC",
        "DESCRIPTION": "Thrust fault, certain, (teeth on right from origin)",
        "RuleID": 63
      }
    },
    {
      "type": "Feature",
      "geometry": {
        "type": "LineString",
        "coordinates": [
          [
            -81.2518241715361,
            36.1378495206685
          ],
          [
            -81.2485631585957,
            36.1415189569686
          ],
          [
            -81.2419576226311,
            36.1457910410549
          ],
          [
            -81.2350888874747,
            36.1502286945025
          ],
          [
            -81.2252500057821,
            36.1559673418744
          ],
          [
            -81.2213352690464,
            36.1582481076396
          ],
          [
            -81.2122579107797,
            36.1631726570501
          ],
          [
            -81.1922580420762,
            36.1724442372073
          ],
          [
            -81.1677149725695,
            36.1830828276334
          ],
          [
            -81.1499769961744,
            36.1907443616246
          ],
          [
            -81.135360119216,
            36.1965725237076
          ],
          [
            -81.1186133250408,
            36.2030833449761
          ],
          [
            -81.0913584608802,
            36.212898685166
          ],
          [
            -81.0731875189761,
            36.219285751683
          ],
          [
            -81.0673632855433,
            36.2215677839551
          ],
          [
            -81.0587013630612,
            36.2253343925185
          ],
          [
            -81.0413719386607,
            36.2319483770152
          ],
          [
            -81.0247529837336,
            36.2383317796681
          ],
          [
            -81.010972025978,
            36.2435734136058
          ],
          [
            -81.0041458521015,
            36.2468825464714
          ],
          [
            -80.9973299917827,
            36.2485847356494
          ],
          [
            -80.9834090136238,
            36.2526754014883
          ],
          [
            -80.9696255756197,
            36.2574534645344
          ],
          [
            -80.9586838556089,
            36.2608618434103
          ],
          [
            -80.9475971825456,
            36.2651869501901
          ],
          [
            -80.9347980034454,
            36.2704227834795
          ],
          [
            -80.9256977956311,
            36.2740638348865
          ],
          [
            -80.9231367023494,
            36.2750881814402
          ],
          [
            -80.9185829921555,
            36.2774818780635
          ],
          [
            -80.9116095538612,
            36.2815882081683
          ],
          [
            -80.9046299971415,
            36.2860384158811
          ],
          [
            -80.8975108476166,
            36.2899135187077
          ],
          [
            -80.8919587390361,
            36.2926472324385
          ],
          [
            -80.8856993185606,
            36.2956070253954
          ],
          [
            -80.8846181179627,
            36.2959574249298
          ],
          [
            -80.8685566970268,
            36.3001050711247
          ],
          [
            -80.8539077115852,
            36.307428318677
          ],
          [
            -80.8322974321736,
            36.316830331639
          ],
          [
            -80.8086998466899,
            36.326259987104
          ],
          [
            -80.7919767312073,
            36.3328271067426
          ],
          [
            -80.7767993656987,
            36.3387946559476
          ],
          [
            -80.7574040640798,
            36.3465444620478
          ],
          [
            -80.7396603923658,
            36.3523184364379
          ],
          [
            -80.7381550001043,
            36.352743361533
          ],
          [
            -80.7228834255769,
            36.3570445572636
          ],
          [
            -80.7049932709794,
            36.3627014078726
          ],
          [
            -80.691882972957,
            36.3665655990428
          ],
          [
            -80.679773591299,
            36.370756578878
          ],
          [
            -80.6674118432332,
            36.3764390750067
          ],
          [
            -80.6576185896687,
            36.3828835153237
          ],
          [
            -80.6505007355144,
            36.3881426768424
          ],
          [
            -80.6453600939617,
            36.3932577506928
          ],
          [
            -80.6385900117898,
            36.4014883875895
          ],
          [
            -80.6339046031854,
            36.4078557546224
          ],
          [
            -80.6300758352225,
            36.4144393760459
          ],
          [
            -80.6265912891,
            36.4237661680485
          ],
          [
            -80.6250976908198,
            36.4268799274493
          ],
          [
            -80.6227657892081,
            36.4305787000149
          ],
          [
            -80.6158234883182,
            36.4377796461795
          ],
          [
            -80.609681257563,
            36.4425637366948
          ],
          [
            -80.6026863001261,
            36.447588991226
          ],
          [
            -80.5964022801847,
            36.4524888467175
          ],
          [
            -80.5909672157977,
            36.4573765189033
          ],
          [
            -80.585957234203,
            36.4621432682693
          ],
          [
            -80.5803783055215,
            36.4670322875923
          ],
          [
            -80.5742586979384,
            36.473188496275
          ],
          [
            -80.5690299541142,
            36.4745220860072
          ],
          [
            -80.5654979967077,
            36.4754880181224
          ],
          [
            -80.5612822237405,
            36.4778376884129
          ],
          [
            -80.5520474087708,
            36.4844943867376
          ],
          [
            -80.5474512415017,
            36.4890246979254
          ],
          [
            -80.5415919063992,
            36.494259215977
          ],
          [
            -80.5382526295362,
            36.4975120293594
          ],
          [
            -80.5299792418892,
            36.5096503165715
          ],
          [
            -80.5243285593761,
            36.5180871871896
          ],
          [
            -80.5198845990554,
            36.5233013017801
          ],
          [
            -80.5151361960917,
            36.5273745271236
          ],
          [
            -80.5101012332473,
            36.5314510619357
          ],
          [
            -80.5049058771073,
            36.5346138372089
          ],
          [
            -80.4968610181736,
            36.5375858042828
          ],
          [
            -80.487411121372,
            36.5413770951789
          ],
          [
            -80.4782408566437,
            36.5450502252461
          ],
          [
            -80.4686321619544,
            36.5482699979389
          ],
          [
            -80.4602721668325,
            36.5514363638525
          ]
        ]
      },
      "properties": {
        "STATE": "NC",
        "DESCRIPTION": "Thrust fault, certain, (teeth on right from origin)",
        "RuleID": 63
      }
    },
    {
      "type": "Feature",
      "geometry": {
        "type": "LineString",
        "coordinates": [
          [
            -80.735262064665,
            36.9525220768013
          ],
          [
            -80.73411361349,
            36.949629454665
          ],
          [
            -80.7329675958511,
            36.9469596988167
          ]
        ]
      },
      "properties": {
        "STATE": "VA",
        "DESCRIPTION": "Fault, sense of displacement unknown or undefined, certain",
        "RuleID": 22
      }
    },
    {
      "type": "Feature",
      "geometry": {
        "type": "LineString",
        "coordinates": [
          [
            -80.9369142213541,
            36.8182049070422
          ],
          [
            -80.9438151422488,
            36.8121206020369
          ],
          [
            -80.9495940727435,
            36.8055980053222
          ]
        ]
      },
      "properties": {
        "STATE": "VA",
        "DESCRIPTION": "Fault, sense of displacement unknown or undefined, certain",
        "RuleID": 22
      }
    },
    {
      "type": "Feature",
      "geometry": {
        "type": "LineString",
        "coordinates": [
          [
            -80.8619152598919,
            36.965885501111
          ],
          [
            -80.8600976006611,
            36.9656760195368
          ],
          [
            -80.8582799423287,
            36.9654664139327
          ]
        ]
      },
      "properties": {
        "STATE": "VA",
        "DESCRIPTION": "Fault, sense of displacement unknown or undefined, certain",
        "RuleID": 22
      }
    },
    {
      "type": "Feature",
      "geometry": {
        "type": "LineString",
        "coordinates": [
          [
            -80.7046664423195,
            36.8855563481628
          ],
          [
            -80.7038065785228,
            36.8834415678421
          ],
          [
            -80.702946588962,
            36.8813267239189
          ]
        ]
      },
      "properties": {
        "STATE": "VA",
        "DESCRIPTION": "Fault, sense of displacement unknown or undefined, certain",
        "RuleID": 22
      }
    },
    {
      "type": "Feature",
      "geometry": {
        "type": "LineString",
        "coordinates": [
          [
            -80.7351223748416,
            36.8884699427302
          ],
          [
            -80.7455372041922,
            36.8837085582567
          ],
          [
            -80.7559518700493,
            36.8789471908697
          ]
        ]
      },
      "properties": {
        "STATE": "VA",
        "DESCRIPTION": "Fault, sense of displacement unknown or undefined, certain",
        "RuleID": 22
      }
    },
    {
      "type": "Feature",
      "geometry": {
        "type": "LineString",
        "coordinates": [
          [
            -80.9479899340726,
            36.9708039338719
          ],
          [
            -80.9485264618592,
            36.9690147890101
          ],
          [
            -80.9490575521434,
            36.9667795266684
          ]
        ]
      },
      "properties": {
        "STATE": "VA",
        "DESCRIPTION": "Fault, sense of displacement unknown or undefined, certain",
        "RuleID": 22
      }
    },
    {
      "type": "Feature",
      "geometry": {
        "type": "LineString",
        "coordinates": [
          [
            -80.9495940727435,
            36.8055980053222
          ],
          [
            -80.9546262867431,
            36.806451797765
          ],
          [
            -80.9597024454281,
            36.8108788148416
          ],
          [
            -80.9658700922176,
            36.8132869317153
          ],
          [
            -80.9728636455877,
            36.8147948121412
          ]
        ]
      },
      "properties": {
        "STATE": "VA",
        "DESCRIPTION": "Fault, sense of displacement unknown or undefined, certain",
        "RuleID": 22
      }
    },
    {
      "type": "Feature",
      "geometry": {
        "type": "LineString",
        "coordinates": [
          [
            -80.4954078368947,
            36.5531098058751
          ],
          [
            -80.4851579606882,
            36.5582279807546
          ],
          [
            -80.4768446752662,
            36.5628641498189
          ],
          [
            -80.4690807482679,
            36.566713811472
          ],
          [
            -80.4627041021394,
            36.5699954640991
          ],
          [
            -80.4543802579195,
            36.5736239345349
          ],
          [
            -80.4418917809233,
            36.5788421629113
          ],
          [
            -80.4370451705395,
            36.5820021745435
          ],
          [
            -80.4328948362475,
            36.5851579936258
          ],
          [
            -80.4283334364749,
            36.5890988743169
          ],
          [
            -80.4233568964633,
            36.5933774391139
          ],
          [
            -80.4128339351054,
            36.6005953802739
          ],
          [
            -80.4052136505177,
            36.6053356903269
          ],
          [
            -80.3951060422994,
            36.6124379900593
          ],
          [
            -80.388314820074,
            36.6165017296193
          ],
          [
            -80.3833217690275,
            36.6191015358185
          ],
          [
            -80.3788703311304,
            36.6199091612949
          ],
          [
            -80.371350932739,
            36.6203981687866
          ],
          [
            -80.3682945614102,
            36.6214213519878
          ],
          [
            -80.3657915810425,
            36.6219942241357
          ],
          [
            -80.3609181739137,
            36.6223565411815
          ],
          [
            -80.358977166113,
            36.6234853484692
          ],
          [
            -80.3566230213165,
            36.6251755245777
          ],
          [
            -80.3535863069228,
            36.6285465025569
          ],
          [
            -80.350276648413,
            36.6325897858604
          ],
          [
            -80.3462775913133,
            36.6375310595617
          ],
          [
            -80.3425428931303,
            36.6407937848727
          ],
          [
            -80.3397729738843,
            36.6428210806971
          ],
          [
            -80.3368628572669,
            36.6447373752025
          ],
          [
            -80.3315864991393,
            36.6470018544123
          ],
          [
            -80.3274144929912,
            36.6480303414474
          ],
          [
            -80.3236643240223,
            36.6495038247085
          ],
          [
            -80.3172784737554,
            36.6524444805888
          ],
          [
            -80.3127001434345,
            36.6549282011138
          ],
          [
            -80.3104815436346,
            36.6562814348562
          ],
          [
            -80.3084068925708,
            36.6581927881147
          ],
          [
            -80.3053576314074,
            36.6602211378085
          ],
          [
            -80.3007807294079,
            36.6629281037827
          ],
          [
            -80.2956444842101,
            36.6654142552573
          ],
          [
            -80.2881488058339,
            36.6691420741987
          ],
          [
            -80.2831497441598,
            36.6714036626123
          ],
          [
            -80.2789786551915,
            36.6726547016668
          ],
          [
            -80.2755078541912,
            36.6743492984891
          ],
          [
            -80.2710721305234,
            36.6773899373885
          ],
          [
            -80.2674689474946,
            36.6799792065767
          ],
          [
            -80.2638637603244,
            36.6823448549603
          ],
          [
            -80.2576156164006,
            36.6853942964608
          ],
          [
            -80.2523280778411,
            36.6865387643996
          ],
          [
            -80.2459271574369,
            36.6879122622128
          ],
          [
            -80.2414721631096,
            36.6886052185762
          ],
          [
            -80.2375843183403,
            36.6905246543962
          ],
          [
            -80.2334227748703,
            36.6931159593031
          ],
          [
            -80.2278697365336,
            36.6960493933699
          ],
          [
            -80.2242560881317,
            36.6974083994275
          ],
          [
            -80.2196742759408,
            36.6997779613886
          ],
          [
            -80.2142601764358,
            36.7027102107293
          ],
          [
            -80.2084243089218,
            36.705197407192
          ],
          [
            -80.2020315434238,
            36.7077987932955
          ],
          [
            -80.196328931999,
            36.7095026238265
          ],
          [
            -80.1914600398029,
            36.7108670790172
          ],
          [
            -80.1858898077116,
            36.7116760473021
          ],
          [
            -80.1793412842248,
            36.7121544010121
          ],
          [
            -80.1748854095485,
            36.7128460493163
          ],
          [
            -80.1714062021138,
            36.7136446904166
          ],
          [
            -80.1677907373184,
            36.7148910788859
          ],
          [
            -80.1633452983708,
            36.7170350863014
          ],
          [
            -80.1576491799689,
            36.7197436591089
          ],
          [
            -80.1534766285434,
            36.7211039887165
          ],
          [
            -80.1479172013883,
            36.7234764418135
          ],
          [
            -80.1426396610779,
            36.7262943263342
          ],
          [
            -80.1316735554004,
            36.7330487173744
          ],
          [
            -80.1270932883118,
            36.7359746605351
          ],
          [
            -80.121966932667,
            36.7405788428089
          ],
          [
            -80.1150409299113,
            36.7470900867877
          ],
          [
            -80.1056253694149,
            36.75662852934
          ],
          [
            -80.1017394308706,
            36.7593269468135
          ],
          [
            -80.0979883303488,
            36.7613544861557
          ],
          [
            -80.0925643466808,
            36.7635009167737
          ],
          [
            -80.0865856982405,
            36.7660966067861
          ]
        ]
      },
      "properties": {
        "STATE": "VA",
        "DESCRIPTION": "Fault, sense of displacement unknown or undefined, certain",
        "RuleID": 22
      }
    },
    {
      "type": "Feature",
      "geometry": {
        "type": "LineString",
        "coordinates": [
          [
            -80.93752212029,
            36.8452218471002
          ],
          [
            -80.928373701691,
            36.8502056339619
          ],
          [
            -80.9158655614716,
            36.8543217278838
          ],
          [
            -80.8966993428265,
            36.8618371724768
          ]
        ]
      },
      "properties": {
        "STATE": "VA",
        "DESCRIPTION": "Fault, sense of displacement unknown or undefined, certain",
        "RuleID": 22
      }
    },
    {
      "type": "Feature",
      "geometry": {
        "type": "LineString",
        "coordinates": [
          [
            -80.9058824570567,
            36.8363113035724
          ],
          [
            -80.9117067848126,
            36.8333634403572
          ],
          [
            -80.9169729614347,
            36.8304196417834
          ]
        ]
      },
      "properties": {
        "STATE": "VA",
        "DESCRIPTION": "Fault, sense of displacement unknown or undefined, certain",
        "RuleID": 22
      }
    },
    {
      "type": "Feature",
      "geometry": {
        "type": "LineString",
        "coordinates": [
          [
            -80.7559518700493,
            36.8789471908697
          ],
          [
            -80.7604197677773,
            36.8791388906754
          ],
          [
            -80.7651395234666,
            36.8768729138903
          ],
          [
            -80.7718002582105,
            36.8734766356866
          ],
          [
            -80.7753959636629,
            36.8705486875494
          ],
          [
            -80.7789739992536,
            36.8660577856456
          ]
        ]
      },
      "properties": {
        "STATE": "VA",
        "DESCRIPTION": "Fault, sense of displacement unknown or undefined, certain",
        "RuleID": 22
      }
    },
    {
      "type": "Feature",
      "geometry": {
        "type": "LineString",
        "coordinates": [
          [
            -80.6559953447301,
            36.9024052260994
          ],
          [
            -80.6421398762132,
            36.9123183638048
          ],
          [
            -80.6335503067391,
            36.918624443214
          ],
          [
            -80.6144372324262,
            36.9334792132178
          ]
        ]
      },
      "properties": {
        "STATE": "VA",
        "DESCRIPTION": "Fault, sense of displacement unknown or undefined, certain",
        "RuleID": 22
      }
    },
    {
      "type": "Feature",
      "geometry": {
        "type": "LineString",
        "coordinates": [
          [
            -80.7175700433849,
            36.9173862437162
          ],
          [
            -80.7101514386633,
            36.9024833268251
          ],
          [
            -80.7066870148032,
            36.8917928991513
          ],
          [
            -80.7046904551854,
            36.8877885902545
          ]
        ]
      },
      "properties": {
        "STATE": "VA",
        "DESCRIPTION": "Fault, sense of displacement unknown or undefined, certain",
        "RuleID": 22
      }
    },
    {
      "type": "Feature",
      "geometry": {
        "type": "LineString",
        "coordinates": [
          [
            -80.7128299669056,
            36.8919736908952
          ],
          [
            -80.716747121906,
            36.8928394108919
          ],
          [
            -80.7214920160501,
            36.8928065057814
          ],
          [
            -80.7242759642859,
            36.8921174364173
          ]
        ]
      },
      "properties": {
        "STATE": "VA",
        "DESCRIPTION": "Fault, sense of displacement unknown or undefined, certain",
        "RuleID": 22
      }
    },
    {
      "type": "Feature",
      "geometry": {
        "type": "LineString",
        "coordinates": [
          [
            -80.7290135596184,
            36.8914146772398
          ],
          [
            -80.7323458565716,
            36.8898288036145
          ],
          [
            -80.7351223748416,
            36.8884699427302
          ]
        ]
      },
      "properties": {
        "STATE": "VA",
        "DESCRIPTION": "Fault, sense of displacement unknown or undefined, certain",
        "RuleID": 22
      }
    },
    {
      "type": "Feature",
      "geometry": {
        "type": "LineString",
        "coordinates": [
          [
            -80.5773320249682,
            36.8233245087258
          ],
          [
            -80.5731646873646,
            36.8251376506647
          ],
          [
            -80.5674640414537,
            36.8270722168046
          ],
          [
            -80.5628779946045,
            36.8288878095819
          ],
          [
            -80.5559247836755,
            36.8311648448238
          ]
        ]
      },
      "properties": {
        "STATE": "VA",
        "DESCRIPTION": "Fault, sense of displacement unknown or undefined, certain",
        "RuleID": 22
      }
    },
    {
      "type": "Feature",
      "geometry": {
        "type": "LineString",
        "coordinates": [
          [
            -80.6157721612778,
            36.9274451127158
          ],
          [
            -80.6246511841062,
            36.9220307492668
          ],
          [
            -80.6310104038165,
            36.9159629860766
          ],
          [
            -80.6448716386192,
            36.9064971481048
          ],
          [
            -80.6507080514106,
            36.9040030385572
          ]
        ]
      },
      "properties": {
        "STATE": "VA",
        "DESCRIPTION": "Fault, sense of displacement unknown or undefined, certain",
        "RuleID": 22
      }
    },
    {
      "type": "Feature",
      "geometry": {
        "type": "LineString",
        "coordinates": [
          [
            -80.7111265742773,
            36.8893067064722
          ],
          [
            -80.7116991334899,
            36.8906421451356
          ],
          [
            -80.7128299669056,
            36.8919736908952
          ]
        ]
      },
      "properties": {
        "STATE": "VA",
        "DESCRIPTION": "Fault, sense of displacement unknown or undefined, certain",
        "RuleID": 22
      }
    },
    {
      "type": "Feature",
      "geometry": {
        "type": "LineString",
        "coordinates": [
          [
            -80.9169729614347,
            36.8304196417834
          ],
          [
            -80.9230812987542,
            36.8279157613333
          ],
          [
            -80.9300074182909,
            36.8238421590912
          ],
          [
            -80.9369142213541,
            36.8182049070422
          ]
        ]
      },
      "properties": {
        "STATE": "VA",
        "DESCRIPTION": "Fault, sense of displacement unknown or undefined, certain",
        "RuleID": 22
      }
    },
    {
      "type": "Feature",
      "geometry": {
        "type": "LineString",
        "coordinates": [
          [
            -80.9340588570532,
            36.7898602786024
          ],
          [
            -80.9467967521864,
            36.7821653084368
          ],
          [
            -80.9542890528972,
            36.7789787885559
          ],
          [
            -80.9603645406234,
            36.7740159555451
          ],
          [
            -80.9683863505835,
            36.768590480012
          ],
          [
            -80.9750465445416,
            36.7658565185207
          ],
          [
            -80.9800553026309,
            36.7649227867316
          ],
          [
            -80.9867540675523,
            36.7653160617049
          ],
          [
            -80.996275394792,
            36.7683673613947
          ],
          [
            -80.9998080995969,
            36.7686714332732
          ]
        ]
      },
      "properties": {
        "STATE": "VA",
        "DESCRIPTION": "Fault, sense of displacement unknown or undefined, certain",
        "RuleID": 22
      }
    },
    {
      "type": "Feature",
      "geometry": {
        "type": "LineString",
        "coordinates": [
          [
            -80.7559518700493,
            36.8789471908697
          ],
          [
            -80.7662113124153,
            36.8728467121827
          ],
          [
            -80.7789739992536,
            36.8660577856456
          ]
        ]
      },
      "properties": {
        "STATE": "VA",
        "DESCRIPTION": "Fault, sense of displacement unknown or undefined, certain",
        "RuleID": 22
      }
    },
    {
      "type": "Feature",
      "geometry": {
        "type": "LineString",
        "coordinates": [
          [
            -80.7329675958511,
            36.9469596988167
          ],
          [
            -80.7343453806299,
            36.945637820709
          ],
          [
            -80.7357232264942,
            36.9443158155619
          ]
        ]
      },
      "properties": {
        "STATE": "VA",
        "DESCRIPTION": "Fault, sense of displacement unknown or undefined, certain",
        "RuleID": 22
      }
    },
    {
      "type": "Feature",
      "geometry": {
        "type": "LineString",
        "coordinates": [
          [
            -80.936289676636,
            36.9273827347391
          ],
          [
            -80.9410519217399,
            36.9286846001542
          ],
          [
            -80.9458061673462,
            36.9293169819325
          ]
        ]
      },
      "properties": {
        "STATE": "VA",
        "DESCRIPTION": "Fault, sense of displacement unknown or undefined, certain",
        "RuleID": 22
      }
    },
    {
      "type": "Feature",
      "geometry": {
        "type": "LineString",
        "coordinates": [
          [
            -80.9399011780643,
            36.9487777308651
          ],
          [
            -80.9407279084,
            36.9478787470666
          ],
          [
            -80.9468459196768,
            36.9458225627284
          ],
          [
            -80.9546664558093,
            36.9459843719968
          ],
          [
            -80.9621829131165,
            36.9441399818426
          ],
          [
            -80.9696964284411,
            36.9420721602107
          ],
          [
            -80.9766541641842,
            36.9402317714819
          ],
          [
            -80.9794350563513,
            36.9393169590806
          ],
          [
            -80.9816658606627,
            36.9390760091183
          ],
          [
            -80.9827881079809,
            36.9395134269555
          ],
          [
            -80.9827992991927,
            36.9404059054081
          ]
        ]
      },
      "properties": {
        "STATE": "VA",
        "DESCRIPTION": "Fault, sense of displacement unknown or undefined, certain",
        "RuleID": 22
      }
    },
    {
      "type": "Feature",
      "geometry": {
        "type": "LineString",
        "coordinates": [
          [
            -80.9688753098809,
            36.8532369954065
          ],
          [
            -80.9566277511624,
            36.8557900025006
          ],
          [
            -80.9352226379785,
            36.8626561213232
          ],
          [
            -80.9188416755163,
            36.8697046121978
          ]
        ]
      },
      "properties": {
        "STATE": "VA",
        "DESCRIPTION": "Fault, sense of displacement unknown or undefined, certain",
        "RuleID": 22
      }
    },
    {
      "type": "Feature",
      "geometry": {
        "type": "LineString",
        "coordinates": [
          [
            -80.7099837645223,
            36.8868591322824
          ],
          [
            -80.7116512245392,
            36.8861779105675
          ],
          [
            -80.7133186225724,
            36.8854966899594
          ]
        ]
      },
      "properties": {
        "STATE": "VA",
        "DESCRIPTION": "Fault, sense of displacement unknown or undefined, certain",
        "RuleID": 22
      }
    },
    {
      "type": "Feature",
      "geometry": {
        "type": "LineString",
        "coordinates": [
          [
            -80.9216378183821,
            36.9625305225832
          ],
          [
            -80.9146783758399,
            36.9643692148441
          ],
          [
            -80.9093835869777,
            36.9653023549824
          ],
          [
            -80.907673315051,
            36.9624149427084
          ]
        ]
      },
      "properties": {
        "STATE": "VA",
        "DESCRIPTION": "Fault, sense of displacement unknown or undefined, certain",
        "RuleID": 22
      }
    },
    {
      "type": "Feature",
      "geometry": {
        "type": "LineString",
        "coordinates": [
          [
            -80.9181796638643,
            36.8147770292162
          ],
          [
            -80.9267736629312,
            36.8102434790868
          ],
          [
            -80.9370600403826,
            36.8072596794576
          ],
          [
            -80.9495940727435,
            36.8055980053222
          ]
        ]
      },
      "properties": {
        "STATE": "VA",
        "DESCRIPTION": "Fault, sense of displacement unknown or undefined, certain",
        "RuleID": 22
      }
    },
    {
      "type": "Feature",
      "geometry": {
        "type": "LineString",
        "coordinates": [
          [
            -80.7679121169972,
            36.8500608851257
          ],
          [
            -80.7706913203317,
            36.8490362605419
          ],
          [
            -80.7734704598857,
            36.8480115733435
          ]
        ]
      },
      "properties": {
        "STATE": "VA",
        "DESCRIPTION": "Fault, sense of displacement unknown or undefined, certain",
        "RuleID": 22
      }
    },
    {
      "type": "Feature",
      "geometry": {
        "type": "LineString",
        "coordinates": [
          [
            -80.72898593822,
            36.9402931596059
          ],
          [
            -80.7284141803047,
            36.939069842208
          ],
          [
            -80.727842484373,
            36.9378464592186
          ]
        ]
      },
      "properties": {
        "STATE": "VA",
        "DESCRIPTION": "Fault, sense of displacement unknown or undefined, certain",
        "RuleID": 22
      }
    },
    {
      "type": "Feature",
      "geometry": {
        "type": "LineString",
        "coordinates": [
          [
            -80.7830934737206,
            36.8850045523707
          ],
          [
            -80.7886679386735,
            36.8842947056501
          ],
          [
            -80.7928292890058,
            36.8820323559828
          ]
        ]
      },
      "properties": {
        "STATE": "VA",
        "DESCRIPTION": "Fault, sense of displacement unknown or undefined, certain",
        "RuleID": 22
      }
    },
    {
      "type": "Feature",
      "geometry": {
        "type": "LineString",
        "coordinates": [
          [
            -80.7830934737206,
            36.8850045523707
          ],
          [
            -80.7782440390335,
            36.875663068187
          ],
          [
            -80.7765570945581,
            36.8745589308055
          ],
          [
            -80.7737662751088,
            36.8745788958994
          ],
          [
            -80.768799849229,
            36.8797489774703
          ],
          [
            -80.767449046248,
            36.8837769313698
          ],
          [
            -80.7683606934293,
            36.8904674700694
          ],
          [
            -80.7675481268306,
            36.8927054719666
          ],
          [
            -80.7675951994498,
            36.8969463431124
          ],
          [
            -80.7662466422571,
            36.9011970377801
          ],
          [
            -80.7668470609216,
            36.9049872925827
          ],
          [
            -80.7652093117844,
            36.9083470196292
          ],
          [
            -80.7666620070748,
            36.9134701635321
          ],
          [
            -80.765011896221,
            36.9157137968353
          ],
          [
            -80.7591990417479,
            36.9202188349843
          ],
          [
            -80.7555771602864,
            36.9209139087382
          ],
          [
            -80.7522199368807,
            36.9202680819094
          ],
          [
            -80.7468717261069,
            36.9162885108038
          ],
          [
            -80.7398196798354,
            36.9096423813805
          ],
          [
            -80.7352731498756,
            36.9023085078912
          ],
          [
            -80.7352269692834,
            36.8980678923263
          ],
          [
            -80.7315668555235,
            36.8951916631489
          ],
          [
            -80.7290135596184,
            36.8914146772398
          ]
        ]
      },
      "properties": {
        "STATE": "VA",
        "DESCRIPTION": "Fault, sense of displacement unknown or undefined, certain",
        "RuleID": 22
      }
    },
    {
      "type": "Feature",
      "geometry": {
        "type": "LineString",
        "coordinates": [
          [
            -80.9701668563924,
            36.7321550385953
          ],
          [
            -80.9635411846907,
            36.7375708653173
          ],
          [
            -80.9580688527957,
            36.7461056041807
          ],
          [
            -80.9522651287992,
            36.7503968316514
          ],
          [
            -80.9472838160385,
            36.753564134667
          ],
          [
            -80.9315430128106,
            36.7664227772649
          ]
        ]
      },
      "properties": {
        "STATE": "VA",
        "DESCRIPTION": "Fault, sense of displacement unknown or undefined, certain",
        "RuleID": 22
      }
    },
    {
      "type": "Feature",
      "geometry": {
        "type": "LineString",
        "coordinates": [
          [
            -80.8520148067713,
            36.835156070638
          ],
          [
            -80.8561401490337,
            36.8299889778917
          ],
          [
            -80.8619522390405,
            36.8259255853072
          ],
          [
            -80.8716670633925,
            36.8216092143808
          ],
          [
            -80.8833502088213,
            36.8186173439229
          ],
          [
            -80.897825158253,
            36.8158269338805
          ]
        ]
      },
      "properties": {
        "STATE": "VA",
        "DESCRIPTION": "Fault, sense of displacement unknown or undefined, certain",
        "RuleID": 22
      }
    },
    {
      "type": "Feature",
      "geometry": {
        "type": "LineString",
        "coordinates": [
          [
            -80.8387794785327,
            36.9696273142774
          ],
          [
            -80.8468491228834,
            36.9671133259121
          ],
          [
            -80.8532483589464,
            36.9650577735406
          ],
          [
            -80.8582799423287,
            36.9654664139327
          ]
        ]
      },
      "properties": {
        "STATE": "VA",
        "DESCRIPTION": "Fault, sense of displacement unknown or undefined, certain",
        "RuleID": 22
      }
    },
    {
      "type": "Feature",
      "geometry": {
        "type": "LineString",
        "coordinates": [
          [
            -80.5590377479689,
            36.9501240261601
          ],
          [
            -80.566559185536,
            36.948291468382
          ],
          [
            -80.5985429843714,
            36.9363133865497
          ],
          [
            -80.6157721612778,
            36.9274451127158
          ]
        ]
      },
      "properties": {
        "STATE": "VA",
        "DESCRIPTION": "Fault, sense of displacement unknown or undefined, certain",
        "RuleID": 22
      }
    },
    {
      "type": "Feature",
      "geometry": {
        "type": "LineString",
        "coordinates": [
          [
            -80.6142987750915,
            36.8093504666378
          ],
          [
            -80.6376355176645,
            36.799815985641
          ],
          [
            -80.6604253721807,
            36.7916226013956
          ],
          [
            -80.6723749803807,
            36.7872977077529
          ],
          [
            -80.6818231119927,
            36.7838828088474
          ]
        ]
      },
      "properties": {
        "STATE": "VA",
        "DESCRIPTION": "Fault, sense of displacement unknown or undefined, certain",
        "RuleID": 22
      }
    },
    {
      "type": "Feature",
      "geometry": {
        "type": "LineString",
        "coordinates": [
          [
            -80.6144372324262,
            36.9334792132178
          ],
          [
            -80.5894169697557,
            36.9443524217493
          ],
          [
            -80.5774859809366,
            36.952015368622
          ],
          [
            -80.567493138784,
            36.9581033055961
          ],
          [
            -80.5544105025842,
            36.9624249593411
          ],
          [
            -80.5402186060103,
            36.9676452437256
          ],
          [
            -80.5235358985458,
            36.9753338364051
          ]
        ]
      },
      "properties": {
        "STATE": "VA",
        "DESCRIPTION": "Fault, sense of displacement unknown or undefined, certain",
        "RuleID": 22
      }
    },
    {
      "type": "Feature",
      "geometry": {
        "type": "LineString",
        "coordinates": [
          [
            -80.9490575521434,
            36.9667795266684
          ],
          [
            -80.9504209342333,
            36.9640914588947
          ],
          [
            -80.9498269025904,
            36.9611955357706
          ],
          [
            -80.9478531053835,
            36.959649087167
          ],
          [
            -80.9447653145793,
            36.9583345816262
          ],
          [
            -80.9397417324912,
            36.9585968616281
          ],
          [
            -80.9333303871382,
            36.9595393257775
          ],
          [
            -80.9283205537656,
            36.9609170145583
          ]
        ]
      },
      "properties": {
        "STATE": "VA",
        "DESCRIPTION": "Fault, sense of displacement unknown or undefined, certain",
        "RuleID": 22
      }
    },
    {
      "type": "Feature",
      "geometry": {
        "type": "LineString",
        "coordinates": [
          [
            -80.9271008086964,
            36.9524475520884
          ],
          [
            -80.9248589398357,
            36.9517954604314
          ],
          [
            -80.9226279468781,
            36.9520359085731
          ]
        ]
      },
      "properties": {
        "STATE": "VA",
        "DESCRIPTION": "Fault, sense of displacement unknown or undefined, certain",
        "RuleID": 22
      }
    },
    {
      "type": "Feature",
      "geometry": {
        "type": "LineString",
        "coordinates": [
          [
            -80.727842484373,
            36.9378464592186
          ],
          [
            -80.7241332399536,
            36.9305079957262
          ],
          [
            -80.7175700433849,
            36.9173862437162
          ]
        ]
      },
      "properties": {
        "STATE": "VA",
        "DESCRIPTION": "Fault, sense of displacement unknown or undefined, certain",
        "RuleID": 22
      }
    },
    {
      "type": "Feature",
      "geometry": {
        "type": "LineString",
        "coordinates": [
          [
            -80.9998085361781,
            36.8652613828136
          ],
          [
            -80.999724030761,
            36.8652708214455
          ],
          [
            -80.9844202660037,
            36.8689657690271
          ],
          [
            -80.9749928962545,
            36.8739527463049
          ],
          [
            -80.9663691189343,
            36.8762536542829
          ],
          [
            -80.9544042375779,
            36.87925045001
          ],
          [
            -80.9413743046375,
            36.8864963996945
          ],
          [
            -80.9319689714605,
            36.8934898775209
          ],
          [
            -80.9230860319774,
            36.8975768573325
          ],
          [
            -80.9133516728614,
            36.9005538736327
          ],
          [
            -80.891106546852,
            36.9078668869786
          ],
          [
            -80.8746794594932,
            36.9115625618498
          ],
          [
            -80.8652147216248,
            36.9138657085011
          ],
          [
            -80.846323089216,
            36.9218184051312
          ],
          [
            -80.8310154006176,
            36.9259489205353
          ],
          [
            -80.8179172091903,
            36.928053660111
          ],
          [
            -80.8003594653839,
            36.9308595396889
          ],
          [
            -80.7819584873934,
            36.9332238111542
          ],
          [
            -80.7615754944078,
            36.9331459207001
          ],
          [
            -80.7529256641477,
            36.9336534767443
          ],
          [
            -80.7451525150448,
            36.9377250913119
          ],
          [
            -80.7418266194863,
            36.9399800652967
          ]
        ]
      },
      "properties": {
        "STATE": "VA",
        "DESCRIPTION": "Fault, sense of displacement unknown or undefined, certain",
        "RuleID": 22
      }
    },
    {
      "type": "Feature",
      "geometry": {
        "type": "LineString",
        "coordinates": [
          [
            -80.9360698678691,
            36.8405438563668
          ],
          [
            -80.9216175245415,
            36.845345520259
          ],
          [
            -80.9068879701003,
            36.8503716758831
          ],
          [
            -80.894392381142,
            36.8556029241211
          ]
        ]
      },
      "properties": {
        "STATE": "VA",
        "DESCRIPTION": "Fault, sense of displacement unknown or undefined, certain",
        "RuleID": 22
      }
    },
    {
      "type": "Feature",
      "geometry": {
        "type": "LineString",
        "coordinates": [
          [
            -80.8178165008604,
            36.8947981184205
          ],
          [
            -80.8102651431062,
            36.8935139772592
          ],
          [
            -80.8010365813091,
            36.8920184205183
          ],
          [
            -80.7906894085742,
            36.8903074468819
          ],
          [
            -80.7845189500579,
            36.8876730845415
          ],
          [
            -80.7830934737206,
            36.8850045523707
          ]
        ]
      },
      "properties": {
        "STATE": "VA",
        "DESCRIPTION": "Fault, sense of displacement unknown or undefined, certain",
        "RuleID": 22
      }
    },
    {
      "type": "Feature",
      "geometry": {
        "type": "LineString",
        "coordinates": [
          [
            -80.7046904551854,
            36.8877885902545
          ],
          [
            -80.6823808849358,
            36.8897270754129
          ],
          [
            -80.6779362616585,
            36.8917662203654
          ],
          [
            -80.6737519458959,
            36.8920178493552
          ],
          [
            -80.6559953447301,
            36.9024052260994
          ]
        ]
      },
      "properties": {
        "STATE": "VA",
        "DESCRIPTION": "Fault, sense of displacement unknown or undefined, certain",
        "RuleID": 22
      }
    },
    {
      "type": "Feature",
      "geometry": {
        "type": "LineString",
        "coordinates": [
          [
            -80.6142987750915,
            36.8093504666378
          ],
          [
            -80.6083212127144,
            36.8113996023982
          ],
          [
            -80.6026237091103,
            36.8135583492772
          ],
          [
            -80.5959550862599,
            36.8162816117245
          ],
          [
            -80.5891424122655,
            36.8185589537878
          ],
          [
            -80.5833058844897,
            36.8208296395734
          ],
          [
            -80.5796890398821,
            36.8218578514271
          ]
        ]
      },
      "properties": {
        "STATE": "VA",
        "DESCRIPTION": "Fault, sense of displacement unknown or undefined, certain",
        "RuleID": 22
      }
    },
    {
      "type": "Feature",
      "geometry": {
        "type": "LineString",
        "coordinates": [
          [
            -80.8520148067713,
            36.835156070638
          ],
          [
            -80.8700901400814,
            36.8298841953835
          ],
          [
            -80.8823319441922,
            36.8268884477253
          ],
          [
            -80.8892431418137,
            36.8214760099036
          ],
          [
            -80.897825158253,
            36.8158269338805
          ]
        ]
      },
      "properties": {
        "STATE": "VA",
        "DESCRIPTION": "Fault, sense of displacement unknown or undefined, certain",
        "RuleID": 22
      }
    },
    {
      "type": "Feature",
      "geometry": {
        "type": "LineString",
        "coordinates": [
          [
            -80.9293317396702,
            36.9522070406372
          ],
          [
            -80.9282135554321,
            36.9521041149255
          ],
          [
            -80.9271008086964,
            36.9524475520884
          ]
        ]
      },
      "properties": {
        "STATE": "VA",
        "DESCRIPTION": "Fault, sense of displacement unknown or undefined, certain",
        "RuleID": 22
      }
    },
    {
      "type": "Feature",
      "geometry": {
        "type": "LineString",
        "coordinates": [
          [
            -80.9226279468781,
            36.9520359085731
          ],
          [
            -80.9187134266365,
            36.9516198256001
          ],
          [
            -80.9120122560267,
            36.9516715016526
          ]
        ]
      },
      "properties": {
        "STATE": "VA",
        "DESCRIPTION": "Fault, sense of displacement unknown or undefined, certain",
        "RuleID": 22
      }
    },
    {
      "type": "Feature",
      "geometry": {
        "type": "LineString",
        "coordinates": [
          [
            -80.961842571998,
            36.7581415093487
          ],
          [
            -80.9425176381103,
            36.7743798694281
          ],
          [
            -80.9389109938727,
            36.7759719402449
          ],
          [
            -80.9325585483579,
            36.7811597058115
          ],
          [
            -80.9328726838229,
            36.7840614413458
          ],
          [
            -80.9340588570532,
            36.7898602786024
          ]
        ]
      },
      "properties": {
        "STATE": "VA",
        "DESCRIPTION": "Fault, sense of displacement unknown or undefined, certain",
        "RuleID": 22
      }
    },
    {
      "type": "Feature",
      "geometry": {
        "type": "LineString",
        "coordinates": [
          [
            -80.6979876909643,
            36.9398381776575
          ],
          [
            -80.6891243679921,
            36.946593126744
          ],
          [
            -80.6813629913109,
            36.9520013326506
          ],
          [
            -80.6758254390314,
            36.9565013678859
          ],
          [
            -80.6711183801303,
            36.9603262740862
          ],
          [
            -80.6661084856723,
            36.9619218837271
          ],
          [
            -80.6605353223782,
            36.9630748389594
          ],
          [
            -80.6563815439455,
            36.9664493656355
          ],
          [
            -80.6500096409216,
            36.9714002233728
          ],
          [
            -80.6444545301715,
            36.9743374950614
          ],
          [
            -80.6366672721287,
            36.9775124569515
          ],
          [
            -80.6280350389668,
            36.9800232765893
          ],
          [
            -80.6157786794535,
            36.9832267548798
          ]
        ]
      },
      "properties": {
        "STATE": "VA",
        "DESCRIPTION": "Fault, sense of displacement unknown or undefined, certain",
        "RuleID": 22
      }
    },
    {
      "type": "Feature",
      "geometry": {
        "type": "LineString",
        "coordinates": [
          [
            -80.9827992991927,
            36.9404059054081
          ],
          [
            -80.9777959804025,
            36.9422309648372
          ],
          [
            -80.9694477325496,
            36.9445287898507
          ],
          [
            -80.96081446902,
            36.94638225028
          ],
          [
            -80.9574721693261,
            36.9470780094462
          ],
          [
            -80.9532977610829,
            36.9482265157946
          ],
          [
            -80.9474316383101,
            36.9480493162913
          ],
          [
            -80.9421457957698,
            36.9496528173294
          ],
          [
            -80.9401940054907,
            36.9498910768997
          ],
          [
            -80.9399011780643,
            36.9487777308651
          ]
        ]
      },
      "properties": {
        "STATE": "VA",
        "DESCRIPTION": "Fault, sense of displacement unknown or undefined, certain",
        "RuleID": 22
      }
    },
    {
      "type": "Feature",
      "geometry": {
        "type": "LineString",
        "coordinates": [
          [
            -80.8974624517789,
            36.8790222753449
          ],
          [
            -80.8846720105916,
            36.8831381061945
          ],
          [
            -80.875522359504,
            36.8883418682646
          ]
        ]
      },
      "properties": {
        "STATE": "VA",
        "DESCRIPTION": "Fault, sense of displacement unknown or undefined, certain",
        "RuleID": 22
      }
    },
    {
      "type": "Feature",
      "geometry": {
        "type": "LineString",
        "coordinates": [
          [
            -80.6818231119927,
            36.7838828088474
          ],
          [
            -80.6893254199358,
            36.7811509518232
          ],
          [
            -80.6979383797434,
            36.7779644458912
          ]
        ]
      },
      "properties": {
        "STATE": "VA",
        "DESCRIPTION": "Fault, sense of displacement unknown or undefined, certain",
        "RuleID": 22
      }
    },
    {
      "type": "Feature",
      "geometry": {
        "type": "LineString",
        "coordinates": [
          [
            -80.7329675958511,
            36.9469596988167
          ],
          [
            -80.7309791686815,
            36.9438496101365
          ],
          [
            -80.72898593822,
            36.9402931596059
          ]
        ]
      },
      "properties": {
        "STATE": "VA",
        "DESCRIPTION": "Fault, sense of displacement unknown or undefined, certain",
        "RuleID": 22
      }
    },
    {
      "type": "Feature",
      "geometry": {
        "type": "LineString",
        "coordinates": [
          [
            -80.8582799423287,
            36.9654664139327
          ],
          [
            -80.8624293109317,
            36.9620886014563
          ],
          [
            -80.8702189935275,
            36.9595757983149
          ],
          [
            -80.8844307042416,
            36.9570140717008
          ],
          [
            -80.8992056900799,
            36.9548935158352
          ],
          [
            -80.91232639239,
            36.9545697991289
          ],
          [
            -80.9198626710238,
            36.9542885602804
          ],
          [
            -80.9237610045224,
            36.9533659921385
          ],
          [
            -80.9271008086964,
            36.9524475520884
          ]
        ]
      },
      "properties": {
        "STATE": "VA",
        "DESCRIPTION": "Fault, sense of displacement unknown or undefined, certain",
        "RuleID": 22
      }
    },
    {
      "type": "Feature",
      "geometry": {
        "type": "LineString",
        "coordinates": [
          [
            -80.897825158253,
            36.8158269338805
          ],
          [
            -80.9053280509993,
            36.8133126590954
          ],
          [
            -80.9213332580597,
            36.7986709052491
          ],
          [
            -80.9296312343927,
            36.7927985736126
          ],
          [
            -80.9340588570532,
            36.7898602786024
          ]
        ]
      },
      "properties": {
        "STATE": "VA",
        "DESCRIPTION": "Fault, sense of displacement unknown or undefined, certain",
        "RuleID": 22
      }
    },
    {
      "type": "Feature",
      "geometry": {
        "type": "LineString",
        "coordinates": [
          [
            -80.7357232264942,
            36.9443158155619
          ],
          [
            -80.7398795570406,
            36.9413857723442
          ],
          [
            -80.7418266194863,
            36.9399800652967
          ]
        ]
      },
      "properties": {
        "STATE": "VA",
        "DESCRIPTION": "Fault, sense of displacement unknown or undefined, certain",
        "RuleID": 22
      }
    },
    {
      "type": "Feature",
      "geometry": {
        "type": "LineString",
        "coordinates": [
          [
            -80.523776345208,
            36.8394042710841
          ],
          [
            -80.5179265250609,
            36.8404451208515
          ],
          [
            -80.5129114949344,
            36.8412573224844
          ],
          [
            -80.5074810532778,
            36.8424070282995
          ],
          [
            -80.500237914684,
            36.8436792906096
          ],
          [
            -80.4953673866558,
            36.8450484002533
          ],
          [
            -80.4903582099516,
            36.8465299321414
          ],
          [
            -80.4868817576498,
            36.8477788448489
          ]
        ]
      },
      "properties": {
        "STATE": "VA",
        "DESCRIPTION": "Fault, sense of displacement unknown or undefined, certain",
        "RuleID": 22
      }
    },
    {
      "type": "Feature",
      "geometry": {
        "type": "LineString",
        "coordinates": [
          [
            -80.7928292890058,
            36.8820323559828
          ],
          [
            -80.8052897861758,
            36.8732353648738
          ],
          [
            -80.8089125875121,
            36.8727624670694
          ],
          [
            -80.814496788406,
            36.8729450300096
          ],
          [
            -80.8164376390015,
            36.8718145427069
          ],
          [
            -80.8111021645418,
            36.8689511809262
          ],
          [
            -80.8124822427195,
            36.8676015162144
          ],
          [
            -80.8163790589635,
            36.8666799415535
          ],
          [
            -80.8183120403172,
            36.8648797220286
          ],
          [
            -80.8196691952855,
            36.8615206792076
          ],
          [
            -80.8341054803291,
            36.8549393380988
          ],
          [
            -80.851119456826,
            36.8541431773531
          ],
          [
            -80.8566691660063,
            36.8514222566317
          ],
          [
            -80.8652774554726,
            36.8477851384701
          ],
          [
            -80.8766678058144,
            36.8434565660938
          ],
          [
            -80.8841564737382,
            36.8396035873105
          ],
          [
            -80.8910576793988,
            36.8332983633039
          ],
          [
            -80.8991222320985,
            36.8310036440469
          ],
          [
            -80.9038198883335,
            36.8271710652165
          ],
          [
            -80.9140272302096,
            36.8174891972082
          ],
          [
            -80.9181796638643,
            36.8147770292162
          ]
        ]
      },
      "properties": {
        "STATE": "VA",
        "DESCRIPTION": "Fault, sense of displacement unknown or undefined, certain",
        "RuleID": 22
      }
    },
    {
      "type": "Feature",
      "geometry": {
        "type": "LineString",
        "coordinates": [
          [
            -80.6617104086014,
            36.9954152127509
          ],
          [
            -80.6661488370965,
            36.9924855393836
          ],
          [
            -80.6730961173481,
            36.9890926123091
          ],
          [
            -80.678092694282,
            36.9861587337594
          ],
          [
            -80.6808642924793,
            36.9841322086549
          ],
          [
            -80.6841873772092,
            36.9814326248212
          ],
          [
            -80.6883669642401,
            36.980511896876
          ],
          [
            -80.697561568821,
            36.978441292375
          ],
          [
            -80.7014593264995,
            36.977299078293
          ],
          [
            -80.7050634716239,
            36.9748202282597
          ],
          [
            -80.7147558892977,
            36.9671677812917
          ],
          [
            -80.72501311013,
            36.9601799818647
          ],
          [
            -80.731107781379,
            36.9556749883418
          ],
          [
            -80.735262064665,
            36.9525220768013
          ]
        ]
      },
      "properties": {
        "STATE": "VA",
        "DESCRIPTION": "Fault, sense of displacement unknown or undefined, certain",
        "RuleID": 22
      }
    },
    {
      "type": "Feature",
      "geometry": {
        "type": "LineString",
        "coordinates": [
          [
            -80.6979876909643,
            36.9398381776575
          ],
          [
            -80.7035215888972,
            36.9351139583058
          ],
          [
            -80.7104461821963,
            36.9299334593007
          ],
          [
            -80.7145690145658,
            36.9238793262837
          ],
          [
            -80.7175700433849,
            36.9173862437162
          ]
        ]
      },
      "properties": {
        "STATE": "VA",
        "DESCRIPTION": "Fault, sense of displacement unknown or undefined, certain",
        "RuleID": 22
      }
    },
    {
      "type": "Feature",
      "geometry": {
        "type": "LineString",
        "coordinates": [
          [
            -80.815703637261,
            36.978721031154
          ],
          [
            -80.8229261271796,
            36.9753217029407
          ],
          [
            -80.8304301895324,
            36.972143117185
          ],
          [
            -80.8387794785327,
            36.9696273142774
          ]
        ]
      },
      "properties": {
        "STATE": "VA",
        "DESCRIPTION": "Fault, sense of displacement unknown or undefined, certain",
        "RuleID": 22
      }
    },
    {
      "type": "Feature",
      "geometry": {
        "type": "LineString",
        "coordinates": [
          [
            -80.5031037524428,
            36.9408749528641
          ],
          [
            -80.4891728344252,
            36.9440829842333
          ],
          [
            -80.4730344251745,
            36.9502040364369
          ]
        ]
      },
      "properties": {
        "STATE": "VA",
        "DESCRIPTION": "Fault, sense of displacement unknown or undefined, certain",
        "RuleID": 22
      }
    },
    {
      "type": "Feature",
      "geometry": {
        "type": "LineString",
        "coordinates": [
          [
            -80.5408983243548,
            36.8353902086389
          ],
          [
            -80.5356110076792,
            36.8368746474794
          ],
          [
            -80.5326856978553,
            36.8373394181055
          ],
          [
            -80.5292065308448,
            36.8382541915659
          ],
          [
            -80.5258636346695,
            36.8388330970938
          ],
          [
            -80.523776345208,
            36.8394042710841
          ]
        ]
      },
      "properties": {
        "STATE": "VA",
        "DESCRIPTION": "Fault, sense of displacement unknown or undefined, certain",
        "RuleID": 22
      }
    },
    {
      "type": "Feature",
      "geometry": {
        "type": "LineString",
        "coordinates": [
          [
            -80.7242759642859,
            36.8921174364173
          ],
          [
            -80.7267807125381,
            36.8914302503552
          ],
          [
            -80.7290135596184,
            36.8914146772398
          ]
        ]
      },
      "properties": {
        "STATE": "VA",
        "DESCRIPTION": "Fault, sense of displacement unknown or undefined, certain",
        "RuleID": 22
      }
    },
    {
      "type": "Feature",
      "geometry": {
        "type": "LineString",
        "coordinates": [
          [
            -80.962340841435,
            36.9343197830258
          ],
          [
            -80.9537080827586,
            36.9361731198534
          ],
          [
            -80.9386237979848,
            36.9356217583001
          ],
          [
            -80.9213032713972,
            36.9348635463583
          ],
          [
            -80.9095479777763,
            36.9324993918183
          ],
          [
            -80.9070112890259,
            36.9305103395447
          ],
          [
            -80.9072690570034,
            36.9287230090968
          ],
          [
            -80.9194935065612,
            36.9237190966774
          ],
          [
            -80.9447937965637,
            36.9150411569207
          ],
          [
            -80.9687122997928,
            36.9077103717986
          ]
        ]
      },
      "properties": {
        "STATE": "VA",
        "DESCRIPTION": "Fault, sense of displacement unknown or undefined, certain",
        "RuleID": 22
      }
    },
    {
      "type": "Feature",
      "geometry": {
        "type": "LineString",
        "coordinates": [
          [
            -80.8285755125255,
            36.8351066508875
          ],
          [
            -80.8110790374148,
            36.842380824717
          ],
          [
            -80.7977564953386,
            36.8487299751478
          ],
          [
            -80.7667223909299,
            36.8686012108391
          ],
          [
            -80.741204157063,
            36.8830696592197
          ],
          [
            -80.7351223748416,
            36.8884699427302
          ]
        ]
      },
      "properties": {
        "STATE": "VA",
        "DESCRIPTION": "Fault, sense of displacement unknown or undefined, certain",
        "RuleID": 22
      }
    },
    {
      "type": "Feature",
      "geometry": {
        "type": "LineString",
        "coordinates": [
          [
            -80.7099837645223,
            36.8868591322824
          ],
          [
            -80.7088577972806,
            36.8859738838683
          ],
          [
            -80.7046664423195,
            36.8855563481628
          ]
        ]
      },
      "properties": {
        "STATE": "VA",
        "DESCRIPTION": "Fault, sense of displacement unknown or undefined, certain",
        "RuleID": 22
      }
    },
    {
      "type": "Feature",
      "geometry": {
        "type": "LineString",
        "coordinates": [
          [
            -80.9458061673462,
            36.9293169819325
          ],
          [
            -80.9541979143201,
            36.9305900666706
          ],
          [
            -80.9653704914774,
            36.9309483393594
          ],
          [
            -80.9723278472332,
            36.9291077624139
          ],
          [
            -80.9764960571009,
            36.927512577732
          ],
          [
            -80.9804016328173,
            36.927258237153
          ]
        ]
      },
      "properties": {
        "STATE": "VA",
        "DESCRIPTION": "Fault, sense of displacement unknown or undefined, certain",
        "RuleID": 22
      }
    },
    {
      "type": "Feature",
      "geometry": {
        "type": "LineString",
        "coordinates": [
          [
            -80.7133186225724,
            36.8854966899594
          ],
          [
            -80.7185852887763,
            36.8821116839803
          ],
          [
            -80.7296375581608,
            36.8717651409019
          ],
          [
            -80.7357334933395,
            36.8677038164905
          ],
          [
            -80.7679121169972,
            36.8500608851257
          ]
        ]
      },
      "properties": {
        "STATE": "VA",
        "DESCRIPTION": "Fault, sense of displacement unknown or undefined, certain",
        "RuleID": 22
      }
    },
    {
      "type": "Feature",
      "geometry": {
        "type": "LineString",
        "coordinates": [
          [
            -80.8939753041354,
            36.7970943480323
          ],
          [
            -80.8792968997665,
            36.8061406645604
          ],
          [
            -80.8616131286141,
            36.8207915423661
          ],
          [
            -80.8449671586514,
            36.8289556982274
          ],
          [
            -80.8285755125255,
            36.8351066508875
          ]
        ]
      },
      "properties": {
        "STATE": "VA",
        "DESCRIPTION": "Fault, sense of displacement unknown or undefined, certain",
        "RuleID": 22
      }
    },
    {
      "type": "Feature",
      "geometry": {
        "type": "LineString",
        "coordinates": [
          [
            -80.9226279468781,
            36.9520359085731
          ],
          [
            -80.9237231926354,
            36.9502423218246
          ],
          [
            -80.9273366991035,
            36.948875453363
          ],
          [
            -80.9340079297632,
            36.9463690259699
          ],
          [
            -80.9423676823399,
            36.9449649946475
          ],
          [
            -80.9504427318536,
            36.943116602301
          ],
          [
            -80.953787594441,
            36.9426439608585
          ],
          [
            -80.9568423775484,
            36.9412810944993
          ],
          [
            -80.9587802268726,
            36.9399269252235
          ],
          [
            -80.9584872107999,
            36.9388134543927
          ],
          [
            -80.949824069304,
            36.9382120408775
          ],
          [
            -80.9409254173883,
            36.9411827254106
          ],
          [
            -80.9325629788489,
            36.9423635754394
          ],
          [
            -80.9247508805918,
            36.9428705007482
          ],
          [
            -80.9083208835898,
            36.9465675375572
          ],
          [
            -80.896067665485,
            36.9493390608076
          ],
          [
            -80.879059440901,
            36.9514764492095
          ],
          [
            -80.8525728851416,
            36.9550222445128
          ],
          [
            -80.8366855163853,
            36.9575944825059
          ],
          [
            -80.830281284791,
            36.9592036090712
          ],
          [
            -80.8272275455259,
            36.9607878996216
          ],
          [
            -80.8244788022661,
            36.9646010611237
          ],
          [
            -80.8209278634576,
            36.9715436390443
          ],
          [
            -80.8184274046609,
            36.9726773739504
          ],
          [
            -80.8148148800515,
            36.9742655401428
          ],
          [
            -80.8145534747954,
            36.975829122238
          ],
          [
            -80.8156807167465,
            36.9767132767603
          ],
          [
            -80.815703637261,
            36.978721031154
          ]
        ]
      },
      "properties": {
        "STATE": "VA",
        "DESCRIPTION": "Fault, sense of displacement unknown or undefined, certain",
        "RuleID": 22
      }
    },
    {
      "type": "Feature",
      "geometry": {
        "type": "LineString",
        "coordinates": [
          [
            -80.7046904551854,
            36.8877885902545
          ],
          [
            -80.7046784168622,
            36.8866725007179
          ],
          [
            -80.7046664423195,
            36.8855563481628
          ]
        ]
      },
      "properties": {
        "STATE": "VA",
        "DESCRIPTION": "Fault, sense of displacement unknown or undefined, certain",
        "RuleID": 22
      }
    },
    {
      "type": "Feature",
      "geometry": {
        "type": "LineString",
        "coordinates": [
          [
            -80.6507080514106,
            36.9040030385572
          ],
          [
            -80.6533517609524,
            36.9032041630892
          ],
          [
            -80.6559953447301,
            36.9024052260994
          ]
        ]
      },
      "properties": {
        "STATE": "VA",
        "DESCRIPTION": "Fault, sense of displacement unknown or undefined, certain",
        "RuleID": 22
      }
    },
    {
      "type": "Feature",
      "geometry": {
        "type": "LineString",
        "coordinates": [
          [
            -80.8371400522409,
            36.9727629878868
          ],
          [
            -80.8379622963902,
            36.9714182705606
          ],
          [
            -80.8387794785327,
            36.9696273142774
          ]
        ]
      },
      "properties": {
        "STATE": "VA",
        "DESCRIPTION": "Fault, sense of displacement unknown or undefined, certain",
        "RuleID": 22
      }
    },
    {
      "type": "Feature",
      "geometry": {
        "type": "LineString",
        "coordinates": [
          [
            -80.9188416755163,
            36.8697046121978
          ],
          [
            -80.9085696818892,
            36.8742489138999
          ],
          [
            -80.8974624517789,
            36.8790222753449
          ]
        ]
      },
      "properties": {
        "STATE": "VA",
        "DESCRIPTION": "Fault, sense of displacement unknown or undefined, certain",
        "RuleID": 22
      }
    },
    {
      "type": "Feature",
      "geometry": {
        "type": "LineString",
        "coordinates": [
          [
            -80.7789739992536,
            36.8660577856456
          ],
          [
            -80.7942422275566,
            36.8588032167045
          ],
          [
            -80.808966030085,
            36.8528910433886
          ],
          [
            -80.8195338551048,
            36.8496877091201
          ],
          [
            -80.8303830010306,
            36.8467051749601
          ],
          [
            -80.8400819835925,
            36.8408276707472
          ],
          [
            -80.8520148067713,
            36.835156070638
          ]
        ]
      },
      "properties": {
        "STATE": "VA",
        "DESCRIPTION": "Fault, sense of displacement unknown or undefined, certain",
        "RuleID": 22
      }
    },
    {
      "type": "Feature",
      "geometry": {
        "type": "LineString",
        "coordinates": [
          [
            -80.9216378183821,
            36.9625305225832
          ],
          [
            -80.9177123584569,
            36.9612220861914
          ],
          [
            -80.9135238188159,
            36.9612544291839
          ],
          [
            -80.907673315051,
            36.9624149427084
          ]
        ]
      },
      "properties": {
        "STATE": "VA",
        "DESCRIPTION": "Fault, sense of displacement unknown or undefined, certain",
        "RuleID": 22
      }
    },
    {
      "type": "Feature",
      "geometry": {
        "type": "LineString",
        "coordinates": [
          [
            -80.7444025394619,
            36.9711998932722
          ],
          [
            -80.7423964936346,
            36.9665287271479
          ],
          [
            -80.7395308714715,
            36.9598553372562
          ],
          [
            -80.735262064665,
            36.9525220768013
          ]
        ]
      },
      "properties": {
        "STATE": "VA",
        "DESCRIPTION": "Fault, sense of displacement unknown or undefined, certain",
        "RuleID": 22
      }
    },
    {
      "type": "Feature",
      "geometry": {
        "type": "LineString",
        "coordinates": [
          [
            -80.9283205537656,
            36.9609170145583
          ],
          [
            -80.9249778112023,
            36.9616122102846
          ],
          [
            -80.9216378183821,
            36.9625305225832
          ]
        ]
      },
      "properties": {
        "STATE": "VA",
        "DESCRIPTION": "Fault, sense of displacement unknown or undefined, certain",
        "RuleID": 22
      }
    },
    {
      "type": "Feature",
      "geometry": {
        "type": "LineString",
        "coordinates": [
          [
            -80.907673315051,
            36.9624149427084
          ],
          [
            -80.9009770770904,
            36.9629124788563
          ],
          [
            -80.8934350438488,
            36.962746913529
          ],
          [
            -80.8870126339464,
            36.9627957726508
          ],
          [
            -80.8814383908774,
            36.9637304767123
          ],
          [
            -80.8769785851735,
            36.9644334911705
          ]
        ]
      },
      "properties": {
        "STATE": "VA",
        "DESCRIPTION": "Fault, sense of displacement unknown or undefined, certain",
        "RuleID": 22
      }
    },
    {
      "type": "Feature",
      "geometry": {
        "type": "LineString",
        "coordinates": [
          [
            -80.5796890398821,
            36.8218578514271
          ],
          [
            -80.5785807829262,
            36.8226465504436
          ],
          [
            -80.5780261244422,
            36.8229850586103
          ],
          [
            -80.5773320249682,
            36.8233245087258
          ]
        ]
      },
      "properties": {
        "STATE": "VA",
        "DESCRIPTION": "Fault, sense of displacement unknown or undefined, certain",
        "RuleID": 22
      }
    },
    {
      "type": "Feature",
      "geometry": {
        "type": "LineString",
        "coordinates": [
          [
            -80.5559247836755,
            36.8311648448238
          ],
          [
            -80.5492448546289,
            36.8328816369029
          ],
          [
            -80.543821458459,
            36.834702008223
          ],
          [
            -80.5408983243548,
            36.8353902086389
          ]
        ]
      },
      "properties": {
        "STATE": "VA",
        "DESCRIPTION": "Fault, sense of displacement unknown or undefined, certain",
        "RuleID": 22
      }
    },
    {
      "type": "Feature",
      "geometry": {
        "type": "LineString",
        "coordinates": [
          [
            -80.875522359504,
            36.8883418682646
          ],
          [
            -80.8696977478805,
            36.8915110256029
          ],
          [
            -80.8635679435207,
            36.8924499972788
          ],
          [
            -80.8568744256588,
            36.8929466094233
          ],
          [
            -80.8474131966099,
            36.8954725676182
          ],
          [
            -80.8432159963113,
            36.8946108798027
          ],
          [
            -80.8359384037331,
            36.8928790621024
          ],
          [
            -80.8295136546177,
            36.8924800093862
          ],
          [
            -80.8239416869814,
            36.8934138488854
          ],
          [
            -80.8178165008604,
            36.8947981184205
          ]
        ]
      },
      "properties": {
        "STATE": "VA",
        "DESCRIPTION": "Fault, sense of displacement unknown or undefined, certain",
        "RuleID": 22
      }
    },
    {
      "type": "Feature",
      "geometry": {
        "type": "LineString",
        "coordinates": [
          [
            -80.8769785851735,
            36.9644334911705
          ],
          [
            -80.8711223276991,
            36.9651470142516
          ],
          [
            -80.8669390351177,
            36.9656246594667
          ],
          [
            -80.8619152598919,
            36.965885501111
          ]
        ]
      },
      "properties": {
        "STATE": "VA",
        "DESCRIPTION": "Fault, sense of displacement unknown or undefined, certain",
        "RuleID": 22
      }
    },
    {
      "type": "Feature",
      "geometry": {
        "type": "LineString",
        "coordinates": [
          [
            -80.9315430128106,
            36.7664227772649
          ],
          [
            -80.9130399412881,
            36.7817579432471
          ],
          [
            -80.8939753041354,
            36.7970943480323
          ]
        ]
      },
      "properties": {
        "STATE": "VA",
        "DESCRIPTION": "Fault, sense of displacement unknown or undefined, certain",
        "RuleID": 22
      }
    },
    {
      "type": "Feature",
      "geometry": {
        "type": "LineString",
        "coordinates": [
          [
            -80.7111265742773,
            36.8893067064722
          ],
          [
            -80.7105551388571,
            36.8880830136074
          ],
          [
            -80.7099837645223,
            36.8868591322824
          ]
        ]
      },
      "properties": {
        "STATE": "VA",
        "DESCRIPTION": "Fault, sense of displacement unknown or undefined, certain",
        "RuleID": 22
      }
    }
  ]
}