{
  "type": "FeatureCollection",
  "features": [
    {
      "type": "Feature",
      "geometry": {
        "type": "LineString",
        "coordinates": [
          [
            -110.59223421406354,
            37.792543696334285
          ],
          [
            -110.59358474575325,
            37.78861095389643
          ],
          [
            -110.59535474935815,
            37.78584153627455
          ],
          [
            -110.59683474085674,
            37.78272489789003
          ],
          [
            -110.59963476444452,
            37.77973048016835
          ],
          [
            -110.60241979335355,
            37.77731550376288
          ],
          [
            -110.60550203975583,
            37.77409220114632
          ],
          [
            -110.60872152986889,
            37.7721427772742
          ],
          [
            -110.61239156282618,
            37.76868669870733
          ]
        ]
      },
      "properties": {
        "fault_name": "Bright Angel fault system",
        "age": "class B",
        "slip_rate": "Less than 0.2 mm/yr"
      }
    },
    {
      "type": "Feature",
      "geometry": {
        "type": "LineString",
        "coordinates": [
          [
            -110.6067006654327,
            37.83361999104872
          ],
          [
            -110.60584617086644,
            37.83153334377655
          ],
          [
            -110.60484667473862,
            37.829442806762245
          ],
          [
            -110.60296937905112,
            37.827345049784476
          ],
          [
            -110.60124542039274,
            37.825250624894096
          ],
          [
            -110.59778916671014,
            37.820829555298
          ],
          [
            -110.59403515205355,
            37.81802958016067
          ],
          [
            -110.59071613669185,
            37.814420725301275
          ],
          [
            -110.5885493966333,
            37.81266962925965
          ],
          [
            -110.58581817770808,
            37.80929410327873
          ],
          [
            -110.58322419261219,
            37.80661579307249
          ]
        ]
      },
      "properties": {
        "fault_name": "Bright Angel fault system",
        "age": "class B",
        "slip_rate": "Less than 0.2 mm/yr"
      }
    },
    {
      "type": "Feature",
      "geometry": {
        "type": "LineString",
        "coordinates": [
          [
            -110.57705151435879,
            37.78260655785951
          ],
          [
            -110.57896652581348,
            37.78006991410194
          ],
          [
            -110.58205655342273,
            37.776846054923055
          ],
          [
            -110.58396379085696,
            37.774774962027436
          ],
          [
            -110.58838881019985,
            37.76877835101491
          ],
          [
            -110.59103604562915,
            37.765436716315286
          ],
          [
            -110.59338606266691,
            37.76278562830843
          ],
          [
            -110.59515606627183,
            37.760134543282305
          ],
          [
            -110.59795607728319,
            37.756445688892136
          ],
          [
            -110.60206056156301,
            37.75276072533266
          ]
        ]
      },
      "properties": {
        "fault_name": "Bright Angel fault system",
        "age": "class B",
        "slip_rate": "Less than 0.2 mm/yr"
      }
    },
    {
      "type": "Feature",
      "geometry": {
        "type": "LineString",
        "coordinates": [
          [
            -110.55317135661592,
            37.81337962608556
          ],
          [
            -110.55436912709662,
            37.81060631592447
          ],
          [
            -110.55629190897852,
            37.80726078782686
          ],
          [
            -110.558504142418,
            37.804033592923126
          ],
          [
            -110.56086193796784,
            37.80115361625571
          ],
          [
            -110.56424142072794,
            37.79804420024984
          ],
          [
            -110.56908647882295,
            37.79379090374124
          ],
          [
            -110.57259598104233,
            37.79207425121891
          ],
          [
            -110.57552547072717,
            37.79035760069562
          ]
        ]
      },
      "properties": {
        "fault_name": "Bright Angel fault system",
        "age": "class B",
        "slip_rate": "Less than 0.2 mm/yr"
      }
    },
    {
      "type": "Feature",
      "geometry": {
        "type": "LineString",
        "coordinates": [
          [
            -110.56945230873926,
            37.771097763918085
          ],
          [
            -110.5632415598841,
            37.7666572421845
          ],
          [
            -110.55847307598053,
            37.76292282723994
          ],
          [
            -110.55053837655186,
            37.7565028741896
          ],
          [
            -110.54678437357336,
            37.753699005354626
          ],
          [
            -110.54261866371705,
            37.7488084888903
          ],
          [
            -110.53730065969293,
            37.74206023424928
          ],
          [
            -110.53371494889643,
            37.7374025117245
          ],
          [
            -110.52912197693475,
            37.731699802211004
          ],
          [
            -110.52568847488335,
            37.72600431783987
          ],
          [
            -110.52311724141865,
            37.72193436928989
          ],
          [
            -110.52010321218076,
            37.71751331490509
          ],
          [
            -110.51827197940608,
            37.71251948866572
          ],
          [
            -110.51497626903779,
            37.70751899994238
          ],
          [
            -110.51212999838256,
            37.70170907613134
          ],
          [
            -110.50926931515693,
            37.6977530212623
          ],
          [
            -110.50725478474178,
            37.69530805403719
          ],
          [
            -110.50452356940983,
            37.69262642516516
          ]
        ]
      },
      "properties": {
        "fault_name": "Bright Angel fault system",
        "age": "class B",
        "slip_rate": "Less than 0.2 mm/yr"
      }
    },
    {
      "type": "Feature",
      "geometry": {
        "type": "LineString",
        "coordinates": [
          [
            -110.47811662235095,
            37.64890327833354
          ],
          [
            -110.47698765473615,
            37.64599999235564
          ],
          [
            -110.47527090056637,
            37.64344059678159
          ],
          [
            -110.47329464916211,
            37.63821457534995
          ],
          [
            -110.47189064884836,
            37.63380464667675
          ],
          [
            -110.47064718825568,
            37.62823918006538
          ],
          [
            -110.47053268359967,
            37.62499700516321
          ],
          [
            -110.47084544015067,
            37.62314258514819
          ],
          [
            -110.47116540208857,
            37.62048428726217
          ],
          [
            -110.47193645843628,
            37.61608601087897
          ],
          [
            -110.47231744023648,
            37.60798334683807
          ]
        ]
      },
      "properties": {
        "fault_name": "Bright Angel fault system",
        "age": "class B",
        "slip_rate": "Less than 0.2 mm/yr"
      }
    },
    {
      "type": "Feature",
      "geometry": {
        "type": "LineString",
        "coordinates": [
          [
            -110.46570362899145,
            37.65483882973657
          ],
          [
            -110.4634223905651,
            37.65076834717288
          ],
          [
            -110.46227789197734,
            37.64937226532186
          ],
          [
            -110.45897385871797,
            37.64587456129803
          ],
          [
            -110.45538814612482,
            37.64214352921799
          ],
          [
            -110.44978790311653,
            37.63642920917739
          ]
        ]
      },
      "properties": {
        "fault_name": "Bright Angel fault system",
        "age": "class B",
        "slip_rate": "Less than 0.2 mm/yr"
      }
    },
    {
      "type": "Feature",
      "geometry": {
        "type": "LineString",
        "coordinates": [
          [
            -110.4498500368898,
            37.69502610590071
          ],
          [
            -110.44759154919635,
            37.68945286824145
          ],
          [
            -110.4454625320915,
            37.6851540572551
          ],
          [
            -110.443921285372,
            37.67958415008064
          ],
          [
            -110.44309731286415,
            37.67598698585498
          ],
          [
            -110.44238781716457,
            37.6741297957809
          ],
          [
            -110.44168609458713,
            37.671924835072176
          ],
          [
            -110.44215882941214,
            37.668685991679574
          ],
          [
            -110.44278433442929,
            37.66498215627684
          ],
          [
            -110.44316586689676,
            37.656765056310206
          ],
          [
            -110.44385960794291,
            37.647270752284975
          ]
        ]
      },
      "properties": {
        "fault_name": "Bright Angel fault system",
        "age": "class B",
        "slip_rate": "Less than 0.2 mm/yr"
      }
    },
    {
      "type": "Feature",
      "geometry": {
        "type": "LineString",
        "coordinates": [
          [
            -110.43906148502487,
            37.69795945066241
          ],
          [
            -110.43887854042231,
            37.688694039099786
          ],
          [
            -110.43779505810362,
            37.68173970725125
          ],
          [
            -110.43797778172062,
            37.67849753334886
          ],
          [
            -110.43701656280705,
            37.67374427968427
          ],
          [
            -110.43678758134281,
            37.66876213425848
          ],
          [
            -110.4359635989535,
            37.66458553778035
          ],
          [
            -110.43471236523865,
            37.65948117767021
          ],
          [
            -110.43304109726327,
            37.65298518003944
          ]
        ]
      },
      "properties": {
        "fault_name": "Bright Angel fault system",
        "age": "class B",
        "slip_rate": "Less than 0.2 mm/yr"
      }
    }
  ]
}