{
  "type": "FeatureCollection",
  "features": [
    {
      "type": "Feature",
      "geometry": {
        "type": "LineString",
        "coordinates": [
          [
            -120.826789386578,
            47.9846788991622
          ],
          [
            -120.825031538976,
            47.9787070267713
          ],
          [
            -120.821364836972,
            47.9726611314071
          ],
          [
            -120.818125985469,
            47.9675581584502
          ],
          [
            -120.812973752954,
            47.9588572893488
          ],
          [
            -120.80984415815,
            47.9566026155387
          ],
          [
            -120.801040661179,
            47.9505797962701
          ],
          [
            -120.797738934793,
            47.9467749518573
          ],
          [
            -120.791017782957,
            47.9405761534325
          ],
          [
            -120.788300856228,
            47.936409861138
          ],
          [
            -120.781102742094,
            47.9277357359767
          ],
          [
            -120.781073324065,
            47.9255336523926
          ]
        ]
      },
      "properties": {
        "STATE": "WA",
        "DESCRIPTION": "Fault, sense of displacement unknown or undefined, approximate",
        "RuleID": 21
      }
    },
    {
      "type": "Feature",
      "geometry": {
        "type": "LineString",
        "coordinates": [
          [
            -120.905900143708,
            48.0425342514487
          ],
          [
            -120.91406104701,
            48.0465567832483
          ],
          [
            -120.920851417633,
            48.0503777577243
          ]
        ]
      },
      "properties": {
        "STATE": "WA",
        "DESCRIPTION": "Fault, sense of displacement unknown or undefined, approximate",
        "RuleID": 21
      }
    },
    {
      "type": "Feature",
      "geometry": {
        "type": "LineString",
        "coordinates": [
          [
            -120.832173268554,
            48.0434601646527
          ],
          [
            -120.832503705746,
            48.0439296303869
          ],
          [
            -120.83664449993,
            48.0498361263505
          ],
          [
            -120.836862684543,
            48.0502602199282
          ],
          [
            -120.837350877577,
            48.0512114227483
          ],
          [
            -120.841481296219,
            48.0582695950924
          ],
          [
            -120.856797128944,
            48.082282808347
          ],
          [
            -120.857687909159,
            48.0841676289946
          ],
          [
            -120.859628953791,
            48.0861289234114
          ],
          [
            -120.862940789817,
            48.089109124808
          ],
          [
            -120.866854572542,
            48.0933845344296
          ],
          [
            -120.872295820931,
            48.0967859827922
          ],
          [
            -120.876564161512,
            48.0987629931628
          ]
        ]
      },
      "properties": {
        "STATE": "WA",
        "DESCRIPTION": "Fault, sense of displacement unknown or undefined, approximate",
        "RuleID": 21
      }
    },
    {
      "type": "Feature",
      "geometry": {
        "type": "LineString",
        "coordinates": [
          [
            -120.803422559426,
            48.1290363779381
          ],
          [
            -120.802450605645,
            48.1246656080859
          ],
          [
            -120.799528571977,
            48.1205823519654
          ]
        ]
      },
      "properties": {
        "STATE": "WA",
        "DESCRIPTION": "Fault, sense of displacement unknown or undefined, certain",
        "RuleID": 22
      }
    },
    {
      "type": "Feature",
      "geometry": {
        "type": "LineString",
        "coordinates": [
          [
            -120.828539768282,
            48.163940939015
          ],
          [
            -120.828216823938,
            48.165087006247
          ],
          [
            -120.826700566553,
            48.1705963845677
          ],
          [
            -120.82671015517,
            48.1712748367475
          ]
        ]
      },
      "properties": {
        "STATE": "WA",
        "DESCRIPTION": "Fault, sense of displacement unknown or undefined, certain",
        "RuleID": 22
      }
    },
    {
      "type": "Feature",
      "geometry": {
        "type": "LineString",
        "coordinates": [
          [
            -120.826850942735,
            48.1706765752242
          ],
          [
            -120.82671015517,
            48.1712748367475
          ]
        ]
      },
      "properties": {
        "STATE": "WA",
        "DESCRIPTION": "Fault, sense of displacement unknown or undefined, certain",
        "RuleID": 22
      }
    },
    {
      "type": "Feature",
      "geometry": {
        "type": "LineString",
        "coordinates": [
          [
            -120.838736925958,
            48.0048117183243
          ],
          [
            -120.838508495161,
            48.0074989172429
          ],
          [
            -120.842766352403,
            48.022468537729
          ],
          [
            -120.842979849606,
            48.0229512890823
          ],
          [
            -120.843475805881,
            48.024072152661
          ],
          [
            -120.848562963539,
            48.0358765789812
          ],
          [
            -120.856128511081,
            48.0534287578584
          ],
          [
            -120.857105538547,
            48.0556928847548
          ],
          [
            -120.859634616771,
            48.0609094583912
          ],
          [
            -120.861626153009,
            48.0651961730413
          ],
          [
            -120.864596444174,
            48.0709038642317
          ],
          [
            -120.867080827619,
            48.076173597775
          ],
          [
            -120.868772503521,
            48.0797591383214
          ],
          [
            -120.870445498957,
            48.0863534409149
          ],
          [
            -120.871021627176,
            48.0886259900548
          ],
          [
            -120.873166253407,
            48.0933500679382
          ],
          [
            -120.876564161512,
            48.0987629931628
          ],
          [
            -120.880709663766,
            48.1054703235779
          ],
          [
            -120.884643900232,
            48.1110345873256
          ],
          [
            -120.88938595031,
            48.1190275758031
          ],
          [
            -120.894871754239,
            48.1252932009878
          ],
          [
            -120.901360946696,
            48.1344245632587
          ],
          [
            -120.906299885925,
            48.142420317666
          ],
          [
            -120.911975109513,
            48.1481141427034
          ],
          [
            -120.914127643614,
            48.1503915114456
          ],
          [
            -120.917666617761,
            48.1548113370881
          ],
          [
            -120.920826869371,
            48.1598018152312
          ],
          [
            -120.923576056399,
            48.1633693005838
          ],
          [
            -120.926135972888,
            48.1667932233141
          ],
          [
            -120.927631640886,
            48.1692658371323
          ]
        ]
      },
      "properties": {
        "STATE": "WA",
        "DESCRIPTION": "Fault, sense of displacement unknown or undefined, certain",
        "RuleID": 22
      }
    },
    {
      "type": "Feature",
      "geometry": {
        "type": "LineString",
        "coordinates": [
          [
            -120.799528571977,
            48.1205823519654
          ],
          [
            -120.794168356118,
            48.1209541696687
          ],
          [
            -120.790368846284,
            48.1226484825281
          ],
          [
            -120.786568070723,
            48.1252358506423
          ],
          [
            -120.786371864292,
            48.1254452145015
          ],
          [
            -120.785517023875,
            48.1264165653927
          ],
          [
            -120.782486595891,
            48.131026888103
          ],
          [
            -120.78222791253,
            48.1372296637363
          ],
          [
            -120.784382323212,
            48.1438690427706
          ]
        ]
      },
      "properties": {
        "STATE": "WA",
        "DESCRIPTION": "Fault, sense of displacement unknown or undefined, certain",
        "RuleID": 22
      }
    },
    {
      "type": "Feature",
      "geometry": {
        "type": "LineString",
        "coordinates": [
          [
            -120.828539768282,
            48.163940939015
          ],
          [
            -120.826039849373,
            48.1599037111133
          ],
          [
            -120.823677463432,
            48.1558086029651
          ],
          [
            -120.82066587851,
            48.146758939824
          ],
          [
            -120.820482695854,
            48.1462098481988
          ],
          [
            -120.820291632278,
            48.1456384970992
          ],
          [
            -120.818261172038,
            48.132849875654
          ],
          [
            -120.813598551896,
            48.1191067736024
          ],
          [
            -120.807947945739,
            48.1083519725245
          ],
          [
            -120.79885395247,
            48.0969403239072
          ]
        ]
      },
      "properties": {
        "STATE": "WA",
        "DESCRIPTION": "Fault, sense of displacement unknown or undefined, certain",
        "RuleID": 22
      }
    },
    {
      "type": "Feature",
      "geometry": {
        "type": "LineString",
        "coordinates": [
          [
            -120.838736925958,
            48.0048117183243
          ],
          [
            -120.842546287616,
            48.0073113240721
          ],
          [
            -120.857099825262,
            48.0173189202693
          ],
          [
            -120.858599214083,
            48.0173561158507
          ],
          [
            -120.870826973932,
            48.0250111213859
          ],
          [
            -120.876460999883,
            48.029132332296
          ],
          [
            -120.879781837927,
            48.0330187949175
          ]
        ]
      },
      "properties": {
        "STATE": "WA",
        "DESCRIPTION": "Fault, sense of displacement unknown or undefined, certain",
        "RuleID": 22
      }
    },
    {
      "type": "Feature",
      "geometry": {
        "type": "LineString",
        "coordinates": [
          [
            -120.745437007624,
            47.9315319772167
          ],
          [
            -120.746554200122,
            47.9328558866194
          ],
          [
            -120.747594485154,
            47.9337646737012
          ],
          [
            -120.749017898061,
            47.9350530789969
          ],
          [
            -120.75036820607,
            47.9362706105443
          ],
          [
            -120.761458383461,
            47.9456186295387
          ],
          [
            -120.763532743471,
            47.9469837346251
          ],
          [
            -120.766308288866,
            47.9494892828712
          ],
          [
            -120.766539505338,
            47.9497177734016
          ],
          [
            -120.767697023209,
            47.9508624280273
          ],
          [
            -120.771865253738,
            47.9549687760496
          ],
          [
            -120.773289339484,
            47.95613648504
          ],
          [
            -120.775329900381,
            47.9577028111022
          ],
          [
            -120.777352928858,
            47.9593940230821
          ],
          [
            -120.779143520053,
            47.9608927888802
          ],
          [
            -120.781577228634,
            47.9634015365384
          ],
          [
            -120.782167178332,
            47.9639827354046
          ],
          [
            -120.782967230501,
            47.9647699950361
          ],
          [
            -120.791322648706,
            47.9741330257943
          ],
          [
            -120.792369819325,
            47.9755049543549
          ],
          [
            -120.805520073512,
            47.996499916769
          ],
          [
            -120.809718473062,
            48.0032030793372
          ],
          [
            -120.816234111921,
            48.0150788556728
          ],
          [
            -120.816785289433,
            48.0160883053009
          ],
          [
            -120.82880534801,
            48.0379785022907
          ],
          [
            -120.831040031246,
            48.0418430141927
          ],
          [
            -120.832173268554,
            48.0434601646527
          ]
        ]
      },
      "properties": {
        "STATE": "WA",
        "DESCRIPTION": "Fault, sense of displacement unknown or undefined, certain",
        "RuleID": 22
      }
    },
    {
      "type": "Feature",
      "geometry": {
        "type": "LineString",
        "coordinates": [
          [
            -121.172983680366,
            48.4331651139312
          ],
          [
            -121.168497601635,
            48.4309054362679
          ],
          [
            -121.1624472865,
            48.4276585796263
          ],
          [
            -121.159320782798,
            48.4258206538693
          ],
          [
            -121.155413197551,
            48.4235602919181
          ],
          [
            -121.149345053552,
            48.4193045299627
          ],
          [
            -121.145619482252,
            48.416468973866
          ],
          [
            -121.140530211757,
            48.4134955185086
          ],
          [
            -121.136803360358,
            48.410659218025
          ],
          [
            -121.133069183198,
            48.4073946194342
          ],
          [
            -121.127597849331,
            48.4044259249308
          ],
          [
            -121.119584770098,
            48.4000457911598
          ],
          [
            -121.112348252986,
            48.3953701301339
          ],
          [
            -121.105126494296,
            48.3918449290627
          ],
          [
            -121.098481067743,
            48.3881668628532
          ],
          [
            -121.093818450295,
            48.3866313949501
          ],
          [
            -121.08699471804,
            48.3838179484749
          ],
          [
            -121.080205256512,
            48.3814499959287
          ],
          [
            -121.075319699669,
            48.3797497074436
          ],
          [
            -121.061713735528,
            48.3759842699975
          ],
          [
            -121.051978755676,
            48.3718997037394
          ],
          [
            -121.044165898342,
            48.3672246259293
          ],
          [
            -121.043950591932,
            48.3669841552541
          ],
          [
            -121.035498011945,
            48.3575415737067
          ],
          [
            -121.031553745789,
            48.3528374230185
          ],
          [
            -121.026821031004,
            48.3471395093237
          ],
          [
            -121.022110174026,
            48.3427253795285
          ],
          [
            -121.017397731521,
            48.3381726793725
          ],
          [
            -121.015224593661,
            48.3367280999764
          ],
          [
            -121.012708513162,
            48.3350517382019
          ],
          [
            -121.004905721451,
            48.3305211728541
          ],
          [
            -120.992340845435,
            48.3235857997815
          ],
          [
            -120.982785322027,
            48.317635507225
          ],
          [
            -120.972458946189,
            48.3121170025063
          ],
          [
            -120.962930939976,
            48.3077349324063
          ],
          [
            -120.958036717983,
            48.3048569619804
          ],
          [
            -120.954740836037,
            48.3029203540722
          ],
          [
            -120.943830157311,
            48.2966854108659
          ]
        ]
      },
      "properties": {
        "STATE": "WA",
        "DESCRIPTION": "Fault, sense of displacement unknown or undefined, certain",
        "RuleID": 22
      }
    },
    {
      "type": "Feature",
      "geometry": {
        "type": "LineString",
        "coordinates": [
          [
            -120.879781837927,
            48.0330187949175
          ],
          [
            -120.881589445908,
            48.0339625059267
          ],
          [
            -120.889651189575,
            48.0364871441565
          ],
          [
            -120.896043160963,
            48.0393087556061
          ],
          [
            -120.897779231606,
            48.0398769360298
          ],
          [
            -120.905900143708,
            48.0425342514487
          ]
        ]
      },
      "properties": {
        "STATE": "WA",
        "DESCRIPTION": "Fault, sense of displacement unknown or undefined, certain",
        "RuleID": 22
      }
    },
    {
      "type": "Feature",
      "geometry": {
        "type": "LineString",
        "coordinates": [
          [
            -120.799528571977,
            48.1205823519654
          ],
          [
            -120.798472057083,
            48.1187513144863
          ],
          [
            -120.788699805232,
            48.1080294704778
          ],
          [
            -120.786618653959,
            48.1066652201119
          ],
          [
            -120.785839395094,
            48.1061146787314
          ],
          [
            -120.785243739297,
            48.1056900231619
          ],
          [
            -120.777942567739,
            48.1005233911332
          ],
          [
            -120.777249259681,
            48.100075892889
          ],
          [
            -120.776552514669,
            48.0993876346678
          ],
          [
            -120.776205557458,
            48.0991593890837
          ],
          [
            -120.760900147886,
            48.0854933575517
          ],
          [
            -120.760553241879,
            48.0852695756122
          ],
          [
            -120.759860064077,
            48.0848129844882
          ],
          [
            -120.759166795544,
            48.0843608949122
          ],
          [
            -120.758473641098,
            48.0839042957219
          ],
          [
            -120.757433658799,
            48.0832244633511
          ],
          [
            -120.756740011177,
            48.082772373016
          ]
        ]
      },
      "properties": {
        "STATE": "WA",
        "DESCRIPTION": "Fault, sense of displacement unknown or undefined, certain",
        "RuleID": 22
      }
    },
    {
      "type": "Feature",
      "geometry": {
        "type": "LineString",
        "coordinates": [
          [
            -121.047893652548,
            48.4555512750031
          ],
          [
            -121.046434689712,
            48.4492524060856
          ],
          [
            -121.045617652198,
            48.4439741309155
          ],
          [
            -121.045347911475,
            48.4422356423687
          ],
          [
            -121.043272698964,
            48.4340776735856
          ],
          [
            -121.040456765314,
            48.4275023607004
          ],
          [
            -121.035503051494,
            48.4206552192436
          ],
          [
            -121.033979591417,
            48.4183507085285
          ],
          [
            -121.029552965886,
            48.4116636891564
          ],
          [
            -121.021870677781,
            48.4032607199255
          ],
          [
            -121.020094018558,
            48.4011250037275
          ],
          [
            -121.018315479162,
            48.3989848284322
          ],
          [
            -121.015354975142,
            48.3952756546702
          ],
          [
            -121.012976462645,
            48.3917131179289
          ],
          [
            -121.011327298615,
            48.3854128132846
          ],
          [
            -121.008510556482,
            48.3788355865145
          ],
          [
            -121.006143535234,
            48.3744343902858
          ],
          [
            -121.004128938343,
            48.3706930518721
          ],
          [
            -121.003444934137,
            48.3693196883366
          ],
          [
            -121.000253634055,
            48.3626935054631
          ],
          [
            -120.996477024973,
            48.356119928081
          ]
        ]
      },
      "properties": {
        "STATE": "WA",
        "DESCRIPTION": "Fault, sense of displacement unknown or undefined, certain",
        "RuleID": 22
      }
    },
    {
      "type": "Feature",
      "geometry": {
        "type": "LineString",
        "coordinates": [
          [
            -120.403481988528,
            47.5563203815491
          ],
          [
            -120.446669899879,
            47.5996482830942
          ],
          [
            -120.447703804177,
            47.6010245376492
          ],
          [
            -120.448081787401,
            47.6014731320982
          ],
          [
            -120.450222272398,
            47.6040435057286
          ],
          [
            -120.457835562703,
            47.6131659782901
          ],
          [
            -120.469706862963,
            47.6273912870654
          ],
          [
            -120.493988880252,
            47.6561253818251
          ],
          [
            -120.494579713892,
            47.6577584774446
          ],
          [
            -120.521419404576,
            47.6950655614117
          ],
          [
            -120.52621359467,
            47.7017321536421
          ],
          [
            -120.565584399089,
            47.7563686805239
          ],
          [
            -120.568404873722,
            47.7602781016415
          ],
          [
            -120.569999619608,
            47.7624908426415
          ],
          [
            -120.571526186958,
            47.7646043459145
          ],
          [
            -120.576273414027,
            47.7711827866801
          ],
          [
            -120.582913184787,
            47.7803844717895
          ],
          [
            -120.588859361825,
            47.7886188379031
          ],
          [
            -120.591216174618,
            47.7918830225816
          ],
          [
            -120.591530985616,
            47.7923168764819
          ],
          [
            -120.592328393144,
            47.793579546788
          ],
          [
            -120.593269549084,
            47.795069676142
          ],
          [
            -120.604976239356,
            47.8109725962644
          ],
          [
            -120.62761716847,
            47.8416320203929
          ],
          [
            -120.628129516304,
            47.84204854907
          ],
          [
            -120.629950584641,
            47.843929767702
          ],
          [
            -120.630062046703,
            47.8442515837031
          ],
          [
            -120.649171078597,
            47.8694093640368
          ],
          [
            -120.650906421605,
            47.8714640073445
          ],
          [
            -120.652225805111,
            47.8730485996645
          ],
          [
            -120.654897630124,
            47.8762578114835
          ],
          [
            -120.656129670435,
            47.8777347659148
          ],
          [
            -120.680430598159,
            47.9068912422442
          ],
          [
            -120.681757108898,
            47.9083459556976
          ],
          [
            -120.682513253212,
            47.9091739774975
          ],
          [
            -120.701024026889,
            47.9292361507025
          ],
          [
            -120.712597921908,
            47.9417735238632
          ],
          [
            -120.713266591873,
            47.9422839388614
          ],
          [
            -120.724245571307,
            47.9585246372063
          ],
          [
            -120.725160620408,
            47.9595534539326
          ],
          [
            -120.726680631853,
            47.9612622948656
          ],
          [
            -120.730654263037,
            47.9675881488463
          ],
          [
            -120.742692578074,
            47.986739380761
          ],
          [
            -120.743198277477,
            47.9876914358109
          ],
          [
            -120.743486316883,
            47.9882547081014
          ],
          [
            -120.768001146052,
            48.0259794683447
          ],
          [
            -120.768705916613,
            48.0273556973067
          ],
          [
            -120.784503120566,
            48.0498625721754
          ],
          [
            -120.785408818205,
            48.0511496685783
          ],
          [
            -120.797421511495,
            48.0682510224587
          ],
          [
            -120.798470760814,
            48.0696184813972
          ],
          [
            -120.811438232995,
            48.0860847564593
          ],
          [
            -120.82077810414,
            48.0979479160821
          ],
          [
            -120.826738056843,
            48.1055163670383
          ],
          [
            -120.830305727672,
            48.1100415096655
          ],
          [
            -120.831349444268,
            48.1109536472705
          ],
          [
            -120.852067778349,
            48.1410127120111
          ],
          [
            -120.852999446283,
            48.1423656173435
          ],
          [
            -120.85823724782,
            48.149966360572
          ],
          [
            -120.86021546923,
            48.1523245245182
          ],
          [
            -120.863163998707,
            48.1560314641839
          ],
          [
            -120.866497114924,
            48.1603096070122
          ],
          [
            -120.870603491954,
            48.1642987756439
          ],
          [
            -120.879594616445,
            48.1731240122005
          ],
          [
            -120.884288675826,
            48.1778216463013
          ]
        ]
      },
      "properties": {
        "STATE": "WA",
        "DESCRIPTION": "Fault, sense of displacement unknown or undefined, certain",
        "RuleID": 22
      }
    },
    {
      "type": "Feature",
      "geometry": {
        "type": "LineString",
        "coordinates": [
          [
            -120.986763875081,
            48.3894664178078
          ],
          [
            -120.97966010651,
            48.3804847660214
          ],
          [
            -120.977521915809,
            48.3773989815388
          ],
          [
            -120.974120806109,
            48.372493219925
          ],
          [
            -120.968013556649,
            48.3650803599048
          ]
        ]
      },
      "properties": {
        "STATE": "WA",
        "DESCRIPTION": "Fault, sense of displacement unknown or undefined, certain",
        "RuleID": 22
      }
    },
    {
      "type": "Feature",
      "geometry": {
        "type": "LineString",
        "coordinates": [
          [
            -120.82671015517,
            48.1712748367475
          ],
          [
            -120.826724302738,
            48.1723009649853
          ],
          [
            -120.824438861992,
            48.1808031705383
          ],
          [
            -120.824313705114,
            48.1815213774412
          ],
          [
            -120.824118353879,
            48.182654370051
          ],
          [
            -120.823500251878,
            48.1877090683436
          ],
          [
            -120.820832082109,
            48.1937025540461
          ],
          [
            -120.821289586897,
            48.201966595959
          ],
          [
            -120.821479293119,
            48.2034391067047
          ],
          [
            -120.821674927323,
            48.2049474497446
          ],
          [
            -120.823316784456,
            48.208742116361
          ],
          [
            -120.833454882393,
            48.2321644499599
          ]
        ]
      },
      "properties": {
        "STATE": "WA",
        "DESCRIPTION": "Fault, sense of displacement unknown or undefined, certain",
        "RuleID": 22
      }
    },
    {
      "type": "Feature",
      "geometry": {
        "type": "LineString",
        "coordinates": [
          [
            -120.748245306492,
            48.3953308675241
          ],
          [
            -120.744368045674,
            48.3967369916598
          ],
          [
            -120.742105021488,
            48.3975491428584
          ],
          [
            -120.740519072803,
            48.3980188395851
          ],
          [
            -120.739734960341,
            48.3982446804431
          ],
          [
            -120.735049637975,
            48.3998365458495
          ],
          [
            -120.73350885299,
            48.4003863623967
          ],
          [
            -120.733038581345,
            48.4005590957152
          ],
          [
            -120.731315743784,
            48.4011758749927
          ],
          [
            -120.724104610367,
            48.4045098605924
          ],
          [
            -120.722459789692,
            48.4052738180747
          ],
          [
            -120.720438431183,
            48.406205851786
          ]
        ]
      },
      "properties": {
        "STATE": "WA",
        "DESCRIPTION": "Fault, sense of displacement unknown or undefined, certain",
        "RuleID": 22
      }
    },
    {
      "type": "Feature",
      "geometry": {
        "type": "LineString",
        "coordinates": [
          [
            -120.816327961614,
            47.9797538379032
          ],
          [
            -120.824718897409,
            47.9837789068516
          ],
          [
            -120.826789386578,
            47.9846788991622
          ],
          [
            -120.836260930083,
            47.999544939703
          ],
          [
            -120.836373745906,
            47.9997636087852
          ],
          [
            -120.836966261193,
            48.0009207695689
          ],
          [
            -120.838736925958,
            48.0048117183243
          ]
        ]
      },
      "properties": {
        "STATE": "WA",
        "DESCRIPTION": "Fault, sense of displacement unknown or undefined, certain",
        "RuleID": 22
      }
    },
    {
      "type": "Feature",
      "geometry": {
        "type": "LineString",
        "coordinates": [
          [
            -120.922095949018,
            48.0815442873392
          ],
          [
            -120.918182643298,
            48.0774180407407
          ],
          [
            -120.910763270517,
            48.0707311981006
          ],
          [
            -120.90571535217,
            48.0676125127436
          ],
          [
            -120.89982084443,
            48.0599169344516
          ],
          [
            -120.891584062233,
            48.0495103555975
          ],
          [
            -120.883510414091,
            48.0373928441126
          ],
          [
            -120.879781837927,
            48.0330187949175
          ]
        ]
      },
      "properties": {
        "STATE": "WA",
        "DESCRIPTION": "Fault, sense of displacement unknown or undefined, certain",
        "RuleID": 22
      }
    },
    {
      "type": "Feature",
      "geometry": {
        "type": "LineString",
        "coordinates": [
          [
            -120.835128401547,
            48.1400383198016
          ],
          [
            -120.832684298559,
            48.1492553605698
          ],
          [
            -120.828539768282,
            48.163940939015
          ]
        ]
      },
      "properties": {
        "STATE": "WA",
        "DESCRIPTION": "Fault, sense of displacement unknown or undefined, certain",
        "RuleID": 22
      }
    }
  ]
}