{
  "type": "FeatureCollection",
  "features": [
    {
      "type": "Feature",
      "geometry": {
        "type": "LineString",
        "coordinates": [
          [
            -112.371931526621,
            34.4623914164089
          ],
          [
            -112.370210908797,
            34.4634657538518
          ],
          [
            -112.361531822204,
            34.4688920330031
          ],
          [
            -112.353118760005,
            34.473097408541
          ],
          [
            -112.335732308754,
            34.4805229041907
          ],
          [
            -112.325935454742,
            34.4837811890693
          ]
        ]
      },
      "properties": {
        "STATE": "AZ",
        "DESCRIPTION": "Fault, sense of displacement unknown or undefined, certain",
        "RuleID": 22
      }
    },
    {
      "type": "Feature",
      "geometry": {
        "type": "LineString",
        "coordinates": [
          [
            -112.288406837155,
            34.3833890490814
          ],
          [
            -112.286730164915,
            34.3882829693546
          ],
          [
            -112.277700633852,
            34.3995481763574
          ],
          [
            -112.270668648757,
            34.4053228092698
          ]
        ]
      },
      "properties": {
        "STATE": "AZ",
        "DESCRIPTION": "Fault, sense of displacement unknown or undefined, certain",
        "RuleID": 22
      }
    },
    {
      "type": "Feature",
      "geometry": {
        "type": "LineString",
        "coordinates": [
          [
            -112.31313179215,
            34.3309637209851
          ],
          [
            -112.316731161831,
            34.3253318540049
          ],
          [
            -112.323728697433,
            34.3092342507512
          ],
          [
            -112.334130185903,
            34.2903623341468
          ],
          [
            -112.34293567893,
            34.2756461606514
          ],
          [
            -112.346536874886,
            34.2682639626018
          ],
          [
            -112.347024410353,
            34.2666309044092
          ]
        ]
      },
      "properties": {
        "STATE": "AZ",
        "DESCRIPTION": "Fault, sense of displacement unknown or undefined, certain",
        "RuleID": 22
      }
    },
    {
      "type": "Feature",
      "geometry": {
        "type": "LineString",
        "coordinates": [
          [
            -112.077183046672,
            34.7019335079708
          ],
          [
            -112.07723375118,
            34.7005804521194
          ],
          [
            -112.076912145325,
            34.6965096809924
          ],
          [
            -112.076778184956,
            34.6957454103981
          ]
        ]
      },
      "properties": {
        "STATE": "AZ",
        "DESCRIPTION": "Fault, sense of displacement unknown or undefined, certain",
        "RuleID": 22
      }
    },
    {
      "type": "Feature",
      "geometry": {
        "type": "LineString",
        "coordinates": [
          [
            -112.464410693805,
            34.5257941846499
          ],
          [
            -112.460368637946,
            34.5285049368254
          ],
          [
            -112.452710976256,
            34.532881732969
          ],
          [
            -112.435224573056,
            34.5424597254527
          ]
        ]
      },
      "properties": {
        "STATE": "AZ",
        "DESCRIPTION": "Fault, sense of displacement unknown or undefined, certain",
        "RuleID": 22
      }
    },
    {
      "type": "Feature",
      "geometry": {
        "type": "LineString",
        "coordinates": [
          [
            -112.084676243003,
            34.7195975479091
          ],
          [
            -112.082268304392,
            34.7185345908503
          ],
          [
            -112.079760195542,
            34.7176370389401
          ],
          [
            -112.077735811507,
            34.7167464359229
          ],
          [
            -112.076908070567,
            34.7161811416259
          ],
          [
            -112.076529135129,
            34.7154337879974
          ],
          [
            -112.076451205379,
            34.7145552815901
          ],
          [
            -112.077049657632,
            34.706806327856
          ],
          [
            -112.077119457628,
            34.7042564406073
          ]
        ]
      },
      "properties": {
        "STATE": "AZ",
        "DESCRIPTION": "Fault, sense of displacement unknown or undefined, certain",
        "RuleID": 22
      }
    },
    {
      "type": "Feature",
      "geometry": {
        "type": "LineString",
        "coordinates": [
          [
            -112.182303205025,
            34.6149072665641
          ],
          [
            -112.182310577498,
            34.6171097096641
          ],
          [
            -112.18232334166,
            34.6220714378399
          ]
        ]
      },
      "properties": {
        "STATE": "AZ",
        "DESCRIPTION": "Fault, sense of displacement unknown or undefined, certain",
        "RuleID": 22
      }
    },
    {
      "type": "Feature",
      "geometry": {
        "type": "LineString",
        "coordinates": [
          [
            -112.288406837155,
            34.3833890490814
          ],
          [
            -112.290928153036,
            34.3794848961627
          ],
          [
            -112.299526196318,
            34.3636536199305
          ]
        ]
      },
      "properties": {
        "STATE": "AZ",
        "DESCRIPTION": "Fault, sense of displacement unknown or undefined, certain",
        "RuleID": 22
      }
    },
    {
      "type": "Feature",
      "geometry": {
        "type": "LineString",
        "coordinates": [
          [
            -112.093758669564,
            34.7282723197596
          ],
          [
            -112.091499429083,
            34.7270729562417
          ]
        ]
      },
      "properties": {
        "STATE": "AZ",
        "DESCRIPTION": "Fault, sense of displacement unknown or undefined, certain",
        "RuleID": 22
      }
    },
    {
      "type": "Feature",
      "geometry": {
        "type": "LineString",
        "coordinates": [
          [
            -112.299526196318,
            34.3636536199305
          ],
          [
            -112.306633251824,
            34.3534714306568
          ],
          [
            -112.309331903227,
            34.3485820823884
          ],
          [
            -112.311229883522,
            34.343412687919
          ],
          [
            -112.313034408485,
            34.3363144913041
          ],
          [
            -112.31313179215,
            34.3309637209851
          ]
        ]
      },
      "properties": {
        "STATE": "AZ",
        "DESCRIPTION": "Fault, sense of displacement unknown or undefined, certain",
        "RuleID": 22
      }
    },
    {
      "type": "Feature",
      "geometry": {
        "type": "LineString",
        "coordinates": [
          [
            -112.077119457628,
            34.7042564406073
          ],
          [
            -112.077183046672,
            34.7019335079708
          ]
        ]
      },
      "properties": {
        "STATE": "AZ",
        "DESCRIPTION": "Fault, sense of displacement unknown or undefined, certain",
        "RuleID": 22
      }
    },
    {
      "type": "Feature",
      "geometry": {
        "type": "LineString",
        "coordinates": [
          [
            -112.325935454742,
            34.4837811890693
          ],
          [
            -112.321078753583,
            34.4853013791185
          ],
          [
            -112.319983208686,
            34.4856851867612
          ]
        ]
      },
      "properties": {
        "STATE": "AZ",
        "DESCRIPTION": "Fault, sense of displacement unknown or undefined, certain",
        "RuleID": 22
      }
    },
    {
      "type": "Feature",
      "geometry": {
        "type": "LineString",
        "coordinates": [
          [
            -112.30423884813,
            34.3353399295665
          ],
          [
            -112.301134246254,
            34.3377004329073
          ]
        ]
      },
      "properties": {
        "STATE": "AZ",
        "DESCRIPTION": "Fault, sense of displacement unknown or undefined, certain",
        "RuleID": 22
      }
    },
    {
      "type": "Feature",
      "geometry": {
        "type": "LineString",
        "coordinates": [
          [
            -112.319983208686,
            34.4856851867612
          ],
          [
            -112.304615691392,
            34.4947166261785
          ],
          [
            -112.297805985431,
            34.4998389136257
          ],
          [
            -112.29025447676,
            34.5069503125384
          ],
          [
            -112.279211387259,
            34.5187463999148
          ],
          [
            -112.268630814247,
            34.5322793313267
          ]
        ]
      },
      "properties": {
        "STATE": "AZ",
        "DESCRIPTION": "Fault, sense of displacement unknown or undefined, certain",
        "RuleID": 22
      }
    },
    {
      "type": "Feature",
      "geometry": {
        "type": "LineString",
        "coordinates": [
          [
            -112.182990238351,
            34.5963967593563
          ],
          [
            -112.182430722676,
            34.6084202208711
          ]
        ]
      },
      "properties": {
        "STATE": "AZ",
        "DESCRIPTION": "Fault, sense of displacement unknown or undefined, certain",
        "RuleID": 22
      }
    },
    {
      "type": "Feature",
      "geometry": {
        "type": "LineString",
        "coordinates": [
          [
            -112.301134246254,
            34.3377004329073
          ],
          [
            -112.29207371972,
            34.3445880595812
          ],
          [
            -112.28296442904,
            34.3495376454407
          ],
          [
            -112.275029077435,
            34.356981245367
          ]
        ]
      },
      "properties": {
        "STATE": "AZ",
        "DESCRIPTION": "Fault, sense of displacement unknown or undefined, certain",
        "RuleID": 22
      }
    },
    {
      "type": "Feature",
      "geometry": {
        "type": "LineString",
        "coordinates": [
          [
            -112.31313179215,
            34.3309637209851
          ],
          [
            -112.30866095783,
            34.3344090013671
          ],
          [
            -112.30423884813,
            34.3353399295665
          ]
        ]
      },
      "properties": {
        "STATE": "AZ",
        "DESCRIPTION": "Fault, sense of displacement unknown or undefined, certain",
        "RuleID": 22
      }
    },
    {
      "type": "Feature",
      "geometry": {
        "type": "LineString",
        "coordinates": [
          [
            -112.091499429083,
            34.7270729562417
          ],
          [
            -112.084676243003,
            34.7195975479091
          ]
        ]
      },
      "properties": {
        "STATE": "AZ",
        "DESCRIPTION": "Fault, sense of displacement unknown or undefined, certain",
        "RuleID": 22
      }
    },
    {
      "type": "Feature",
      "geometry": {
        "type": "LineString",
        "coordinates": [
          [
            -112.182303205025,
            34.6149072665641
          ],
          [
            -112.182289884806,
            34.6109149138627
          ],
          [
            -112.182430722676,
            34.6084202208711
          ]
        ]
      },
      "properties": {
        "STATE": "AZ",
        "DESCRIPTION": "Fault, sense of displacement unknown or undefined, certain",
        "RuleID": 22
      }
    },
    {
      "type": "Feature",
      "geometry": {
        "type": "LineString",
        "coordinates": [
          [
            -112.10471548756,
            34.7358563751645
          ],
          [
            -112.102489545829,
            34.7332592292487
          ],
          [
            -112.101362695544,
            34.7323000444421
          ],
          [
            -112.099174382444,
            34.7309829576659
          ],
          [
            -112.093758669564,
            34.7282723197596
          ]
        ]
      },
      "properties": {
        "STATE": "AZ",
        "DESCRIPTION": "Fault, sense of displacement unknown or undefined, certain",
        "RuleID": 22
      }
    },
    {
      "type": "Feature",
      "geometry": {
        "type": "LineString",
        "coordinates": [
          [
            -112.515661877757,
            34.4811334389159
          ],
          [
            -112.510144494452,
            34.4878789579899
          ],
          [
            -112.507074861294,
            34.4910210104316
          ],
          [
            -112.501948251426,
            34.4950133527078
          ],
          [
            -112.489758334006,
            34.5033840593936
          ],
          [
            -112.479459280428,
            34.5114399233245
          ],
          [
            -112.473071912907,
            34.5169770822393
          ],
          [
            -112.468961960582,
            34.5223355065128
          ],
          [
            -112.466296895391,
            34.5245316778572
          ],
          [
            -112.464410693805,
            34.5257941846499
          ]
        ]
      },
      "properties": {
        "STATE": "AZ",
        "DESCRIPTION": "Fault, sense of displacement unknown or undefined, certain",
        "RuleID": 22
      }
    },
    {
      "type": "Feature",
      "geometry": {
        "type": "LineString",
        "coordinates": [
          [
            -112.432044568392,
            34.4212973477186
          ],
          [
            -112.399255930266,
            34.4498446358613
          ]
        ]
      },
      "properties": {
        "STATE": "AZ",
        "DESCRIPTION": "Fault, sense of displacement unknown or undefined, certain",
        "RuleID": 22
      }
    },
    {
      "type": "Feature",
      "geometry": {
        "type": "LineString",
        "coordinates": [
          [
            -111.996512941769,
            34.5886781274983
          ],
          [
            -111.998206850883,
            34.5904497828184
          ],
          [
            -111.999124900357,
            34.5915649678191
          ],
          [
            -112.000451210772,
            34.5935334726783
          ],
          [
            -112.001869510468,
            34.5959768824155
          ],
          [
            -112.004206616919,
            34.6005408686497
          ],
          [
            -112.008272939867,
            34.608911729609
          ],
          [
            -112.01198151055,
            34.617479284116
          ],
          [
            -112.012831898917,
            34.6191292076008
          ],
          [
            -112.01378724195,
            34.6207173833774
          ],
          [
            -112.014914908805,
            34.6222049266308
          ],
          [
            -112.016015504928,
            34.6231741746613
          ],
          [
            -112.021041648113,
            34.6264101194527
          ],
          [
            -112.025286137525,
            34.6305338828129
          ],
          [
            -112.027510163149,
            34.6325148209888
          ],
          [
            -112.031037123227,
            34.6353323666277
          ],
          [
            -112.040237456365,
            34.6423894195523
          ],
          [
            -112.044118470345,
            34.645800970741
          ],
          [
            -112.050751149804,
            34.6515265231152
          ],
          [
            -112.05572425915,
            34.6563350152369
          ],
          [
            -112.05780197796,
            34.6584451498483
          ],
          [
            -112.059784611894,
            34.6606056692668
          ],
          [
            -112.06132407456,
            34.6624521453565
          ],
          [
            -112.06243864757,
            34.663977670022
          ],
          [
            -112.063225934679,
            34.6656435521179
          ],
          [
            -112.064397418658,
            34.6691591651459
          ],
          [
            -112.066113295173,
            34.6729608210657
          ],
          [
            -112.0697507651,
            34.6805013827878
          ],
          [
            -112.073274276546,
            34.6875919543171
          ],
          [
            -112.07379607825,
            34.6885724838591
          ]
        ]
      },
      "properties": {
        "STATE": "AZ",
        "DESCRIPTION": "Normal fault, certain, (U/D designated in source)",
        "RuleID": 43
      }
    },
    {
      "type": "Feature",
      "geometry": {
        "type": "LineString",
        "coordinates": [
          [
            -112.206228662113,
            34.6949798143637
          ],
          [
            -112.209025297255,
            34.6994382539471
          ],
          [
            -112.211329050158,
            34.7045192059954
          ],
          [
            -112.211830257085,
            34.7080963552133
          ],
          [
            -112.213230543764,
            34.7124580851113
          ],
          [
            -112.214030923817,
            34.7196369066911
          ],
          [
            -112.215131386092,
            34.724057945649
          ],
          [
            -112.219730639074,
            34.7332096655062
          ],
          [
            -112.225930102394,
            34.7417274392776
          ],
          [
            -112.228991474644,
            34.7471205038103
          ],
          [
            -112.230172936211,
            34.7517186401526
          ],
          [
            -112.231255156396,
            34.7559232364107
          ],
          [
            -112.23134183933,
            34.7578745720292
          ],
          [
            -112.231744078863,
            34.7596919730929
          ],
          [
            -112.232228716365,
            34.7618602065494
          ],
          [
            -112.232852382531,
            34.7691487608617
          ],
          [
            -112.232771945584,
            34.7755855422719
          ],
          [
            -112.232153285729,
            34.7806008002175
          ],
          [
            -112.232057942138,
            34.785464237573
          ],
          [
            -112.232648162229,
            34.7900321945639
          ],
          [
            -112.233030089956,
            34.792604964628
          ],
          [
            -112.232714642052,
            34.794749714792
          ],
          [
            -112.232214830208,
            34.7963282491716
          ],
          [
            -112.230831804657,
            34.79752796944
          ]
        ]
      },
      "properties": {
        "STATE": "AZ",
        "DESCRIPTION": "Normal fault, certain, (U/D designated in source)",
        "RuleID": 43
      }
    }
  ]
}