{
  "type": "FeatureCollection",
  "features": [
    {
      "type": "Feature",
      "geometry": {
        "type": "LineString",
        "coordinates": [
          [
            -113.37602557882538,
            37.81742610477061
          ],
          [
            -113.38078624469101,
            37.816331650240386
          ],
          [
            -113.38583690379835,
            37.81460720497963
          ]
        ]
      },
      "properties": {
        "fault_name": "Antelope Range fault",
        "age": "middle and late Quaternary",
        "slip_rate": "Less than 0.2 mm/yr"
      }
    },
    {
      "type": "Feature",
      "geometry": {
        "type": "LineString",
        "coordinates": [
          [
            -113.54195124169335,
            37.667720232312284
          ],
          [
            -113.54338569040365,
            37.66531360670981
          ],
          [
            -113.54416344279349,
            37.66256699583977
          ],
          [
            -113.5459640448136,
            37.661872550819425
          ],
          [
            -113.54725351082693,
            37.66066701171362
          ],
          [
            -113.54853517137879,
            37.6579203967523
          ],
          [
            -113.54903126240116,
            37.655857106080745
          ],
          [
            -113.54967235857842,
            37.65396881106929
          ],
          [
            -113.5513962938806,
            37.65333547790552
          ],
          [
            -113.553769123635,
            37.65178271493886
          ],
          [
            -113.55541693659835,
            37.65057717273884
          ],
          [
            -113.55721030358714,
            37.64908608132556
          ]
        ]
      },
      "properties": {
        "fault_name": "Antelope Range fault",
        "age": "middle and late Quaternary",
        "slip_rate": "Less than 0.2 mm/yr"
      }
    },
    {
      "type": "Feature",
      "geometry": {
        "type": "LineString",
        "coordinates": [
          [
            -113.5009807461629,
            37.7090141501489
          ],
          [
            -113.50602419718838,
            37.70722858194229
          ],
          [
            -113.50817534429025,
            37.70579081421136
          ],
          [
            -113.50925869455658,
            37.70498970877727
          ],
          [
            -113.51155539658224,
            37.70326528001604
          ],
          [
            -113.51614823199998,
            37.698848109861686
          ],
          [
            -113.51830770378957,
            37.69689868617064
          ],
          [
            -113.52045884729817,
            37.69512092725674
          ],
          [
            -113.52195439043095,
            37.69196987227288
          ],
          [
            -113.52223656832969,
            37.68928048578894
          ],
          [
            -113.52199981643822,
            37.68522224420529
          ],
          [
            -113.52191587965471,
            37.6828761860943
          ],
          [
            -113.5227781114105,
            37.68195675505927
          ],
          [
            -113.52435758144533,
            37.68069398982964
          ],
          [
            -113.52528030934562,
            37.67651685264965
          ],
          [
            -113.52583745706124,
            37.67171084382548
          ]
        ]
      },
      "properties": {
        "fault_name": "Antelope Range fault",
        "age": "middle and late Quaternary",
        "slip_rate": "Less than 0.2 mm/yr"
      }
    },
    {
      "type": "Feature",
      "geometry": {
        "type": "LineString",
        "coordinates": [
          [
            -113.45762326163248,
            37.78324678111406
          ],
          [
            -113.45820326428557,
            37.78261345527049
          ],
          [
            -113.45934770268619,
            37.78078237274734
          ],
          [
            -113.46085825487073,
            37.77848962864601
          ],
          [
            -113.46380329618978,
            37.77648353788707
          ],
          [
            -113.4652449943044,
            37.77607909204373
          ],
          [
            -113.46733557429485,
            37.77441577777051
          ],
          [
            -113.46927335804203,
            37.77200858913257
          ],
          [
            -113.47343893674432,
            37.76736643073583
          ],
          [
            -113.47502617540972,
            37.766046446681415
          ],
          [
            -113.47573559115926,
            37.76358593465894
          ],
          [
            -113.47587277558124,
            37.761468753327776
          ],
          [
            -113.47636884414575,
            37.758722136970505
          ],
          [
            -113.47664323724423,
            37.75580441465409
          ],
          [
            -113.47728429838719,
            37.752428365282654
          ]
        ]
      },
      "properties": {
        "fault_name": "Antelope Range fault",
        "age": "middle and late Quaternary",
        "slip_rate": "Less than 0.2 mm/yr"
      }
    },
    {
      "type": "Feature",
      "geometry": {
        "type": "LineString",
        "coordinates": [
          [
            -113.44415839766914,
            37.794260621184925
          ],
          [
            -113.4512157026784,
            37.788641794846974
          ]
        ]
      },
      "properties": {
        "fault_name": "Antelope Range fault",
        "age": "middle and late Quaternary",
        "slip_rate": "Less than 0.2 mm/yr"
      }
    },
    {
      "type": "Feature",
      "geometry": {
        "type": "LineString",
        "coordinates": [
          [
            -113.40027231837443,
            37.81527098421979
          ],
          [
            -113.40373569659558,
            37.81274934333995
          ],
          [
            -113.40668849935867,
            37.81005604231416
          ],
          [
            -113.41035852063787,
            37.80610053788229
          ],
          [
            -113.41200628239721,
            37.803125029062684
          ],
          [
            -113.41337183930835,
            37.801293943746266
          ],
          [
            -113.41510407684042,
            37.79968785266962
          ],
          [
            -113.41769021425398,
            37.79745287995141
          ],
          [
            -113.42417530500364,
            37.79309236407507
          ],
          [
            -113.42734146842648,
            37.79131459993167
          ]
        ]
      },
      "properties": {
        "fault_name": "Antelope Range fault",
        "age": "middle and late Quaternary",
        "slip_rate": "Less than 0.2 mm/yr"
      }
    },
    {
      "type": "Feature",
      "geometry": {
        "type": "LineString",
        "coordinates": [
          [
            -113.48665340879694,
            37.75034556773525
          ],
          [
            -113.48794287211534,
            37.74948724274246
          ],
          [
            -113.49182624956272,
            37.74633228708926
          ],
          [
            -113.49290181592713,
            37.74529841432963
          ],
          [
            -113.49361902995163,
            37.74392510500811
          ],
          [
            -113.49390122940994,
            37.742437914324356
          ],
          [
            -113.49396228340821,
            37.73951964434849
          ],
          [
            -113.493306106314,
            37.7372308091179
          ],
          [
            -113.49258104640379,
            37.73523196668173
          ],
          [
            -113.49142155313731,
            37.73437755001273
          ],
          [
            -113.49126873713107,
            37.73271814326163
          ],
          [
            -113.49227595158382,
            37.73100150572912
          ],
          [
            -113.49299318177803,
            37.7303109596556
          ],
          [
            -113.49356539513929,
            37.72910931721947
          ],
          [
            -113.49327537315149,
            37.72842266691069
          ],
          [
            -113.49211588168166,
            37.72779713187053
          ],
          [
            -113.49161195914664,
            37.72676715815105
          ],
          [
            -113.49232138837091,
            37.7250505233484
          ],
          [
            -113.49324468041318,
            37.72173170228524
          ],
          [
            -113.49338966311015,
            37.72075894524223
          ],
          [
            -113.4931607283583,
            37.71875676607242
          ],
          [
            -113.49293957032187,
            37.71675403323202
          ]
        ]
      },
      "properties": {
        "fault_name": "Antelope Range fault",
        "age": "middle and late Quaternary",
        "slip_rate": "Less than 0.2 mm/yr"
      }
    },
    {
      "type": "Feature",
      "geometry": {
        "type": "LineString",
        "coordinates": [
          [
            -113.52811499083536,
            37.89856220775146
          ],
          [
            -113.52875609240247,
            37.89747111221112
          ],
          [
            -113.53026663829883,
            37.8955216878588
          ],
          [
            -113.53271554188306,
            37.894083907125996
          ],
          [
            -113.53560724303715,
            37.893393329312325
          ],
          [
            -113.53791115134804,
            37.89235165325268
          ],
          [
            -113.54000172415196,
            37.891317759265206
          ],
          [
            -113.54267230499886,
            37.89028774567396
          ],
          [
            -113.54498400709315,
            37.89004772165349
          ],
          [
            -113.54692957923382,
            37.88907105026015
          ],
          [
            -113.54887513969636,
            37.887461058302826
          ]
        ]
      },
      "properties": {
        "fault_name": "Escalante Desert faults near Zane",
        "age": "late Quaternary",
        "slip_rate": "Less than 0.2 mm/yr"
      }
    },
    {
      "type": "Feature",
      "geometry": {
        "type": "LineString",
        "coordinates": [
          [
            -113.51058262443578,
            37.90540951787369
          ],
          [
            -113.51173485841645,
            37.905123396948724
          ],
          [
            -113.51346653629805,
            37.90431839200646
          ],
          [
            -113.51411541368229,
            37.90317396192242
          ],
          [
            -113.51519876125369,
            37.902998952276775
          ],
          [
            -113.51685432937288,
            37.90236560914604
          ],
          [
            -113.51829599065658,
            37.90093117525654
          ],
          [
            -113.5198065590108,
            37.900297836304844
          ],
          [
            -113.5211037694002,
            37.898581186770436
          ],
          [
            -113.52182098522135,
            37.89760453005282
          ],
          [
            -113.52289652643293,
            37.89582732986113
          ],
          [
            -113.52382760956368,
            37.89353847422163
          ]
        ]
      },
      "properties": {
        "fault_name": "Escalante Desert faults near Zane",
        "age": "late Quaternary",
        "slip_rate": "Less than 0.2 mm/yr"
      }
    },
    {
      "type": "Feature",
      "geometry": {
        "type": "LineString",
        "coordinates": [
          [
            -113.14579874687198,
            37.58877835807238
          ],
          [
            -113.14601212729468,
            37.59295552881278
          ],
          [
            -113.14680605025795,
            37.594729396886336
          ],
          [
            -113.1473782995518,
            37.59621715821568
          ],
          [
            -113.14817166286467,
            37.59747603404332
          ],
          [
            -113.14892724842653,
            37.59883379802475
          ],
          [
            -113.1492778294409,
            37.60059988565492
          ],
          [
            -113.14939228918112,
            37.60188153813957
          ],
          [
            -113.14910228965124,
            37.60245375193462
          ]
        ]
      },
      "properties": {
        "fault_name": "North Hills faults",
        "age": "middle and late Quaternary",
        "slip_rate": "Less than 0.2 mm/yr"
      }
    },
    {
      "type": "Feature",
      "geometry": {
        "type": "LineString",
        "coordinates": [
          [
            -113.13868022526941,
            37.583967830832876
          ],
          [
            -113.13896251455924,
            37.59026220022527
          ],
          [
            -113.13967979056751,
            37.5940960456632
          ],
          [
            -113.14003869716794,
            37.595240476147765
          ],
          [
            -113.14119040114255,
            37.59661379796688
          ],
          [
            -113.14205265535622,
            37.598044338657054
          ],
          [
            -113.14255657070473,
            37.59964654391879
          ],
          [
            -113.14231213642098,
            37.60108041335492
          ],
          [
            -113.14103823371995,
            37.602389282342706
          ]
        ]
      },
      "properties": {
        "fault_name": "North Hills faults",
        "age": "middle and late Quaternary",
        "slip_rate": "Less than 0.2 mm/yr"
      }
    },
    {
      "type": "Feature",
      "geometry": {
        "type": "LineString",
        "coordinates": [
          [
            -113.12898325762872,
            37.572237916972085
          ],
          [
            -113.13041719160435,
            37.57395457179566
          ],
          [
            -113.13113443617162,
            37.575041785961695
          ],
          [
            -113.13199669218191,
            37.576815658768155
          ],
          [
            -113.13268339043624,
            37.578707862646965
          ],
          [
            -113.1327828402264,
            37.57899008165745
          ],
          [
            -113.13307287029902,
            37.581622274957866
          ],
          [
            -113.1335684780278,
            37.58602778222307
          ],
          [
            -113.1343546629032,
            37.59214660409671
          ],
          [
            -113.13521640238221,
            37.597697096159905
          ],
          [
            -113.1357125751513,
            37.60295759212961
          ],
          [
            -113.13663603068696,
            37.613485805241964
          ]
        ]
      },
      "properties": {
        "fault_name": "North Hills faults",
        "age": "middle and late Quaternary",
        "slip_rate": "Less than 0.2 mm/yr"
      }
    },
    {
      "type": "Feature",
      "geometry": {
        "type": "LineString",
        "coordinates": [
          [
            -113.1219105015966,
            37.58950713790815
          ],
          [
            -113.12168940644224,
            37.591509337307045
          ],
          [
            -113.12118608757508,
            37.5943131937767
          ],
          [
            -113.12002609843859,
            37.59825759269317
          ],
          [
            -113.11981277281313,
            37.599573689139106
          ],
          [
            -113.12030835718569,
            37.60157644826662
          ],
          [
            -113.12045338300179,
            37.60420864279847
          ],
          [
            -113.12059064018732,
            37.607752495204025
          ],
          [
            -113.12072846331148,
            37.61250188868636
          ],
          [
            -113.12136907889004,
            37.61770850325328
          ]
        ]
      },
      "properties": {
        "fault_name": "North Hills faults",
        "age": "middle and late Quaternary",
        "slip_rate": "Less than 0.2 mm/yr"
      }
    },
    {
      "type": "Feature",
      "geometry": {
        "type": "LineString",
        "coordinates": [
          [
            -113.12904386875756,
            37.57795618585498
          ],
          [
            -113.12839551059957,
            37.57669730877279
          ],
          [
            -113.12667156811086,
            37.5744656570081
          ],
          [
            -113.12501596316076,
            37.57237511616259
          ]
        ]
      },
      "properties": {
        "fault_name": "North Hills faults",
        "age": "middle and late Quaternary",
        "slip_rate": "Less than 0.2 mm/yr"
      }
    },
    {
      "type": "Feature",
      "geometry": {
        "type": "LineString",
        "coordinates": [
          [
            -113.11365567943159,
            37.6291411516852
          ],
          [
            -113.11285457982751,
            37.63263167004405
          ],
          [
            -113.11054292444562,
            37.64029548171018
          ]
        ]
      },
      "properties": {
        "fault_name": "Cross Hollow Hills faults",
        "age": "undifferentiated Quaternary",
        "slip_rate": "Less than 0.2 mm/yr"
      }
    },
    {
      "type": "Feature",
      "geometry": {
        "type": "LineString",
        "coordinates": [
          [
            -113.10160884477177,
            37.64160380273646
          ],
          [
            -113.10175387328282,
            37.644864882790536
          ],
          [
            -113.10203612304677,
            37.64743652575845
          ],
          [
            -113.10296671839231,
            37.64989650269386
          ],
          [
            -113.10505014240321,
            37.654993121782134
          ],
          [
            -113.10735411000289,
            37.65796864616399
          ]
        ]
      },
      "properties": {
        "fault_name": "Cross Hollow Hills faults",
        "age": "undifferentiated Quaternary",
        "slip_rate": "Less than 0.2 mm/yr"
      }
    },
    {
      "type": "Feature",
      "geometry": {
        "type": "LineString",
        "coordinates": [
          [
            -113.0958255260069,
            37.660932523678866
          ],
          [
            -113.09452108238283,
            37.66516304522052
          ],
          [
            -113.09300273461827,
            37.668253022338085
          ]
        ]
      },
      "properties": {
        "fault_name": "Cross Hollow Hills faults",
        "age": "undifferentiated Quaternary",
        "slip_rate": "Less than 0.2 mm/yr"
      }
    },
    {
      "type": "Feature",
      "geometry": {
        "type": "LineString",
        "coordinates": [
          [
            -113.0928042922804,
            37.6539514760517
          ],
          [
            -113.09207985130944,
            37.656808675255
          ],
          [
            -113.09041650288158,
            37.66029531583924
          ],
          [
            -113.08876092757588,
            37.66292751925765
          ],
          [
            -113.08753257574796,
            37.66458306170362
          ]
        ]
      },
      "properties": {
        "fault_name": "Cross Hollow Hills faults",
        "age": "undifferentiated Quaternary",
        "slip_rate": "Less than 0.2 mm/yr"
      }
    },
    {
      "type": "Feature",
      "geometry": {
        "type": "LineString",
        "coordinates": [
          [
            -113.09136978338299,
            37.64977484428268
          ],
          [
            -113.08798251492432,
            37.65445925511849
          ],
          [
            -113.08646415997322,
            37.6564620179748
          ],
          [
            -113.08567081732163,
            37.657774230961714
          ],
          [
            -113.08422857123466,
            37.6593186632969
          ],
          [
            -113.0830002176101,
            37.6605169912269
          ],
          [
            -113.08133741356131,
            37.66263364404929
          ],
          [
            -113.08054351934412,
            37.66446474325523
          ],
          [
            -113.08003241388008,
            37.667035834768726
          ],
          [
            -113.07996408891788,
            37.668638045749354
          ]
        ]
      },
      "properties": {
        "fault_name": "Cross Hollow Hills faults",
        "age": "undifferentiated Quaternary",
        "slip_rate": "Less than 0.2 mm/yr"
      }
    },
    {
      "type": "Feature",
      "geometry": {
        "type": "LineString",
        "coordinates": [
          [
            -113.09719165155165,
            37.65870087629684
          ],
          [
            -113.09707718731983,
            37.65624033972493
          ],
          [
            -113.09688605187851,
            37.65364258575702
          ],
          [
            -113.0965732477168,
            37.651144274945494
          ],
          [
            -113.09639767379113,
            37.64931706777564
          ],
          [
            -113.0962759906977,
            37.64743263865762
          ],
          [
            -113.09664207663387,
            37.64308378924844
          ]
        ]
      },
      "properties": {
        "fault_name": "Cross Hollow Hills faults",
        "age": "undifferentiated Quaternary",
        "slip_rate": "Less than 0.2 mm/yr"
      }
    },
    {
      "type": "Feature",
      "geometry": {
        "type": "LineString",
        "coordinates": [
          [
            -113.23934248414382,
            37.90334375002745
          ],
          [
            -113.23948746055255,
            37.90202821830551
          ],
          [
            -113.23986133308561,
            37.90073490573659
          ],
          [
            -113.24057077308967,
            37.89945325798565
          ],
          [
            -113.24129577460938,
            37.89848438266427
          ],
          [
            -113.24194410581792,
            37.8974505088828
          ],
          [
            -113.24240188189684,
            37.89663774285429
          ],
          [
            -113.24288298632534,
            37.895676646670225
          ],
          [
            -113.24342464079727,
            37.894299446013676
          ],
          [
            -113.24401185602375,
            37.89309002086989
          ],
          [
            -113.24460684796567,
            37.89192281498342
          ],
          [
            -113.2451946165544,
            37.89069838870527
          ],
          [
            -113.2462013108826,
            37.89046949777003
          ],
          [
            -113.24713244521732,
            37.89021005220877
          ],
          [
            -113.24823080543374,
            37.889897271217855
          ],
          [
            -113.24959638031119,
            37.888813949244664
          ],
          [
            -113.25022247372488,
            37.88702897778107
          ],
          [
            -113.25068023722736,
            37.88572066473471
          ],
          [
            -113.25149632432363,
            37.88358403378462
          ],
          [
            -113.25269408222795,
            37.88113907175178
          ],
          [
            -113.2533957356351,
            37.879643538745974
          ],
          [
            -113.25409794779438,
            37.878270227282556
          ],
          [
            -113.25479960030323,
            37.87671414099049
          ],
          [
            -113.25549402586564,
            37.87492861316934
          ],
          [
            -113.25633345388793,
            37.873074751692364
          ],
          [
            -113.25724899706258,
            37.871343113351756
          ],
          [
            -113.25811064671007,
            37.869473698139174
          ],
          [
            -113.25886619184776,
            37.86805482968371
          ],
          [
            -113.26034619143117,
            37.866097634798095
          ],
          [
            -113.26171953044764,
            37.86466765220921
          ],
          [
            -113.26309287126072,
            37.86323711422675
          ]
        ]
      },
      "properties": {
        "fault_name": "Escalante Desert (east side) faults",
        "age": "latest Quaternary",
        "slip_rate": "Less than 0.2 mm/yr"
      }
    },
    {
      "type": "Feature",
      "geometry": {
        "type": "LineString",
        "coordinates": [
          [
            -113.2451946165544,
            37.89069838870527
          ],
          [
            -113.2461479563446,
            37.88953118176651
          ],
          [
            -113.2472162993558,
            37.88846675024976
          ]
        ]
      },
      "properties": {
        "fault_name": "Escalante Desert (east side) faults",
        "age": "latest Quaternary",
        "slip_rate": "Less than 0.2 mm/yr"
      }
    },
    {
      "type": "Feature",
      "geometry": {
        "type": "LineString",
        "coordinates": [
          [
            -113.23118697163176,
            37.917301877986795
          ],
          [
            -113.23323924566186,
            37.91672187528637
          ],
          [
            -113.23453648389903,
            37.9155929976952
          ],
          [
            -113.23523036957396,
            37.914440792694705
          ],
          [
            -113.23584868627222,
            37.91270137577243
          ],
          [
            -113.23631367582286,
            37.911579727944414
          ],
          [
            -113.23652753055603,
            37.90963420689448
          ]
        ]
      },
      "properties": {
        "fault_name": "Escalante Desert (east side) faults",
        "age": "latest Quaternary",
        "slip_rate": "Less than 0.2 mm/yr"
      }
    },
    {
      "type": "Feature",
      "geometry": {
        "type": "LineString",
        "coordinates": [
          [
            -113.21896372671478,
            37.88698698611385
          ],
          [
            -113.21932204132541,
            37.885556454687276
          ],
          [
            -113.21964257998174,
            37.88431314332587
          ],
          [
            -113.2199708917602,
            37.88275261724547
          ],
          [
            -113.22033698488288,
            37.88137930703161
          ],
          [
            -113.22068753265955,
            37.8805137653326
          ],
          [
            -113.22105418902592,
            37.87949155891644
          ],
          [
            -113.22138973314074,
            37.878488241680216
          ],
          [
            -113.22174805673453,
            37.87738159383162
          ],
          [
            -113.22202304631438,
            37.87652716382478
          ],
          [
            -113.22230525475581,
            37.87548607027577
          ],
          [
            -113.22286190121153,
            37.8737044347169
          ],
          [
            -113.2236557666826,
            37.87142724923481
          ],
          [
            -113.22420463642287,
            37.86977949932188
          ],
          [
            -113.22463184912087,
            37.868611740281374
          ],
          [
            -113.2249679358181,
            37.867021212258365
          ],
          [
            -113.22517346766018,
            37.86565179076445
          ],
          [
            -113.22553230868357,
            37.86284795305598
          ],
          [
            -113.2256005824418,
            37.85981523311026
          ]
        ]
      },
      "properties": {
        "fault_name": "Escalante Desert (east side) faults",
        "age": "late Quaternary",
        "slip_rate": "Less than 0.2 mm/yr"
      }
    },
    {
      "type": "Feature",
      "geometry": {
        "type": "LineString",
        "coordinates": [
          [
            -113.13403606820115,
            37.77233543624591
          ],
          [
            -113.13395231467398,
            37.77925529986315
          ],
          [
            -113.13380733018037,
            37.780285280157436
          ],
          [
            -113.1335173620915,
            37.782344687216614
          ],
          [
            -113.13330349657855,
            37.78383243671604
          ],
          [
            -113.13272408142366,
            37.78623183922405
          ],
          [
            -113.13106075275874,
            37.7889212419669
          ],
          [
            -113.13011467584761,
            37.79206452083169
          ],
          [
            -113.12961139740462,
            37.795669453911636
          ]
        ]
      },
      "properties": {
        "fault_name": "Cedar Valley (west side) faults",
        "age": "middle and late Quaternary",
        "slip_rate": "Less than 0.2 mm/yr"
      }
    },
    {
      "type": "Feature",
      "geometry": {
        "type": "LineString",
        "coordinates": [
          [
            -113.1327164143027,
            37.79189672593437
          ],
          [
            -113.13228147429665,
            37.79555887979437
          ],
          [
            -113.13206041956649,
            37.7987593731633
          ],
          [
            -113.13198437268609,
            37.80219263995695
          ],
          [
            -113.13198442209344,
            37.8046531460457
          ],
          [
            -113.13212172419473,
            37.8085436241381
          ],
          [
            -113.13154178622034,
            37.81254521471403
          ]
        ]
      },
      "properties": {
        "fault_name": "Cedar Valley (west side) faults",
        "age": "middle and late Quaternary",
        "slip_rate": "Less than 0.2 mm/yr"
      }
    },
    {
      "type": "Feature",
      "geometry": {
        "type": "LineString",
        "coordinates": [
          [
            -113.14120127704568,
            37.828509269195706
          ],
          [
            -113.13881351190136,
            37.83268642828865
          ],
          [
            -113.13801240421246,
            37.83417029333383
          ],
          [
            -113.1362801954265,
            37.83743190934633
          ],
          [
            -113.13476184766193,
            37.83903022267965
          ],
          [
            -113.13208405244497,
            37.842234622651326
          ],
          [
            -113.13028347467937,
            37.84389016099515
          ],
          [
            -113.12839902211402,
            37.84640790398514
          ],
          [
            -113.12529401330075,
            37.85081006334683
          ],
          [
            -113.12420289440384,
            37.85206504577959
          ]
        ]
      },
      "properties": {
        "fault_name": "Cedar Valley (west side) faults",
        "age": "middle and late Quaternary",
        "slip_rate": "Less than 0.2 mm/yr"
      }
    },
    {
      "type": "Feature",
      "geometry": {
        "type": "LineString",
        "coordinates": [
          [
            -113.03258599760235,
            37.83943934097168
          ],
          [
            -113.02939713285397,
            37.846126451252495
          ],
          [
            -113.0284510487563,
            37.84921583925274
          ],
          [
            -113.02800886114255,
            37.85195856371962
          ],
          [
            -113.0277188831722,
            37.853617975671575
          ],
          [
            -113.02728388028406,
            37.85424741073895
          ]
        ]
      },
      "properties": {
        "fault_name": "Enoch graben faults",
        "age": "late Quaternary",
        "slip_rate": "Less than 0.2 mm/yr"
      }
    },
    {
      "type": "Feature",
      "geometry": {
        "type": "LineString",
        "coordinates": [
          [
            -113.04340414087106,
            37.780652130814715
          ],
          [
            -113.0413669971653,
            37.788201435995724
          ],
          [
            -113.04006259576204,
            37.792717464808206
          ],
          [
            -113.03758268592745,
            37.80175063423745
          ],
          [
            -113.03482881867728,
            37.80741164969812
          ],
          [
            -113.03424883668546,
            37.80935328175466
          ],
          [
            -113.03330272563834,
            37.81089825803917
          ],
          [
            -113.02909885624703,
            37.81895868101311
          ],
          [
            -113.02699331391722,
            37.82312805728085
          ],
          [
            -113.02612387228295,
            37.824787472937764
          ]
        ]
      },
      "properties": {
        "fault_name": "Enoch graben faults",
        "age": "middle and late Quaternary",
        "slip_rate": "Less than 0.2 mm/yr"
      }
    },
    {
      "type": "Feature",
      "geometry": {
        "type": "LineString",
        "coordinates": [
          [
            -112.98899142161736,
            37.907373755278634
          ],
          [
            -112.98935808786518,
            37.90674821024659
          ],
          [
            -112.99022752860114,
            37.904978245113945
          ],
          [
            -112.99088360508405,
            37.901720533686735
          ],
          [
            -112.9920507978108,
            37.89794783184987
          ],
          [
            -112.99314967455852,
            37.89537343695566
          ],
          [
            -112.99430911212943,
            37.89285959902451
          ],
          [
            -112.99786468265152,
            37.8874885917417
          ],
          [
            -113.00032914236157,
            37.88417754604005
          ],
          [
            -113.00257972757547,
            37.88189591473919
          ],
          [
            -113.00569256430812,
            37.87977926775307
          ],
          [
            -113.0083626214372,
            37.878355944246
          ],
          [
            -113.0125665968297,
            37.87590318606354
          ],
          [
            -113.01437496298881,
            37.87470541968047
          ],
          [
            -113.01596942141416,
            37.87270655977778
          ],
          [
            -113.01611440860269,
            37.871791022647464
          ],
          [
            -113.01654939532114,
            37.87024605129822
          ],
          [
            -113.01720549426194,
            37.868414973295955
          ],
          [
            -113.01837270136176,
            37.86555780135215
          ],
          [
            -113.01916602425041,
            37.8636733902134
          ],
          [
            -113.02011213799248,
            37.86224285633471
          ],
          [
            -113.02177548103042,
            37.85984344923623
          ],
          [
            -113.0245294129593,
            37.857615695971305
          ],
          [
            -113.02662778224159,
            37.85601737973517
          ],
          [
            -113.03089286463296,
            37.85339295574282
          ],
          [
            -113.03234233497145,
            37.852424077318126
          ],
          [
            -113.0324106644252,
            37.85208074985068
          ],
          [
            -113.0334334260206,
            37.849509684288606
          ],
          [
            -113.03444785843665,
            37.84699195002048
          ],
          [
            -113.03582894721907,
            37.843505342722835
          ]
        ]
      },
      "properties": {
        "fault_name": "Enoch graben faults",
        "age": "late Quaternary",
        "slip_rate": "Less than 0.2 mm/yr"
      }
    },
    {
      "type": "Feature",
      "geometry": {
        "type": "LineString",
        "coordinates": [
          [
            -113.01361911242391,
            37.859317410756574
          ],
          [
            -113.01471021964274,
            37.85720022426581
          ],
          [
            -113.01637355998575,
            37.8547435962655
          ],
          [
            -113.0180441263769,
            37.85257307220146
          ],
          [
            -113.01847912387512,
            37.85165753318643
          ],
          [
            -113.02007356433417,
            37.848743136102186
          ],
          [
            -113.02101966010994,
            37.84634373434915
          ],
          [
            -113.02217964116159,
            37.8433148989133
          ]
        ]
      },
      "properties": {
        "fault_name": "Enoch graben faults",
        "age": "late Quaternary",
        "slip_rate": "Less than 0.2 mm/yr"
      }
    },
    {
      "type": "Feature",
      "geometry": {
        "type": "LineString",
        "coordinates": [
          [
            -113.02958016369482,
            37.82896791569354
          ],
          [
            -113.02842019072799,
            37.832454519132284
          ],
          [
            -113.0269629796067,
            37.83554057635369
          ],
          [
            -113.02493352637806,
            37.83845497802721
          ],
          [
            -113.02385020216286,
            37.84080104930507
          ],
          [
            -113.02326299591952,
            37.842685457771545
          ],
          [
            -113.02311802220571,
            37.844402090718106
          ],
          [
            -113.02304195196913,
            37.84680537483349
          ],
          [
            -113.0230342156779,
            37.84920477007729
          ],
          [
            -113.0229575920791,
            37.8516652753225
          ],
          [
            -113.0228814957914,
            37.852638033671994
          ],
          [
            -113.02172204923734,
            37.854469115700795
          ],
          [
            -113.02048592967715,
            37.85618186770317
          ],
          [
            -113.01990592073585,
            37.856639640682694
          ],
          [
            -113.0180292278179,
            37.858295174779116
          ],
          [
            -113.01585474428163,
            37.8598323830749
          ],
          [
            -113.01136855326115,
            37.863029016859784
          ],
          [
            -113.00847683234412,
            37.86491344376624
          ],
          [
            -113.00572289502536,
            37.86702675508239
          ],
          [
            -113.00311341219418,
            37.86930783927962
          ],
          [
            -112.99942060065622,
            37.87382054186424
          ],
          [
            -112.99753614719255,
            37.8764488233478
          ],
          [
            -112.99433231830817,
            37.88548197431762
          ],
          [
            -112.9928751260515,
            37.889826887265286
          ],
          [
            -112.99170735391138,
            37.89205462086595
          ],
          [
            -112.99054789837417,
            37.89359570225757
          ],
          [
            -112.9887395411982,
            37.89536567034708
          ],
          [
            -112.98728231480557,
            37.89765062497766
          ],
          [
            -112.98590176770726,
            37.90067945535036
          ],
          [
            -112.98394067896669,
            37.90559657976364
          ],
          [
            -112.9833457229574,
            37.90931206071533
          ],
          [
            -112.98247626425515,
            37.90999871366193
          ],
          [
            -112.98146124613751,
            37.91085703181879
          ],
          [
            -112.98037788958297,
            37.91153979923502
          ]
        ]
      },
      "properties": {
        "fault_name": "Enoch graben faults",
        "age": "late Quaternary",
        "slip_rate": "Less than 0.2 mm/yr"
      }
    },
    {
      "type": "Feature",
      "geometry": {
        "type": "LineString",
        "coordinates": [
          [
            -113.01727335120188,
            37.841533306353085
          ],
          [
            -113.01647226507254,
            37.84427603423972
          ],
          [
            -113.01625118069796,
            37.84616432990662
          ],
          [
            -113.01545008019556,
            37.848163182672224
          ],
          [
            -113.01422174723227,
            37.85028036980066
          ],
          [
            -113.0133445288826,
            37.85193589917409
          ],
          [
            -113.01240619455088,
            37.85359531589194
          ],
          [
            -113.01153618428305,
            37.854449750101274
          ],
          [
            -113.00900337894957,
            37.857249711328954
          ],
          [
            -113.00813337227503,
            37.8583330280321
          ]
        ]
      },
      "properties": {
        "fault_name": "Enoch graben faults",
        "age": "late Quaternary",
        "slip_rate": "Less than 0.2 mm/yr"
      }
    },
    {
      "type": "Feature",
      "geometry": {
        "type": "LineString",
        "coordinates": [
          [
            -113.01853929033791,
            37.79851974384795
          ],
          [
            -113.01934039802683,
            37.79703198765245
          ],
          [
            -113.02006538876678,
            37.79531924080685
          ],
          [
            -113.02144589274596,
            37.790230445963516
          ],
          [
            -113.0218808731762,
            37.78839992486355
          ],
          [
            -113.02145360118939,
            37.78628274975752
          ],
          [
            -113.02117135501872,
            37.785481658923466
          ],
          [
            -113.02168245509287,
            37.78399390783422
          ],
          [
            -113.02305579141441,
            37.78193782684306
          ],
          [
            -113.02501631511464,
            37.77696346906714
          ],
          [
            -113.02552739812081,
            37.774564070291504
          ],
          [
            -113.02632846897879,
            37.77101635890761
          ],
          [
            -113.02728227589297,
            37.764897587883226
          ],
          [
            -113.02829667956294,
            37.76106765766666
          ]
        ]
      },
      "properties": {
        "fault_name": "Enoch graben faults",
        "age": "latest Quaternary",
        "slip_rate": "Less than 0.2 mm/yr"
      }
    },
    {
      "type": "Feature",
      "geometry": {
        "type": "LineString",
        "coordinates": [
          [
            -113.00643151935915,
            37.81920663318192
          ],
          [
            -113.00643924307396,
            37.816173918703456
          ],
          [
            -113.0071025330286,
            37.812572876208414
          ],
          [
            -113.00789640927947,
            37.81051291282668
          ],
          [
            -113.00913195840945,
            37.80811351034532
          ],
          [
            -113.00971195477433,
            37.806911861789736
          ],
          [
            -113.0123286025682,
            37.801484177317406
          ],
          [
            -113.01450300615446,
            37.795537058971426
          ],
          [
            -113.01567021594921,
            37.79290877108344
          ],
          [
            -113.01741018438258,
            37.78822052010805
          ],
          [
            -113.01748625821241,
            37.78604612207704
          ],
          [
            -113.01850069512007,
            37.78399004493029
          ],
          [
            -113.01952346300364,
            37.781762304209856
          ],
          [
            -113.02039289026484,
            37.779359014864106
          ],
          [
            -113.02142279077178,
            37.77215304213121
          ],
          [
            -113.02185776221887,
            37.76981086533619
          ],
          [
            -113.0221549267115,
            37.76609205079333
          ]
        ]
      },
      "properties": {
        "fault_name": "Enoch graben faults",
        "age": "latest Quaternary",
        "slip_rate": "Less than 0.2 mm/yr"
      }
    },
    {
      "type": "Feature",
      "geometry": {
        "type": "LineString",
        "coordinates": [
          [
            -113.0031447391431,
            37.91317581177152
          ],
          [
            -113.00422809390099,
            37.91243971017305
          ],
          [
            -113.00748592860198,
            37.90993362770456
          ],
          [
            -113.012697146295,
            37.9067330997366
          ],
          [
            -113.01899892503114,
            37.90199537481032
          ],
          [
            -113.02167675079082,
            37.89999650776555
          ]
        ]
      },
      "properties": {
        "fault_name": "Cedar Valley (north end) faults",
        "age": "late Quaternary",
        "slip_rate": "Less than 0.2 mm/yr"
      }
    },
    {
      "type": "Feature",
      "geometry": {
        "type": "LineString",
        "coordinates": [
          [
            -113.02591926301069,
            37.90879296129846
          ],
          [
            -113.01679414042198,
            37.9178945061013
          ],
          [
            -113.01259015604634,
            37.920057269138404
          ],
          [
            -113.00860784174682,
            37.921884482177965
          ]
        ]
      },
      "properties": {
        "fault_name": "Cedar Valley (north end) faults",
        "age": "late Quaternary",
        "slip_rate": "Less than 0.2 mm/yr"
      }
    },
    {
      "type": "Feature",
      "geometry": {
        "type": "LineString",
        "coordinates": [
          [
            -113.01659563160881,
            37.908457481696956
          ],
          [
            -113.0111633043884,
            37.91205077919439
          ],
          [
            -113.00624263779088,
            37.91456076113274
          ]
        ]
      },
      "properties": {
        "fault_name": "Cedar Valley (north end) faults",
        "age": "late Quaternary",
        "slip_rate": "Less than 0.2 mm/yr"
      }
    },
    {
      "type": "Feature",
      "geometry": {
        "type": "LineString",
        "coordinates": [
          [
            -113.01403244974402,
            37.92143445334194
          ],
          [
            -113.01244518412916,
            37.92183501231915
          ],
          [
            -113.00701339140632,
            37.924398331337294
          ],
          [
            -113.00541835985584,
            37.92542498778037
          ],
          [
            -113.00444945136344,
            37.92607331335306
          ]
        ]
      },
      "properties": {
        "fault_name": "Cedar Valley (north end) faults",
        "age": "late Quaternary",
        "slip_rate": "Less than 0.2 mm/yr"
      }
    },
    {
      "type": "Feature",
      "geometry": {
        "type": "LineString",
        "coordinates": [
          [
            -113.01395636243946,
            37.922922201347845
          ],
          [
            -113.0112780030805,
            37.926294372018624
          ],
          [
            -113.0095385260256,
            37.92743491726024
          ],
          [
            -113.00772293292002,
            37.92863268173548
          ],
          [
            -113.00302283236915,
            37.93131432465724
          ],
          [
            -113.00091724512355,
            37.93331318681436
          ]
        ]
      },
      "properties": {
        "fault_name": "Cedar Valley (north end) faults",
        "age": "late Quaternary",
        "slip_rate": "Less than 0.2 mm/yr"
      }
    },
    {
      "type": "Feature",
      "geometry": {
        "type": "LineString",
        "coordinates": [
          [
            -113.03178607029975,
            37.90642408030205
          ],
          [
            -113.03711952085516,
            37.903757429778366
          ]
        ]
      },
      "properties": {
        "fault_name": "Cedar Valley (north end) faults",
        "age": "late Quaternary",
        "slip_rate": "Less than 0.2 mm/yr"
      }
    },
    {
      "type": "Feature",
      "geometry": {
        "type": "LineString",
        "coordinates": [
          [
            -113.01213205657393,
            37.90267041112999
          ],
          [
            -113.01654992442886,
            37.899931548350594
          ],
          [
            -113.01828939339892,
            37.89827601271054
          ],
          [
            -113.01937271402088,
            37.8957049468887
          ]
        ]
      },
      "properties": {
        "fault_name": "Cedar Valley (north end) faults",
        "age": "late Quaternary",
        "slip_rate": "Less than 0.2 mm/yr"
      }
    },
    {
      "type": "Feature",
      "geometry": {
        "type": "LineString",
        "coordinates": [
          [
            -112.83122519510259,
            37.83433541890567
          ],
          [
            -112.83440693890572,
            37.83320265865307
          ],
          [
            -112.83853425386852,
            37.83109713798231
          ],
          [
            -112.84346324335716,
            37.82779719276953
          ],
          [
            -112.84968117244637,
            37.82604277614138
          ],
          [
            -112.85800523405854,
            37.82114841630655
          ],
          [
            -112.86480316220758,
            37.8181923532268
          ],
          [
            -112.87305056788162,
            37.81472852403252
          ],
          [
            -112.87847512467484,
            37.81194023890938
          ],
          [
            -112.88242743075227,
            37.81007471695519
          ],
          [
            -112.88534971325359,
            37.80869751817165
          ],
          [
            -112.8920787334338,
            37.80488314387486
          ],
          [
            -112.90075335360248,
            37.80061821993658
          ],
          [
            -112.91362472221715,
            37.79452999968472
          ],
          [
            -112.92200933836433,
            37.791005067300745
          ],
          [
            -112.93140895735776,
            37.78616460426809
          ],
          [
            -112.93798575441984,
            37.783432988783474
          ],
          [
            -112.94469977722639,
            37.78075915384405
          ],
          [
            -112.9516426835808,
            37.77745977385694
          ],
          [
            -112.95741834959777,
            37.774953156835295
          ],
          [
            -112.964498482595,
            37.77187877625103
          ],
          [
            -112.96991525009639,
            37.76965882034597
          ],
          [
            -112.97432531608305,
            37.76680887934209
          ],
          [
            -112.980398193305,
            37.763616166793334
          ],
          [
            -112.9853115988201,
            37.76059511933235
          ],
          [
            -112.99326171603403,
            37.75574688790473
          ],
          [
            -112.9968017394135,
            37.752035299204664
          ],
          [
            -113.00208128027208,
            37.74786978033435
          ],
          [
            -113.00655973140807,
            37.74410030332373
          ],
          [
            -113.01458604462267,
            37.735990258296376
          ],
          [
            -113.02051452484928,
            37.7301652292142
          ],
          [
            -113.02341347810265,
            37.72582411016
          ],
          [
            -113.02919694059796,
            37.718167987307
          ],
          [
            -113.03266812517889,
            37.71331187202942
          ],
          [
            -113.03787156885144,
            37.7069679802865
          ],
          [
            -113.04011494598353,
            37.70330964917428
          ],
          [
            -113.044891148212,
            37.69627965820154
          ],
          [
            -113.04872066716653,
            37.691423553753445
          ]
        ]
      },
      "properties": {
        "fault_name": "Cedar City-Parowan monocline (and faults)",
        "age": "latest Quaternary",
        "slip_rate": "Between 0.2 and 1.0 mm/yr"
      }
    },
    {
      "type": "Feature",
      "geometry": {
        "type": "LineString",
        "coordinates": [
          [
            -113.09243788923897,
            37.61562179623237
          ],
          [
            -113.09286510822514,
            37.61408069926767
          ],
          [
            -113.0940245646607,
            37.61230682789735
          ],
          [
            -113.09460456821208,
            37.61104794969094
          ],
          [
            -113.09784736870846,
            37.60527634293096
          ],
          [
            -113.10022738768008,
            37.601328606661454
          ],
          [
            -113.10211183126229,
            37.5962397708936
          ],
          [
            -113.10434739664464,
            37.59195204228793
          ],
          [
            -113.10600296566214,
            37.58943818326632
          ],
          [
            -113.10888689189746,
            37.587149327692806
          ],
          [
            -113.1122747227015,
            37.58537936078486
          ],
          [
            -113.1149369815556,
            37.58372383382518
          ],
          [
            -113.11666144686382,
            37.58241163374576
          ],
          [
            -113.1181797892385,
            37.57995110975898
          ],
          [
            -113.11998035891925,
            37.577608922247975
          ],
          [
            -113.12387150499723,
            37.57337843229486
          ],
          [
            -113.12501596316076,
            37.57237511616259
          ],
          [
            -113.12862433396032,
            37.56920517133112
          ],
          [
            -113.13098937172794,
            37.56856463575271
          ],
          [
            -113.13200438894725,
            37.568289644200306
          ],
          [
            -113.13502555080854,
            37.56772133669059
          ],
          [
            -113.13891673102245,
            37.56738191829554
          ],
          [
            -113.14208289803858,
            37.56709583020988
          ],
          [
            -113.14582128380583,
            37.56532587433088
          ],
          [
            -113.1470879649503,
            37.56457811482371
          ],
          [
            -113.15237525198158,
            37.561438743072884
          ],
          [
            -113.1548930545515,
            37.559607673224505
          ],
          [
            -113.16475036967375,
            37.55200506623639
          ],
          [
            -113.16870982903582,
            37.54725960664701
          ],
          [
            -113.17346257804884,
            37.53776533927728
          ],
          [
            -113.1755459050417,
            37.53444651568733
          ],
          [
            -113.17791868538878,
            37.53130325090907
          ],
          [
            -113.18022256585186,
            37.527469440038665
          ],
          [
            -113.18259533541915,
            37.52363952232855
          ],
          [
            -113.18691364119448,
            37.51591523876058
          ],
          [
            -113.18978974400198,
            37.511742002102174
          ],
          [
            -113.19590085172581,
            37.50413552395661
          ],
          [
            -113.19812862242647,
            37.501160041250635
          ],
          [
            -113.20079140230344,
            37.49835677816639
          ],
          [
            -113.20272919144048,
            37.4969262623349
          ],
          [
            -113.20553698186221,
            37.494866318065114
          ],
          [
            -113.20869533443366,
            37.49263471292939
          ],
          [
            -113.21243369055652,
            37.490292557650996
          ],
          [
            -113.21451648305177,
            37.488919263889606
          ],
          [
            -113.21509649109474,
            37.48880482795891
          ],
          [
            -113.2167442519558,
            37.485485994944355
          ],
          [
            -113.2168892265679,
            37.483368797064706
          ],
          [
            -113.21753807700269,
            37.479649403332544
          ],
          [
            -113.21811027958415,
            37.47742165733013
          ],
          [
            -113.22019297595968,
            37.46855289006937
          ],
          [
            -113.22126850100159,
            37.464833499044694
          ],
          [
            -113.22198569256821,
            37.461571875210765
          ],
          [
            -113.22263399862392,
            37.458485805889616
          ],
          [
            -113.22371006085837,
            37.45316476581397
          ],
          [
            -113.22457167457323,
            37.44801483298836
          ],
          [
            -113.22486163008571,
            37.44407043628197
          ],
          [
            -113.22535765373446,
            37.436345525650296
          ],
          [
            -113.22657817943963,
            37.432283359144314
          ],
          [
            -113.22830261959501,
            37.42959784928155
          ],
          [
            -113.23009538920415,
            37.42627901288091
          ],
          [
            -113.23102593244741,
            37.42387571328815
          ],
          [
            -113.23117090166963,
            37.42118629969559
          ],
          [
            -113.23045362566137,
            37.417810220139756
          ],
          [
            -113.22980523157075,
            37.41397692488722
          ],
          [
            -113.22901963060028,
            37.41157749876453
          ],
          [
            -113.22779123295827,
            37.40825863570916
          ],
          [
            -113.22765343408862,
            37.40671365227894
          ],
          [
            -113.22850841284681,
            37.40368091475453
          ],
          [
            -113.2312394826517,
            37.396246019778225
          ],
          [
            -113.23238390757757,
            37.39281273408503
          ],
          [
            -113.23453501335692,
            37.389036679264436
          ],
          [
            -113.23697668729976,
            37.38571784493487
          ],
          [
            -113.2391966821833,
            37.38159790605633
          ],
          [
            -113.2449339119842,
            37.37261471025565
          ],
          [
            -113.24751280179008,
            37.368265884782694
          ],
          [
            -113.24902336655101,
            37.366377580781396
          ],
          [
            -113.25138835580964,
            37.36105597814282
          ],
          [
            -113.253318911712,
            37.35728322826856
          ],
          [
            -113.25504335456233,
            37.3535071460895
          ],
          [
            -113.259270033077,
            37.346068310704815
          ],
          [
            -113.26155837627894,
            37.342234448238365
          ],
          [
            -113.26378616135261,
            37.33840058573048
          ],
          [
            -113.26693730494391,
            37.33479616092719
          ],
          [
            -113.26850897131388,
            37.331591739945104
          ],
          [
            -113.2685850747881,
            37.330847859109845
          ],
          [
            -113.27151504596995,
            37.322436262741384
          ],
          [
            -113.27330781737572,
            37.31820185034424
          ],
          [
            -113.27401726187136,
            37.31682908391521
          ],
          [
            -113.27466612757749,
            37.31356744671217
          ],
          [
            -113.2746661221876,
            37.31305245215264
          ],
          [
            -113.27723723078645,
            37.30767360366361
          ],
          [
            -113.279457242738,
            37.30418307270135
          ],
          [
            -113.28146392097922,
            37.301207536822645
          ],
          [
            -113.2826766996134,
            37.2988614413461
          ],
          [
            -113.28302779715905,
            37.29694312678513
          ]
        ]
      },
      "properties": {
        "fault_name": "Hurricane fault zone",
        "age": "latest Quaternary",
        "slip_rate": "Less than 0.2 mm/yr"
      }
    },
    {
      "type": "Feature",
      "geometry": {
        "type": "LineString",
        "coordinates": [
          [
            -113.09243788923897,
            37.61562179623237
          ],
          [
            -113.09286510822514,
            37.61408069926767
          ],
          [
            -113.0940245646607,
            37.61230682789735
          ],
          [
            -113.09460456821208,
            37.61104794969094
          ],
          [
            -113.09784736870846,
            37.60527634293096
          ],
          [
            -113.10022738768008,
            37.601328606661454
          ],
          [
            -113.10211183126229,
            37.5962397708936
          ],
          [
            -113.10434739664464,
            37.59195204228793
          ],
          [
            -113.10600296566214,
            37.58943818326632
          ],
          [
            -113.10888689189746,
            37.587149327692806
          ],
          [
            -113.1122747227015,
            37.58537936078486
          ],
          [
            -113.1149369815556,
            37.58372383382518
          ],
          [
            -113.11666144686382,
            37.58241163374576
          ],
          [
            -113.1181797892385,
            37.57995110975898
          ],
          [
            -113.11998035891925,
            37.577608922247975
          ],
          [
            -113.12387150499723,
            37.57337843229486
          ],
          [
            -113.12501596316076,
            37.57237511616259
          ],
          [
            -113.12862433396032,
            37.56920517133112
          ],
          [
            -113.13098937172794,
            37.56856463575271
          ],
          [
            -113.13200438894725,
            37.568289644200306
          ],
          [
            -113.13502555080854,
            37.56772133669059
          ],
          [
            -113.13891673102245,
            37.56738191829554
          ],
          [
            -113.14208289803858,
            37.56709583020988
          ],
          [
            -113.14582128380583,
            37.56532587433088
          ],
          [
            -113.1470879649503,
            37.56457811482371
          ]
        ]
      },
      "properties": {
        "fault_name": "Hurricane fault zone",
        "age": "latest Quaternary",
        "slip_rate": "Less than 0.2 mm/yr"
      }
    },
    {
      "type": "Feature",
      "geometry": {
        "type": "LineString",
        "coordinates": [
          [
            -113.05539678555967,
            37.66075702983377
          ],
          [
            -113.05777682698918,
            37.65807148497413
          ],
          [
            -113.05921907487277,
            37.65630149329453
          ],
          [
            -113.06044743298892,
            37.655504274744935
          ],
          [
            -113.06289636442095,
            37.653162062770555
          ],
          [
            -113.06333137180064,
            37.65247540017764
          ],
          [
            -113.06477305644056,
            37.650018746973466
          ],
          [
            -113.0654219517911,
            37.648534865785024
          ],
          [
            -113.06643640935998,
            37.64658932429698
          ]
        ]
      },
      "properties": {
        "fault_name": "Hurricane fault zone",
        "age": "latest Quaternary",
        "slip_rate": "Less than 0.2 mm/yr"
      }
    },
    {
      "type": "Feature",
      "geometry": {
        "type": "LineString",
        "coordinates": [
          [
            -113.1470879649503,
            37.56457811482371
          ],
          [
            -113.15237525198158,
            37.561438743072884
          ],
          [
            -113.1548930545515,
            37.559607673224505
          ],
          [
            -113.16475036967375,
            37.55200506623639
          ],
          [
            -113.16870982903582,
            37.54725960664701
          ],
          [
            -113.17346257804884,
            37.53776533927728
          ],
          [
            -113.1755459050417,
            37.53444651568733
          ],
          [
            -113.17791868538878,
            37.53130325090907
          ],
          [
            -113.18022256585186,
            37.527469440038665
          ],
          [
            -113.18259533541915,
            37.52363952232855
          ],
          [
            -113.18691364119448,
            37.51591523876058
          ],
          [
            -113.18978974400198,
            37.511742002102174
          ],
          [
            -113.19590085172581,
            37.50413552395661
          ],
          [
            -113.19812862242647,
            37.501160041250635
          ],
          [
            -113.20079140230344,
            37.49835677816639
          ],
          [
            -113.20272919144048,
            37.4969262623349
          ],
          [
            -113.20553698186221,
            37.494866318065114
          ],
          [
            -113.20869533443366,
            37.49263471292939
          ],
          [
            -113.21243369055652,
            37.490292557650996
          ],
          [
            -113.21451648305177,
            37.488919263889606
          ],
          [
            -113.21509649109474,
            37.48880482795891
          ],
          [
            -113.2167442519558,
            37.485485994944355
          ],
          [
            -113.2168892265679,
            37.483368797064706
          ],
          [
            -113.21753807700269,
            37.479649403332544
          ],
          [
            -113.21811027958415,
            37.47742165733013
          ],
          [
            -113.22019297595968,
            37.46855289006937
          ],
          [
            -113.22126850100159,
            37.464833499044694
          ],
          [
            -113.22198569256821,
            37.461571875210765
          ],
          [
            -113.22263399862392,
            37.458485805889616
          ],
          [
            -113.22371006085837,
            37.45316476581397
          ],
          [
            -113.22457167457323,
            37.44801483298836
          ],
          [
            -113.22486163008571,
            37.44407043628197
          ],
          [
            -113.22535765373446,
            37.436345525650296
          ],
          [
            -113.22657817943963,
            37.432283359144314
          ],
          [
            -113.22830261959501,
            37.42959784928155
          ],
          [
            -113.23009538920415,
            37.42627901288091
          ],
          [
            -113.23102593244741,
            37.42387571328815
          ],
          [
            -113.23117090166963,
            37.42118629969559
          ],
          [
            -113.23045362566137,
            37.417810220139756
          ],
          [
            -113.22980523157075,
            37.41397692488722
          ],
          [
            -113.22901963060028,
            37.41157749876453
          ],
          [
            -113.22779123295827,
            37.40825863570916
          ],
          [
            -113.22765343408862,
            37.40671365227894
          ],
          [
            -113.22850841284681,
            37.40368091475453
          ],
          [
            -113.2312394826517,
            37.396246019778225
          ],
          [
            -113.23238390757757,
            37.39281273408503
          ],
          [
            -113.23453501335692,
            37.389036679264436
          ],
          [
            -113.23697668729976,
            37.38571784493487
          ],
          [
            -113.2391966821833,
            37.38159790605633
          ],
          [
            -113.2449339119842,
            37.37261471025565
          ],
          [
            -113.24751280179008,
            37.368265884782694
          ],
          [
            -113.24902336655101,
            37.366377580781396
          ],
          [
            -113.25138835580964,
            37.36105597814282
          ],
          [
            -113.253318911712,
            37.35728322826856
          ],
          [
            -113.25504335456233,
            37.3535071460895
          ],
          [
            -113.259270033077,
            37.346068310704815
          ],
          [
            -113.26155837627894,
            37.342234448238365
          ],
          [
            -113.26378616135261,
            37.33840058573048
          ],
          [
            -113.26693730494391,
            37.33479616092719
          ],
          [
            -113.26850897131388,
            37.331591739945104
          ],
          [
            -113.2685850747881,
            37.330847859109845
          ],
          [
            -113.27151504596995,
            37.322436262741384
          ],
          [
            -113.27330781737572,
            37.31820185034424
          ],
          [
            -113.27401726187136,
            37.31682908391521
          ],
          [
            -113.27466612757749,
            37.31356744671217
          ],
          [
            -113.2746661221876,
            37.31305245215264
          ],
          [
            -113.27723723078645,
            37.30767360366361
          ],
          [
            -113.279457242738,
            37.30418307270135
          ],
          [
            -113.28146392097922,
            37.301207536822645
          ],
          [
            -113.2826766996134,
            37.2988614413461
          ],
          [
            -113.28302779715905,
            37.29694312678513
          ]
        ]
      },
      "properties": {
        "fault_name": "Hurricane fault zone",
        "age": "latest Quaternary",
        "slip_rate": "Less than 0.2 mm/yr"
      }
    }
  ]
}