{
  "type": "FeatureCollection",
  "features": [
    {
      "type": "Feature",
      "geometry": {
        "type": "LineString",
        "coordinates": [
          [
            -107.34935977915988,
            38.368751230681376
          ],
          [
            -107.35022978673277,
            38.36915565589889
          ],
          [
            -107.35146535472737,
            38.36967451697681
          ],
          [
            -107.35350259904445,
            38.370303918826814
          ],
          [
            -107.35532594640756,
            38.371398876150344
          ],
          [
            -107.36070489214055,
            38.373172651261186
          ],
          [
            -107.3649315994013,
            38.3751825540961
          ],
          [
            -107.36958553822467,
            38.376620790673684
          ],
          [
            -107.37279001659103,
            38.3777157221282
          ],
          [
            -107.37650561659107,
            38.37828787178283
          ],
          [
            -107.38218179059707,
            38.37978664382309
          ],
          [
            -107.38691240242657,
            38.381049323665586
          ],
          [
            -107.39069632918546,
            38.38236924081571
          ],
          [
            -107.39383192114258,
            38.38322751085113
          ],
          [
            -107.40191145055464,
            38.385988998791156
          ],
          [
            -107.40526093227919,
            38.387129482222896
          ],
          [
            -107.4110821150333,
            38.38816714425219
          ],
          [
            -107.41319547001113,
            38.38891431771197
          ],
          [
            -107.41574382967376,
            38.39011259122584
          ],
          [
            -107.41938331092824,
            38.39160750700466
          ],
          [
            -107.42156499895312,
            38.39275189675125
          ],
          [
            -107.42593671136873,
            38.39452957402583
          ]
        ]
      },
      "properties": {
        "fault_name": "Cimarron fault",
        "age": "class B",
        "slip_rate": "Less than 0.2 mm/yr"
      }
    },
    {
      "type": "Feature",
      "geometry": {
        "type": "LineString",
        "coordinates": [
          [
            -107.25618888944335,
            38.33310093175
          ],
          [
            -107.25626500100242,
            38.33315870778671
          ],
          [
            -107.2572800092386,
            38.333562575737965
          ],
          [
            -107.2580811232157,
            38.33430644522395
          ],
          [
            -107.25953057558789,
            38.33545474368918
          ],
          [
            -107.26156002971481,
            38.33706469566013
          ],
          [
            -107.26432171679953,
            38.33872741179171
          ],
          [
            -107.26730507396039,
            38.340112350692564
          ],
          [
            -107.27094399736106,
            38.34137505690958
          ],
          [
            -107.27719294617536,
            38.34385048523905
          ],
          [
            -107.27959574372764,
            38.34488821416386
          ],
          [
            -107.2803207524339,
            38.34517042071484
          ],
          [
            -107.28242632620474,
            38.34597926676726
          ],
          [
            -107.28366245025651,
            38.34649424084005
          ],
          [
            -107.28592080230437,
            38.347531414774274
          ],
          [
            -107.28744692678438,
            38.348103607207186
          ],
          [
            -107.29304697755317,
            38.35057571078706
          ],
          [
            -107.29813535961425,
            38.35247893973305
          ],
          [
            -107.30198873243282,
            38.353684420286676
          ],
          [
            -107.30402541620118,
            38.354718262778434
          ],
          [
            -107.30715378390677,
            38.35563764376012
          ],
          [
            -107.30824434944148,
            38.35604540165508
          ],
          [
            -107.30912213642472,
            38.35638871477035
          ],
          [
            -107.31202883315585,
            38.357136438329256
          ],
          [
            -107.31385218860378,
            38.35725473799917
          ],
          [
            -107.31762889470443,
            38.358460217936646
          ],
          [
            -107.320978376429,
            38.35921515429864
          ],
          [
            -107.32708955511976,
            38.360649479084735
          ],
          [
            -107.33247572510422,
            38.3619199296753
          ],
          [
            -107.33364296095012,
            38.36226323888221
          ],
          [
            -107.33916690465142,
            38.36438756719547
          ],
          [
            -107.34666642242725,
            38.3674390696868
          ],
          [
            -107.34935977915988,
            38.368751230681376
          ]
        ]
      },
      "properties": {
        "fault_name": "Cimarron fault",
        "age": "class B",
        "slip_rate": "Less than 0.2 mm/yr"
      }
    },
    {
      "type": "Feature",
      "geometry": {
        "type": "LineString",
        "coordinates": [
          [
            -107.41377542595184,
            38.3956703261875
          ],
          [
            -107.41151706941238,
            38.394808156907644
          ],
          [
            -107.40598588888315,
            38.39388882221305
          ],
          [
            -107.40438365104745,
            38.39325941432247
          ],
          [
            -107.399721936407,
            38.39131452233816
          ],
          [
            -107.39775358209242,
            38.390620120984586
          ],
          [
            -107.39091017044392,
            38.388838596789775
          ],
          [
            -107.38646956533087,
            38.38757202532624
          ],
          [
            -107.38209784842367,
            38.386599890678795
          ],
          [
            -107.37933614786424,
            38.38596661416952
          ],
          [
            -107.37795502225087,
            38.38550886579708
          ],
          [
            -107.37351497139836,
            38.38436062588065
          ],
          [
            -107.36826546571129,
            38.383261839694406
          ],
          [
            -107.36302429639005,
            38.38182806021938
          ],
          [
            -107.35989592688784,
            38.38096201271058
          ],
          [
            -107.35749256878682,
            38.380218175971
          ],
          [
            -107.35298362883009,
            38.379012711231724
          ],
          [
            -107.34803246442867,
            38.37774614727627
          ],
          [
            -107.34395797669282,
            38.37619790127781
          ],
          [
            -107.34126517242409,
            38.37533184411475
          ],
          [
            -107.33908292205385,
            38.374870221980295
          ],
          [
            -107.33696956527935,
            38.374465818840186
          ],
          [
            -107.33413119979863,
            38.373604210887734
          ],
          [
            -107.3270739055692,
            38.37136102378605
          ],
          [
            -107.32525833312485,
            38.37049884078506
          ],
          [
            -107.31791104206046,
            38.36711567020922
          ],
          [
            -107.31114375634407,
            38.364407481998576
          ],
          [
            -107.30779428180603,
            38.36274422417804
          ],
          [
            -107.30248422697387,
            38.36101599670646
          ],
          [
            -107.30008864828321,
            38.36003938168981
          ],
          [
            -107.29615972894587,
            38.35791502579749
          ],
          [
            -107.29339748490568,
            38.35647675275992
          ],
          [
            -107.29070467973864,
            38.35544292128775
          ],
          [
            -107.2891024445979,
            38.354524068281734
          ],
          [
            -107.28569186485758,
            38.352395258238936
          ],
          [
            -107.28132793814054,
            38.35027035117324
          ],
          [
            -107.27885569632522,
            38.348954295329534
          ],
          [
            -107.27500288136044,
            38.34762714766268
          ],
          [
            -107.2720200757652,
            38.346360543791526
          ],
          [
            -107.2691817192676,
            38.345037270762916
          ],
          [
            -107.26715225885246,
            38.344003426037645
          ],
          [
            -107.26293332561217,
            38.34285128370847
          ],
          [
            -107.261117198009,
            38.34209965377606
          ],
          [
            -107.25972884904245,
            38.34181356787604
          ],
          [
            -107.25885884057125,
            38.341470807094446
          ],
          [
            -107.25879050842252,
            38.34141358725348
          ],
          [
            -107.25682216039614,
            38.34031863011982
          ],
          [
            -107.25486103212971,
            38.33940311522698
          ],
          [
            -107.2510082207582,
            38.33795763418098
          ],
          [
            -107.24940595237977,
            38.33732430825012
          ],
          [
            -107.24679698338494,
            38.3357754202758
          ],
          [
            -107.24417967263439,
            38.33462319570597
          ],
          [
            -107.2411279051714,
            38.33341041267663
          ],
          [
            -107.23872448957817,
            38.33243374315418
          ],
          [
            -107.23400211440153,
            38.330072631208424
          ],
          [
            -107.23088146502087,
            38.3277759702344
          ],
          [
            -107.23001143678673,
            38.32720374901925
          ],
          [
            -107.22557851855755,
            38.32450319934059
          ],
          [
            -107.22310677440888,
            38.3228359790298
          ],
          [
            -107.22173340125644,
            38.32174098429888
          ],
          [
            -107.2199861223333,
            38.32065376432552
          ],
          [
            -107.21882664343987,
            38.31984543405557
          ],
          [
            -107.21788050005341,
            38.31921598968477
          ],
          [
            -107.21665212936084,
            38.31846821367293
          ],
          [
            -107.2161410014389,
            38.318182102835344
          ],
          [
            -107.215415976563,
            38.31772043770125
          ],
          [
            -107.2149048504377,
            38.31743432814161
          ],
          [
            -107.2146915104392,
            38.31731988216914
          ]
        ]
      },
      "properties": {
        "fault_name": "Cimarron fault",
        "age": "class B",
        "slip_rate": "Less than 0.2 mm/yr"
      }
    }
  ]
}