{
  "type": "FeatureCollection",
  "features": [
    {
      "type": "Feature",
      "geometry": {
        "type": "LineString",
        "coordinates": [
          [
            -98.0085524309571,
            28.9302942434567
          ],
          [
            -98.0043104182005,
            28.9390982280764
          ],
          [
            -98.0043104182005,
            28.939481590247
          ],
          [
            -98.0028226643596,
            28.9430920610714
          ],
          [
            -97.9989850174484,
            28.9501413564499
          ]
        ]
      },
      "properties": {
        "STATE": "TX",
        "DESCRIPTION": "Normal fault, certain",
        "RuleID": 22
      }
    },
    {
      "type": "Feature",
      "geometry": {
        "type": "LineString",
        "coordinates": [
          [
            -98.0372781363768,
            29.1111842485442
          ],
          [
            -98.0461818350278,
            29.1071751184959
          ],
          [
            -98.052262596763,
            29.1044381524132
          ],
          [
            -98.0524838554107,
            29.1042455169013
          ],
          [
            -98.0544293925171,
            29.1036561605083
          ],
          [
            -98.0654541114702,
            29.0990157154815
          ],
          [
            -98.067613276036,
            29.0976691702656
          ],
          [
            -98.0779971126109,
            29.0940262320659
          ],
          [
            -98.081300711984,
            29.0926205566342
          ]
        ]
      },
      "properties": {
        "STATE": "TX",
        "DESCRIPTION": "Normal fault, certain",
        "RuleID": 22
      }
    },
    {
      "type": "Feature",
      "geometry": {
        "type": "LineString",
        "coordinates": [
          [
            -98.0937441887744,
            28.9486363022571
          ],
          [
            -98.0981845881732,
            28.9463036978146
          ],
          [
            -98.1207146454177,
            28.931573786255
          ],
          [
            -98.1217904130047,
            28.9311904223497
          ],
          [
            -98.122644921944,
            28.9302405985225
          ],
          [
            -98.130129501635,
            28.9224131409467
          ],
          [
            -98.131197636237,
            28.9212706819408
          ],
          [
            -98.1414670022919,
            28.9115340400529
          ],
          [
            -98.1423291415213,
            28.9111468637069
          ],
          [
            -98.1448850362525,
            28.9077156770935
          ],
          [
            -98.1474409282887,
            28.9039106653223
          ],
          [
            -98.1480741785803,
            28.9025812955096
          ],
          [
            -98.1489286866213,
            28.9016219360646
          ],
          [
            -98.153079148474,
            28.8945287871307
          ]
        ]
      },
      "properties": {
        "STATE": "TX",
        "DESCRIPTION": "Normal fault, certain",
        "RuleID": 22
      }
    },
    {
      "type": "Feature",
      "geometry": {
        "type": "LineString",
        "coordinates": [
          [
            -97.8111985422226,
            29.1306528656421
          ],
          [
            -97.8212009433481,
            29.1246658564049
          ],
          [
            -97.8244511522506,
            29.1221596709397
          ],
          [
            -97.8346671727506,
            29.1171320260247
          ],
          [
            -97.838138637606,
            29.1148165692417
          ],
          [
            -97.8465845880258,
            29.1111907831023
          ],
          [
            -97.8558163819612,
            29.1075649971243
          ]
        ]
      },
      "properties": {
        "STATE": "TX",
        "DESCRIPTION": "Normal fault, certain",
        "RuleID": 22
      }
    },
    {
      "type": "Feature",
      "geometry": {
        "type": "LineString",
        "coordinates": [
          [
            -97.7331324574959,
            29.1652705893078
          ],
          [
            -97.7394345317778,
            29.160452704228
          ],
          [
            -97.7500854958771,
            29.151024854181
          ],
          [
            -97.7531220970832,
            29.1467429847273
          ],
          [
            -97.7539918854672,
            29.1439087580643
          ],
          [
            -97.7548616675629,
            29.1421826611573
          ],
          [
            -97.7550753013105,
            29.1414197475367
          ],
          [
            -97.7557314496586,
            29.1406453870287
          ],
          [
            -97.7616215376866,
            29.1316506086865
          ],
          [
            -97.7646734021677,
            29.1256350212787
          ]
        ]
      },
      "properties": {
        "STATE": "TX",
        "DESCRIPTION": "Normal fault, certain",
        "RuleID": 22
      }
    },
    {
      "type": "Feature",
      "geometry": {
        "type": "LineString",
        "coordinates": [
          [
            -97.7873026181482,
            29.1482038006366
          ],
          [
            -97.7887369860101,
            29.1466608013782
          ],
          [
            -97.7912089852803,
            29.1433859834587
          ],
          [
            -97.7962063805795,
            29.1393425205474
          ],
          [
            -97.7979459286013,
            29.1385662455864
          ],
          [
            -97.8025084324035,
            29.1352895125198
          ]
        ]
      },
      "properties": {
        "STATE": "TX",
        "DESCRIPTION": "Normal fault, certain",
        "RuleID": 22
      }
    },
    {
      "type": "Feature",
      "geometry": {
        "type": "LineString",
        "coordinates": [
          [
            -97.7722036782588,
            29.147200643178
          ],
          [
            -97.7842355685456,
            29.1393902585549
          ],
          [
            -97.7937954631553,
            29.1330217935589
          ]
        ]
      },
      "properties": {
        "STATE": "TX",
        "DESCRIPTION": "Normal fault, certain",
        "RuleID": 22
      }
    },
    {
      "type": "Feature",
      "geometry": {
        "type": "LineString",
        "coordinates": [
          [
            -97.802058316259,
            29.1287685132296
          ],
          [
            -97.8150973006243,
            29.1200922206776
          ],
          [
            -97.8309592174136,
            29.1119652131935
          ],
          [
            -97.8410379007781,
            29.1071321124173
          ]
        ]
      },
      "properties": {
        "STATE": "TX",
        "DESCRIPTION": "Normal fault, certain",
        "RuleID": 22
      }
    },
    {
      "type": "Feature",
      "geometry": {
        "type": "LineString",
        "coordinates": [
          [
            -97.7514511201619,
            29.1629777945116
          ],
          [
            -97.7540223248806,
            29.1572463935047
          ],
          [
            -97.7572725589359,
            29.1519593863128
          ],
          [
            -97.7611789305596,
            29.1477232908907
          ],
          [
            -97.7642231611574,
            29.1427261929066
          ],
          [
            -97.7648716792155,
            29.1421501904362
          ],
          [
            -97.7659550905673,
            29.1400350074399
          ],
          [
            -97.7659550950588,
            29.1392663728794
          ],
          [
            -97.7670461313107,
            29.1383050957165
          ],
          [
            -97.7718146691132,
            29.1288926289199
          ],
          [
            -97.7759804625129,
            29.120475765162
          ]
        ]
      },
      "properties": {
        "STATE": "TX",
        "DESCRIPTION": "Normal fault, certain",
        "RuleID": 22
      }
    }
  ]
}