{
  "type": "FeatureCollection",
  "features": [
    {
      "type": "Feature",
      "geometry": {
        "type": "LineString",
        "coordinates": [
          [
            -113.718102391508,
            44.9866511645462
          ],
          [
            -113.725839492117,
            44.9806502151778
          ],
          [
            -113.730868674302,
            44.9765581206494
          ],
          [
            -113.73396399209,
            44.9738293329722
          ]
        ]
      },
      "properties": {
        "STATE": "ID",
        "DESCRIPTION": "Detachment fault, certain",
        "RuleID": 12,
        "type": "faults"
      }
    },
    {
      "type": "Feature",
      "geometry": {
        "type": "LineString",
        "coordinates": [
          [
            -113.73396399209,
            44.9738293329722
          ],
          [
            -113.737064867755,
            44.969732733147
          ],
          [
            -113.738234571273,
            44.9664527874986
          ],
          [
            -113.739785132624,
            44.9642674401743
          ],
          [
            -113.744810260712,
            44.9607215803985
          ],
          [
            -113.749445693342,
            44.9579955163411
          ],
          [
            -113.752923840765,
            44.9555404814601
          ],
          [
            -113.757938237579,
            44.9544557874984
          ],
          [
            -113.760251483878,
            44.9541866674935
          ]
        ]
      },
      "properties": {
        "STATE": "ID",
        "DESCRIPTION": "Detachment fault, certain",
        "RuleID": 12,
        "type": "faults"
      }
    },
    {
      "type": "Feature",
      "geometry": {
        "type": "LineString",
        "coordinates": [
          [
            -113.693888235651,
            45.0094630519919
          ],
          [
            -113.699229199715,
            45.0055116117656
          ]
        ]
      },
      "properties": {
        "STATE": "ID",
        "DESCRIPTION": "Detachment fault, certain",
        "RuleID": 12,
        "type": "faults"
      }
    },
    {
      "type": "Feature",
      "geometry": {
        "type": "LineString",
        "coordinates": [
          [
            -113.652784993376,
            45.0972708524179
          ],
          [
            -113.64524566586,
            45.0958996631528
          ],
          [
            -113.636620908478,
            45.091268973269
          ],
          [
            -113.635616905502,
            45.0904044150203
          ]
        ]
      },
      "properties": {
        "STATE": "ID",
        "DESCRIPTION": "Detachment fault, certain",
        "RuleID": 12,
        "type": "faults"
      }
    },
    {
      "type": "Feature",
      "geometry": {
        "type": "LineString",
        "coordinates": [
          [
            -113.699229199715,
            45.0055116117656
          ],
          [
            -113.70995627717,
            44.9975737673224
          ],
          [
            -113.713440042657,
            44.9945728159527
          ],
          [
            -113.715380355161,
            44.9918419194685
          ],
          [
            -113.716548100352,
            44.9893827880308
          ],
          [
            -113.718102391508,
            44.9866511645462
          ]
        ]
      },
      "properties": {
        "STATE": "ID",
        "DESCRIPTION": "Detachment fault, certain",
        "RuleID": 12,
        "type": "faults"
      }
    },
    {
      "type": "Feature",
      "geometry": {
        "type": "LineString",
        "coordinates": [
          [
            -113.71342569746,
            45.1955650774688
          ],
          [
            -113.707998775403,
            45.1949828208492
          ],
          [
            -113.707001050753,
            45.193416514619
          ],
          [
            -113.706405244039,
            45.1919935678322
          ],
          [
            -113.704191478073,
            45.1922722521035
          ],
          [
            -113.702785055902,
            45.1919842053186
          ],
          [
            -113.701180724991,
            45.1911271125533
          ],
          [
            -113.698581677889,
            45.1882771708371
          ],
          [
            -113.698577595046,
            45.1882217423051
          ]
        ]
      },
      "properties": {
        "STATE": "ID",
        "DESCRIPTION": "Detachment fault, certain",
        "RuleID": 12,
        "type": "faults"
      }
    },
    {
      "type": "Feature",
      "geometry": {
        "type": "LineString",
        "coordinates": [
          [
            -113.694801418053,
            45.1771742807683
          ],
          [
            -113.692812668388,
            45.1766057825718
          ],
          [
            -113.687392431593,
            45.1751693754413
          ],
          [
            -113.683994207281,
            45.1716063324839
          ],
          [
            -113.683206646187,
            45.1686189716099
          ],
          [
            -113.683331804862,
            45.1671309464927
          ],
          [
            -113.683422036141,
            45.1660608415887
          ],
          [
            -113.683032235579,
            45.1637854297678
          ],
          [
            -113.682773441726,
            45.1634153598688
          ],
          [
            -113.68183612788,
            45.1620762842871
          ],
          [
            -113.675626506411,
            45.1582207206703
          ],
          [
            -113.669524837286,
            45.1550922977456
          ],
          [
            -113.669214063316,
            45.1549330246715
          ],
          [
            -113.667414243729,
            45.1533640340238
          ],
          [
            -113.668232115778,
            45.1509500173238
          ],
          [
            -113.670255507175,
            45.1493125053519
          ],
          [
            -113.670856994835,
            45.1488253345137
          ],
          [
            -113.673076947497,
            45.1472679449155
          ],
          [
            -113.67369335797,
            45.1448533113963
          ],
          [
            -113.673107819899,
            45.1418664421744
          ],
          [
            -113.672139286902,
            45.1402495460534
          ],
          [
            -113.671913299523,
            45.139872794779
          ],
          [
            -113.671724420649,
            45.1377399682266
          ],
          [
            -113.672153698574,
            45.1373184010674
          ],
          [
            -113.673745246458,
            45.1357558144562
          ],
          [
            -113.676164911676,
            45.1341989309232
          ],
          [
            -113.679184522147,
            45.1330704217262
          ],
          [
            -113.680799588823,
            45.1316532365662
          ],
          [
            -113.681012559614,
            45.1295215450264
          ],
          [
            -113.680421232799,
            45.1275299447534
          ],
          [
            -113.679826768168,
            45.1259645078037
          ],
          [
            -113.674208162697,
            45.1249536454521
          ],
          [
            -113.67240505797,
            45.1242376300386
          ],
          [
            -113.669773012154,
            45.1239538102955
          ],
          [
            -113.667032430987,
            45.1188348272218
          ],
          [
            -113.665479204335,
            45.111440405053
          ],
          [
            -113.661085470619,
            45.1067327469564
          ],
          [
            -113.658910792148,
            45.101698780561
          ]
        ]
      },
      "properties": {
        "STATE": "ID",
        "DESCRIPTION": "Detachment fault, certain",
        "RuleID": 12,
        "type": "faults"
      }
    },
    {
      "type": "Feature",
      "geometry": {
        "type": "LineString",
        "coordinates": [
          [
            -113.658910792148,
            45.101698780561
          ],
          [
            -113.658904526399,
            45.1016835703354
          ],
          [
            -113.655997406561,
            45.0989731909252
          ]
        ]
      },
      "properties": {
        "STATE": "ID",
        "DESCRIPTION": "Detachment fault, concealed",
        "RuleID": 13,
        "type": "faults"
      }
    },
    {
      "type": "Feature",
      "geometry": {
        "type": "LineString",
        "coordinates": [
          [
            -113.655997406561,
            45.0989731909252
          ],
          [
            -113.654508408553,
            45.0975843885837
          ],
          [
            -113.652784993376,
            45.0972708524179
          ]
        ]
      },
      "properties": {
        "STATE": "ID",
        "DESCRIPTION": "Detachment fault, concealed",
        "RuleID": 13,
        "type": "faults"
      }
    },
    {
      "type": "Feature",
      "geometry": {
        "type": "LineString",
        "coordinates": [
          [
            -113.698577595046,
            45.1882217423051
          ],
          [
            -113.698393903943,
            45.185718239031
          ],
          [
            -113.698816296281,
            45.1818812741291
          ],
          [
            -113.69862668079,
            45.1797485067975
          ],
          [
            -113.696827537633,
            45.1777535331533
          ],
          [
            -113.694801418053,
            45.1771742807683
          ]
        ]
      },
      "properties": {
        "STATE": "ID",
        "DESCRIPTION": "Detachment fault, concealed",
        "RuleID": 13,
        "type": "faults"
      }
    },
    {
      "type": "Feature",
      "geometry": {
        "type": "LineString",
        "coordinates": [
          [
            -113.930043364574,
            44.9917672525319
          ],
          [
            -113.930754886873,
            44.9862430137235
          ],
          [
            -113.932240418282,
            44.9786605887472
          ],
          [
            -113.93328842613,
            44.9734822544749
          ],
          [
            -113.934250519105,
            44.9673789009876
          ],
          [
            -113.938774724133,
            44.9551192807133
          ],
          [
            -113.942525026951,
            44.9475924468992
          ],
          [
            -113.943565842887,
            44.9405502834589
          ]
        ]
      },
      "properties": {
        "STATE": "ID",
        "DESCRIPTION": "Fault, sense of displacement unknown or undefined, certain",
        "RuleID": 22,
        "type": "faults"
      }
    },
    {
      "type": "Feature",
      "geometry": {
        "type": "LineString",
        "coordinates": [
          [
            -114.123559044951,
            44.8069463893132
          ],
          [
            -114.113023594315,
            44.7985711396751
          ],
          [
            -114.103234649969,
            44.7915020924544
          ],
          [
            -114.09487512826,
            44.7843274945313
          ],
          [
            -114.090231202058,
            44.7799561474207
          ],
          [
            -114.085235553084,
            44.77228299448
          ],
          [
            -114.081751203693,
            44.7670850218973
          ],
          [
            -114.079773828496,
            44.7615556224175
          ],
          [
            -114.078885299459,
            44.7530752039212
          ]
        ]
      },
      "properties": {
        "STATE": "ID",
        "DESCRIPTION": "Fault, sense of displacement unknown or undefined, certain",
        "RuleID": 22,
        "type": "faults"
      }
    },
    {
      "type": "Feature",
      "geometry": {
        "type": "LineString",
        "coordinates": [
          [
            -113.799607599943,
            44.9392094305558
          ],
          [
            -113.787638059025,
            44.9468493740565
          ],
          [
            -113.77411855234,
            44.9561267403454
          ],
          [
            -113.766761702302,
            44.9656872716422
          ],
          [
            -113.764812486595,
            44.9717013858425
          ],
          [
            -113.763633746025,
            44.9777167783516
          ],
          [
            -113.764007506269,
            44.9809998961613
          ],
          [
            -113.76397628083,
            44.9894791199983
          ]
        ]
      },
      "properties": {
        "STATE": "ID",
        "DESCRIPTION": "Fault, sense of displacement unknown or undefined, certain",
        "RuleID": 22,
        "type": "faults"
      }
    },
    {
      "type": "Feature",
      "geometry": {
        "type": "LineString",
        "coordinates": [
          [
            -113.928571405811,
            44.9968532874151
          ],
          [
            -113.929453191196,
            44.9942488959577
          ],
          [
            -113.930043364574,
            44.9917672525319
          ]
        ]
      },
      "properties": {
        "STATE": "ID",
        "DESCRIPTION": "Fault, sense of displacement unknown or undefined, certain",
        "RuleID": 22,
        "type": "faults"
      }
    },
    {
      "type": "Feature",
      "geometry": {
        "type": "LineString",
        "coordinates": [
          [
            -113.925502673664,
            45.0106287914157
          ],
          [
            -113.926101955061,
            45.0065704354708
          ],
          [
            -113.926899625796,
            45.0032768029209
          ],
          [
            -113.927505610422,
            45.0009946351562
          ],
          [
            -113.927910170304,
            44.9989978673754
          ],
          [
            -113.928571405811,
            44.9968532874151
          ]
        ]
      },
      "properties": {
        "STATE": "ID",
        "DESCRIPTION": "Fault, sense of displacement unknown or undefined, certain",
        "RuleID": 22,
        "type": "faults"
      }
    },
    {
      "type": "Feature",
      "geometry": {
        "type": "LineString",
        "coordinates": [
          [
            -113.945425132743,
            44.9162383223462
          ],
          [
            -113.947431689711,
            44.9040453766235
          ],
          [
            -113.951673249717,
            44.88825502278
          ],
          [
            -113.951677715242,
            44.881977169369
          ],
          [
            -113.950504026798,
            44.8765357203786
          ],
          [
            -113.949332764703,
            44.8685832188369
          ],
          [
            -113.94874852829,
            44.8627233990029
          ],
          [
            -113.948751474764,
            44.8589565582964
          ],
          [
            -113.948755904357,
            44.8535155919312
          ]
        ]
      },
      "properties": {
        "STATE": "ID",
        "DESCRIPTION": "Fault, sense of displacement unknown or undefined, certain",
        "RuleID": 22,
        "type": "faults"
      }
    },
    {
      "type": "Feature",
      "geometry": {
        "type": "LineString",
        "coordinates": [
          [
            -113.945425132743,
            44.9162383223462
          ],
          [
            -113.944249573107,
            44.9204068388541
          ],
          [
            -113.943713230374,
            44.9246940897066
          ],
          [
            -113.943533113668,
            44.9274680419825
          ],
          [
            -113.943531162527,
            44.929863994168
          ],
          [
            -113.943528593345,
            44.9328903698145
          ],
          [
            -113.943644992548,
            44.9361660478628
          ],
          [
            -113.943718154938,
            44.93830463075
          ],
          [
            -113.943565842887,
            44.9405502834589
          ]
        ]
      },
      "properties": {
        "STATE": "ID",
        "DESCRIPTION": "Fault, sense of displacement unknown or undefined, concealed",
        "RuleID": 23,
        "type": "faults"
      }
    },
    {
      "type": "Feature",
      "geometry": {
        "type": "LineString",
        "coordinates": [
          [
            -113.755355075386,
            45.2512395257266
          ],
          [
            -113.750458618385,
            45.2458004349396
          ],
          [
            -113.747502034613,
            45.2315790584673
          ],
          [
            -113.743031269463,
            45.2280570659105
          ],
          [
            -113.735363330148,
            45.2224225657082
          ],
          [
            -113.729034332458,
            45.2196903696894
          ],
          [
            -113.727270982675,
            45.210472189542
          ],
          [
            -113.722093604519,
            45.2047431197241
          ],
          [
            -113.71342569746,
            45.1955650774688
          ]
        ]
      },
      "properties": {
        "STATE": "ID",
        "DESCRIPTION": "Normal fault, certain, (U/D designated in source)",
        "RuleID": 43,
        "type": "faults"
      }
    },
    {
      "type": "Feature",
      "geometry": {
        "type": "LineString",
        "coordinates": [
          [
            -113.92260848238,
            44.8933212833134
          ],
          [
            -113.92642419333,
            44.8866819293247
          ],
          [
            -113.927467947655,
            44.88176293624
          ],
          [
            -113.929206023339,
            44.8751221392209
          ],
          [
            -113.929903272306,
            44.870448770769
          ],
          [
            -113.930600113438,
            44.8660209811824
          ],
          [
            -113.930604641845,
            44.861593047104
          ],
          [
            -113.93130084158,
            44.8579034233604
          ],
          [
            -113.931647981149,
            44.8566737125347
          ],
          [
            -113.931995974117,
            44.8547058202683
          ]
        ]
      },
      "properties": {
        "STATE": "ID",
        "DESCRIPTION": "Normal fault, certain, (U/D designated in source)",
        "RuleID": 43,
        "type": "faults"
      }
    },
    {
      "type": "Feature",
      "geometry": {
        "type": "LineString",
        "coordinates": [
          [
            -113.931995974117,
            44.8547058202683
          ],
          [
            -113.920489105995,
            44.8525665607068
          ],
          [
            -113.910032268727,
            44.8511896263661
          ],
          [
            -113.902603216598,
            44.8498143576317
          ],
          [
            -113.896551011408,
            44.84804826595
          ]
        ]
      },
      "properties": {
        "STATE": "ID",
        "DESCRIPTION": "Normal fault, certain, (U/D designated in source)",
        "RuleID": 43,
        "type": "faults"
      }
    },
    {
      "type": "Feature",
      "geometry": {
        "type": "LineString",
        "coordinates": [
          [
            -114.105321528901,
            44.8469404110407
          ],
          [
            -114.101720972546,
            44.8440069927912
          ],
          [
            -114.098786734367,
            44.8413572984385
          ],
          [
            -114.096652162978,
            44.8388964610558
          ],
          [
            -114.093585515821,
            44.8352348374327
          ]
        ]
      },
      "properties": {
        "STATE": "ID",
        "DESCRIPTION": "Normal fault, certain, (U/D designated in source)",
        "RuleID": 43,
        "type": "faults"
      }
    },
    {
      "type": "Feature",
      "geometry": {
        "type": "LineString",
        "coordinates": [
          [
            -114.104639208137,
            44.8979311517095
          ],
          [
            -114.104589011177,
            44.8907641119471
          ],
          [
            -114.104975789806,
            44.8814825694663
          ],
          [
            -114.104966457208,
            44.8759139139995
          ],
          [
            -114.105161473372,
            44.8722011948002
          ],
          [
            -114.105323527652,
            44.8688657500685
          ]
        ]
      },
      "properties": {
        "STATE": "ID",
        "DESCRIPTION": "Normal fault, certain, (U/D designated in source)",
        "RuleID": 43,
        "type": "faults"
      }
    },
    {
      "type": "Feature",
      "geometry": {
        "type": "LineString",
        "coordinates": [
          [
            -113.704755552698,
            44.9527159448706
          ],
          [
            -113.704697191849,
            44.9551350861749
          ],
          [
            -113.704321646653,
            44.9582128020358
          ],
          [
            -113.703216202322,
            44.962827961612
          ],
          [
            -113.698093977131,
            44.9758994920596
          ],
          [
            -113.690070646323,
            44.9902459872569
          ],
          [
            -113.684608516595,
            44.9979285463196
          ]
        ]
      },
      "properties": {
        "STATE": "ID",
        "DESCRIPTION": "Normal fault, certain, (U/D designated in source)",
        "RuleID": 43,
        "type": "faults"
      }
    },
    {
      "type": "Feature",
      "geometry": {
        "type": "LineString",
        "coordinates": [
          [
            -114.12859618082,
            44.8712373311979
          ],
          [
            -114.128462337232,
            44.8711803750006
          ],
          [
            -114.12524290551,
            44.8684706470349
          ],
          [
            -114.121820209293,
            44.864332794862
          ],
          [
            -114.118799246858,
            44.8606619709326
          ]
        ]
      },
      "properties": {
        "STATE": "ID",
        "DESCRIPTION": "Normal fault, certain, (U/D designated in source)",
        "RuleID": 43,
        "type": "faults"
      }
    },
    {
      "type": "Feature",
      "geometry": {
        "type": "LineString",
        "coordinates": [
          [
            -113.896551011408,
            44.84804826595
          ],
          [
            -113.884171315901,
            44.8452977481656
          ],
          [
            -113.870692446304,
            44.8421533332515
          ],
          [
            -113.863817346584,
            44.8399935356922
          ],
          [
            -113.856841712807,
            44.8387224463974
          ]
        ]
      },
      "properties": {
        "STATE": "ID",
        "DESCRIPTION": "Normal fault, certain, (U/D designated in source)",
        "RuleID": 43,
        "type": "faults"
      }
    },
    {
      "type": "Feature",
      "geometry": {
        "type": "LineString",
        "coordinates": [
          [
            -114.118799246858,
            44.8606619709326
          ],
          [
            -114.114129002714,
            44.8564042082354
          ],
          [
            -114.110393077432,
            44.8527136151518
          ],
          [
            -114.106814232459,
            44.8494517590694
          ]
        ]
      },
      "properties": {
        "STATE": "ID",
        "DESCRIPTION": "Normal fault, certain, (U/D designated in source)",
        "RuleID": 43,
        "type": "faults"
      }
    },
    {
      "type": "Feature",
      "geometry": {
        "type": "LineString",
        "coordinates": [
          [
            -114.044722721343,
            44.7765132128562
          ],
          [
            -114.04147138775,
            44.7682601732315
          ],
          [
            -114.039629900706,
            44.7543544928111
          ],
          [
            -114.036585350308,
            44.7428699286213
          ],
          [
            -114.029147716574,
            44.7318267387671
          ]
        ]
      },
      "properties": {
        "STATE": "ID",
        "DESCRIPTION": "Normal fault, certain, (U/D designated in source)",
        "RuleID": 43,
        "type": "faults"
      }
    },
    {
      "type": "Feature",
      "geometry": {
        "type": "LineString",
        "coordinates": [
          [
            -113.930526273718,
            45.196778043161
          ],
          [
            -113.930061701884,
            45.2008948778661
          ],
          [
            -113.930058912615,
            45.2034955017467
          ]
        ]
      },
      "properties": {
        "STATE": "ID",
        "DESCRIPTION": "Normal fault, certain, (U/D designated in source)",
        "RuleID": 43,
        "type": "faults"
      }
    },
    {
      "type": "Feature",
      "geometry": {
        "type": "LineString",
        "coordinates": [
          [
            -113.769313789075,
            44.8986713526431
          ],
          [
            -113.772387516754,
            44.9005918731621
          ],
          [
            -113.776993930207,
            44.9047036656288
          ],
          [
            -113.782369691412,
            44.9093633343719
          ],
          [
            -113.788131138895,
            44.9140237431162
          ],
          [
            -113.792352932371,
            44.9186810692304
          ],
          [
            -113.79542054881,
            44.923063016653
          ],
          [
            -113.798472040491,
            44.9326424104549
          ],
          [
            -113.799607599943,
            44.9392094305558
          ]
        ]
      },
      "properties": {
        "STATE": "ID",
        "DESCRIPTION": "Normal fault, certain, (U/D designated in source)",
        "RuleID": 43,
        "type": "faults"
      }
    },
    {
      "type": "Feature",
      "geometry": {
        "type": "LineString",
        "coordinates": [
          [
            -113.723396974656,
            44.8588713703283
          ],
          [
            -113.720902597454,
            44.8603821661173
          ],
          [
            -113.718051264792,
            44.8621446488074
          ],
          [
            -113.712704486831,
            44.8656702978527
          ]
        ]
      },
      "properties": {
        "STATE": "ID",
        "DESCRIPTION": "Normal fault, certain, (U/D designated in source)",
        "RuleID": 43,
        "type": "faults"
      }
    },
    {
      "type": "Feature",
      "geometry": {
        "type": "LineString",
        "coordinates": [
          [
            -113.942917165827,
            44.8247924394215
          ],
          [
            -113.943095407749,
            44.823222203993
          ],
          [
            -113.942752059071,
            44.8202698648157
          ],
          [
            -113.941502185405,
            44.817193001012
          ],
          [
            -113.93860962636,
            44.8128872889591
          ]
        ]
      },
      "properties": {
        "STATE": "ID",
        "DESCRIPTION": "Normal fault, certain, (U/D designated in source)",
        "RuleID": 43,
        "type": "faults"
      }
    },
    {
      "type": "Feature",
      "geometry": {
        "type": "LineString",
        "coordinates": [
          [
            -114.132049637149,
            44.8571177266515
          ],
          [
            -114.132038247409,
            44.8516140366546
          ]
        ]
      },
      "properties": {
        "STATE": "ID",
        "DESCRIPTION": "Normal fault, certain, (U/D designated in source)",
        "RuleID": 43,
        "type": "faults"
      }
    },
    {
      "type": "Feature",
      "geometry": {
        "type": "LineString",
        "coordinates": [
          [
            -113.682614883688,
            45.0003915237244
          ],
          [
            -113.681696098494,
            45.0017690766261
          ],
          [
            -113.680240456729,
            45.0035611785856
          ]
        ]
      },
      "properties": {
        "STATE": "ID",
        "DESCRIPTION": "Normal fault, certain, (U/D designated in source)",
        "RuleID": 43,
        "type": "faults"
      }
    },
    {
      "type": "Feature",
      "geometry": {
        "type": "LineString",
        "coordinates": [
          [
            -113.790526983487,
            44.8074968534344
          ],
          [
            -113.786042095922,
            44.8059021761325
          ],
          [
            -113.783758449112,
            44.8047351773053
          ],
          [
            -113.782127193896,
            44.8038023133494
          ],
          [
            -113.781149952631,
            44.8028701182243
          ],
          [
            -113.780174997579,
            44.8012405260395
          ],
          [
            -113.7798531375,
            44.7998442745158
          ],
          [
            -113.778881424468,
            44.7972843493755
          ]
        ]
      },
      "properties": {
        "STATE": "ID",
        "DESCRIPTION": "Normal fault, certain, (U/D designated in source)",
        "RuleID": 43,
        "type": "faults"
      }
    },
    {
      "type": "Feature",
      "geometry": {
        "type": "LineString",
        "coordinates": [
          [
            -113.958339953766,
            44.7786968649094
          ],
          [
            -113.956271486705,
            44.7713150508694
          ],
          [
            -113.953857046986,
            44.7651629918391
          ],
          [
            -113.952477974023,
            44.7609797246649
          ],
          [
            -113.951098895671,
            44.7570425947183
          ]
        ]
      },
      "properties": {
        "STATE": "ID",
        "DESCRIPTION": "Normal fault, certain, (U/D designated in source)",
        "RuleID": 43,
        "type": "faults"
      }
    },
    {
      "type": "Feature",
      "geometry": {
        "type": "LineString",
        "coordinates": [
          [
            -113.778881424468,
            44.7972843493755
          ],
          [
            -113.775296784463,
            44.7934761461881
          ],
          [
            -113.768057741289,
            44.7890325548521
          ],
          [
            -113.76108069536,
            44.7856963314781
          ],
          [
            -113.753844767543,
            44.7839795330996
          ],
          [
            -113.746918058712,
            44.7810206470112
          ],
          [
            -113.743333794203,
            44.7790757491122
          ],
          [
            -113.741376234045,
            44.7783742170539
          ],
          [
            -113.735504628854,
            44.7762688619128
          ],
          [
            -113.731589254314,
            44.7750975868135
          ],
          [
            -113.726365371274,
            44.7743886365112
          ]
        ]
      },
      "properties": {
        "STATE": "ID",
        "DESCRIPTION": "Normal fault, certain, (U/D designated in source)",
        "RuleID": 43,
        "type": "faults"
      }
    },
    {
      "type": "Feature",
      "geometry": {
        "type": "LineString",
        "coordinates": [
          [
            -114.106139537494,
            44.9606479236435
          ],
          [
            -114.106615853003,
            44.9548988530948
          ],
          [
            -114.106609709425,
            44.9513666931208
          ],
          [
            -114.106232313699,
            44.9480092899328
          ],
          [
            -114.104607503896,
            44.9439505935631
          ],
          [
            -114.103570597428,
            44.9409285434625
          ],
          [
            -114.104499832724,
            44.9372205451841
          ],
          [
            -114.107917051014,
            44.9298024927764
          ],
          [
            -114.110046740957,
            44.9241648925174
          ],
          [
            -114.111036098699,
            44.9209850787542
          ],
          [
            -114.111028441459,
            44.9163929062174
          ],
          [
            -114.10902515885,
            44.908269895327
          ],
          [
            -114.106529476395,
            44.9026197801006
          ],
          [
            -114.104639208137,
            44.8979311517095
          ]
        ]
      },
      "properties": {
        "STATE": "ID",
        "DESCRIPTION": "Normal fault, certain, (U/D designated in source)",
        "RuleID": 43,
        "type": "faults"
      }
    },
    {
      "type": "Feature",
      "geometry": {
        "type": "LineString",
        "coordinates": [
          [
            -113.684608516595,
            44.9979285463196
          ],
          [
            -113.68351221891,
            44.9993011231086
          ],
          [
            -113.682614883688,
            45.0003915237244
          ]
        ]
      },
      "properties": {
        "STATE": "ID",
        "DESCRIPTION": "Normal fault, certain, (U/D designated in source)",
        "RuleID": 43,
        "type": "faults"
      }
    },
    {
      "type": "Feature",
      "geometry": {
        "type": "LineString",
        "coordinates": [
          [
            -113.93860962636,
            44.8128872889591
          ],
          [
            -113.936339623163,
            44.8099217770174
          ]
        ]
      },
      "properties": {
        "STATE": "ID",
        "DESCRIPTION": "Normal fault, certain, (U/D designated in source)",
        "RuleID": 43,
        "type": "faults"
      }
    },
    {
      "type": "Feature",
      "geometry": {
        "type": "LineString",
        "coordinates": [
          [
            -114.070528752969,
            44.880419498564
          ],
          [
            -114.072648047608,
            44.8666294190858
          ],
          [
            -114.071707297706,
            44.8560662596092
          ],
          [
            -114.070295005942,
            44.8382402790311
          ],
          [
            -114.067030477894,
            44.8233857816302
          ],
          [
            -114.062840780325,
            44.8098519024584
          ],
          [
            -114.060513456528,
            44.8022597606667
          ],
          [
            -114.0586542583,
            44.7982986117641
          ]
        ]
      },
      "properties": {
        "STATE": "ID",
        "DESCRIPTION": "Normal fault, certain, (U/D designated in source)",
        "RuleID": 43,
        "type": "faults"
      }
    },
    {
      "type": "Feature",
      "geometry": {
        "type": "LineString",
        "coordinates": [
          [
            -113.928344876748,
            44.7891671143965
          ],
          [
            -113.927932159265,
            44.7855859171944
          ]
        ]
      },
      "properties": {
        "STATE": "ID",
        "DESCRIPTION": "Normal fault, certain, (U/D designated in source)",
        "RuleID": 43,
        "type": "faults"
      }
    },
    {
      "type": "Feature",
      "geometry": {
        "type": "LineString",
        "coordinates": [
          [
            -113.927014795205,
            44.7969597062735
          ],
          [
            -113.927017588966,
            44.7947431812383
          ],
          [
            -113.927989350508,
            44.792328939104
          ],
          [
            -113.928344876748,
            44.7891671143965
          ]
        ]
      },
      "properties": {
        "STATE": "ID",
        "DESCRIPTION": "Normal fault, certain, (U/D designated in source)",
        "RuleID": 43,
        "type": "faults"
      }
    },
    {
      "type": "Feature",
      "geometry": {
        "type": "LineString",
        "coordinates": [
          [
            -113.978347883053,
            44.8309104048301
          ],
          [
            -113.971799902148,
            44.8188032409768
          ],
          [
            -113.968691406973,
            44.8111758497183
          ],
          [
            -113.966274096239,
            44.8055166865239
          ],
          [
            -113.965583733757,
            44.803548364254
          ],
          [
            -113.964548274475,
            44.8005958706157
          ],
          [
            -113.963170405255,
            44.7919842057884
          ],
          [
            -113.961101012928,
            44.7843566203348
          ],
          [
            -113.960065956092,
            44.7816499523306
          ],
          [
            -113.958339953766,
            44.7786968649094
          ]
        ]
      },
      "properties": {
        "STATE": "ID",
        "DESCRIPTION": "Normal fault, certain, (U/D designated in source)",
        "RuleID": 43,
        "type": "faults"
      }
    },
    {
      "type": "Feature",
      "geometry": {
        "type": "LineString",
        "coordinates": [
          [
            -113.96160154612,
            45.0802645667937
          ],
          [
            -113.961598938311,
            45.084751968652
          ],
          [
            -113.961597011424,
            45.0882193508635
          ]
        ]
      },
      "properties": {
        "STATE": "ID",
        "DESCRIPTION": "Normal fault, certain, (U/D designated in source)",
        "RuleID": 43,
        "type": "faults"
      }
    },
    {
      "type": "Feature",
      "geometry": {
        "type": "LineString",
        "coordinates": [
          [
            -113.779065511727,
            44.7433220739489
          ],
          [
            -113.781992394501,
            44.7468163890346
          ],
          [
            -113.786009644282,
            44.7511633954675
          ]
        ]
      },
      "properties": {
        "STATE": "ID",
        "DESCRIPTION": "Normal fault, certain, (U/D designated in source)",
        "RuleID": 43,
        "type": "faults"
      }
    },
    {
      "type": "Feature",
      "geometry": {
        "type": "LineString",
        "coordinates": [
          [
            -113.896551011408,
            44.84804826595
          ],
          [
            -113.894953923613,
            44.8442667342985
          ],
          [
            -113.891286183157,
            44.8395107056732
          ],
          [
            -113.887619044571,
            44.8347545577185
          ],
          [
            -113.88128026872,
            44.829520674788
          ],
          [
            -113.873942895955,
            44.8228593291054
          ],
          [
            -113.863939105136,
            44.8142934808764
          ],
          [
            -113.856269963875,
            44.8083434517131
          ],
          [
            -113.851272720391,
            44.8028715631795
          ],
          [
            -113.845279753703,
            44.7952589412546
          ],
          [
            -113.839620853402,
            44.7881218978785
          ],
          [
            -113.836292189235,
            44.7840771207882
          ],
          [
            -113.833960335234,
            44.7821728654377
          ],
          [
            -113.830195463539,
            44.7793749334163
          ],
          [
            -113.826311564171,
            44.7776679392597
          ],
          [
            -113.822391329746,
            44.776164153428
          ],
          [
            -113.818649256394,
            44.7749651875053
          ],
          [
            -113.815287507276,
            44.7740660398318
          ],
          [
            -113.81128543543,
            44.7728720370703
          ],
          [
            -113.807617641075,
            44.7714404600572
          ],
          [
            -113.80598074893,
            44.7707048474357
          ],
          [
            -113.80405929386,
            44.7692288447006
          ],
          [
            -113.801955540974,
            44.7673909956135
          ],
          [
            -113.800293271423,
            44.7652494899776
          ],
          [
            -113.798297458305,
            44.7631070891713
          ],
          [
            -113.796300958874,
            44.7612023680409
          ],
          [
            -113.792644139237,
            44.7566805595317
          ]
        ]
      },
      "properties": {
        "STATE": "ID",
        "DESCRIPTION": "Normal fault, certain, (U/D designated in source)",
        "RuleID": 43,
        "type": "faults"
      }
    },
    {
      "type": "Feature",
      "geometry": {
        "type": "LineString",
        "coordinates": [
          [
            -113.964433749158,
            45.0257924251062
          ],
          [
            -113.965661788372,
            45.0272305730862
          ],
          [
            -113.966524302199,
            45.0290666541613
          ],
          [
            -113.966811362441,
            45.0306986128745
          ],
          [
            -113.966810182953,
            45.0327386656512
          ],
          [
            -113.966807943453,
            45.0366142599335
          ],
          [
            -113.966806687608,
            45.0394701058384
          ],
          [
            -113.965940533808,
            45.0441615177244
          ],
          [
            -113.963634022179,
            45.0508925140617
          ],
          [
            -113.96161470554,
            45.058235116631
          ],
          [
            -113.961033641977,
            45.0670060914892
          ],
          [
            -113.961029187232,
            45.0741451042714
          ],
          [
            -113.96160154612,
            45.0802645667937
          ]
        ]
      },
      "properties": {
        "STATE": "ID",
        "DESCRIPTION": "Normal fault, certain, (U/D designated in source)",
        "RuleID": 43,
        "type": "faults"
      }
    },
    {
      "type": "Feature",
      "geometry": {
        "type": "LineString",
        "coordinates": [
          [
            -114.05240160124,
            44.7008800308404
          ],
          [
            -114.054035478639,
            44.7030696691247
          ],
          [
            -114.057400760831,
            44.7075610734144
          ],
          [
            -114.060766795811,
            44.7126513155842
          ],
          [
            -114.063713538539,
            44.7180412975882
          ],
          [
            -114.068762487254,
            44.723429954832
          ],
          [
            -114.075070923405,
            44.7270204628708
          ],
          [
            -114.081801315313,
            44.7315091489356
          ],
          [
            -114.086850872187,
            44.7353992242196
          ],
          [
            -114.093586618054,
            44.7422832369688
          ],
          [
            -114.096535527518,
            44.7464739066585
          ],
          [
            -114.09906543848,
            44.7512640803899
          ],
          [
            -114.103280527829,
            44.7578497707686
          ],
          [
            -114.107074209394,
            44.7632372596797
          ],
          [
            -114.11086687676,
            44.7677263576494
          ],
          [
            -114.114661515031,
            44.7731138681071
          ],
          [
            -114.117191666741,
            44.7767054678863
          ],
          [
            -114.119722974583,
            44.7808959408909
          ],
          [
            -114.120995056399,
            44.7862852812367
          ],
          [
            -114.122266504004,
            44.7910756698646
          ],
          [
            -114.123537768353,
            44.7958660414867
          ],
          [
            -114.126914222892,
            44.8012532862395
          ],
          [
            -114.129873809733,
            44.8081378066228
          ],
          [
            -114.132410445482,
            44.8138251544622
          ],
          [
            -114.134950678985,
            44.8210096190337
          ],
          [
            -114.137483792441,
            44.8246001725316
          ],
          [
            -114.142121886779,
            44.828188630588
          ],
          [
            -114.145915854008,
            44.8305798400943
          ],
          [
            -114.151818903827,
            44.8344658811416
          ],
          [
            -114.160253058469,
            44.840145154312
          ]
        ]
      },
      "properties": {
        "STATE": "ID",
        "DESCRIPTION": "Normal fault, certain, (U/D designated in source)",
        "RuleID": 43,
        "type": "faults"
      }
    },
    {
      "type": "Feature",
      "geometry": {
        "type": "LineString",
        "coordinates": [
          [
            -113.922018366493,
            44.7663981364184
          ],
          [
            -113.921237559832,
            44.7647251409804
          ],
          [
            -113.919307804328,
            44.7581686977181
          ],
          [
            -113.916410049427,
            44.7516117917515
          ],
          [
            -113.91641263927,
            44.7495415379255
          ]
        ]
      },
      "properties": {
        "STATE": "ID",
        "DESCRIPTION": "Normal fault, certain, (U/D designated in source)",
        "RuleID": 43,
        "type": "faults"
      }
    },
    {
      "type": "Feature",
      "geometry": {
        "type": "LineString",
        "coordinates": [
          [
            -114.14004709468,
            45.0046501388981
          ],
          [
            -114.139551794175,
            44.993201116303
          ],
          [
            -114.139526658415,
            44.9815346040186
          ],
          [
            -114.139175061406,
            44.9741539739884
          ],
          [
            -114.138866391291,
            44.9694176174208
          ],
          [
            -114.139334477334,
            44.9647000024234
          ],
          [
            -114.138802389022,
            44.9570106879914
          ],
          [
            -114.139452286892,
            44.9472474876832
          ],
          [
            -114.140781024555,
            44.9412929838389
          ],
          [
            -114.142446900842,
            44.9362908480253
          ],
          [
            -114.143780028571,
            44.9324793434467
          ],
          [
            -114.144445332549,
            44.9300974607446
          ],
          [
            -114.144776368019,
            44.9281919816586
          ]
        ]
      },
      "properties": {
        "STATE": "ID",
        "DESCRIPTION": "Normal fault, certain, (U/D designated in source)",
        "RuleID": 43,
        "type": "faults"
      }
    },
    {
      "type": "Feature",
      "geometry": {
        "type": "LineString",
        "coordinates": [
          [
            -114.105323527652,
            44.8688657500685
          ],
          [
            -114.105844522669,
            44.8641141014721
          ],
          [
            -114.106333431661,
            44.8591675205846
          ],
          [
            -114.106078371206,
            44.8551049679035
          ],
          [
            -114.10656874535,
            44.8512183853423
          ],
          [
            -114.106814232459,
            44.8494517590694
          ]
        ]
      },
      "properties": {
        "STATE": "ID",
        "DESCRIPTION": "Normal fault, certain, (U/D designated in source)",
        "RuleID": 43,
        "type": "faults"
      }
    },
    {
      "type": "Feature",
      "geometry": {
        "type": "LineString",
        "coordinates": [
          [
            -113.961011320639,
            45.1249202286542
          ],
          [
            -113.961196964679,
            45.1289120008798
          ],
          [
            -113.961195377356,
            45.1318392526817
          ],
          [
            -113.95912362785,
            45.1363627437259
          ],
          [
            -113.95611244717,
            45.1396883262714
          ],
          [
            -113.951968986787,
            45.1471378278504
          ],
          [
            -113.948962471956,
            45.1570507739749
          ],
          [
            -113.945838380231,
            45.164466725921
          ],
          [
            -113.94321582332,
            45.170615566722
          ]
        ]
      },
      "properties": {
        "STATE": "ID",
        "DESCRIPTION": "Normal fault, certain, (U/D designated in source)",
        "RuleID": 43,
        "type": "faults"
      }
    },
    {
      "type": "Feature",
      "geometry": {
        "type": "LineString",
        "coordinates": [
          [
            -113.931995974117,
            44.8547058202683
          ],
          [
            -113.933387540849,
            44.8473265421348
          ],
          [
            -113.937892775255,
            44.8389646385184
          ],
          [
            -113.939972897059,
            44.834045204344
          ],
          [
            -113.940744281292,
            44.8320749679206
          ]
        ]
      },
      "properties": {
        "STATE": "ID",
        "DESCRIPTION": "Normal fault, certain, (U/D designated in source)",
        "RuleID": 43,
        "type": "faults"
      }
    },
    {
      "type": "Feature",
      "geometry": {
        "type": "LineString",
        "coordinates": [
          [
            -114.104152111945,
            44.9700889104313
          ],
          [
            -114.105637052263,
            44.9651429202764
          ],
          [
            -114.106027327135,
            44.9621105726748
          ],
          [
            -114.106139537494,
            44.9606479236435
          ]
        ]
      },
      "properties": {
        "STATE": "ID",
        "DESCRIPTION": "Normal fault, certain, (U/D designated in source)",
        "RuleID": 43,
        "type": "faults"
      }
    },
    {
      "type": "Feature",
      "geometry": {
        "type": "LineString",
        "coordinates": [
          [
            -113.839907803151,
            45.0021780849008
          ],
          [
            -113.843218673488,
            45.0050886165527
          ],
          [
            -113.84911163882,
            45.0092816081062
          ],
          [
            -113.858688645438,
            45.0163561493897
          ],
          [
            -113.874900988731,
            45.0281453331939
          ],
          [
            -113.887065946461,
            45.0360048466871
          ]
        ]
      },
      "properties": {
        "STATE": "ID",
        "DESCRIPTION": "Normal fault, certain, (U/D designated in source)",
        "RuleID": 43,
        "type": "faults"
      }
    },
    {
      "type": "Feature",
      "geometry": {
        "type": "LineString",
        "coordinates": [
          [
            -114.133357252724,
            45.2037563680786
          ],
          [
            -114.134850219488,
            45.2007278187645
          ],
          [
            -114.137194942754,
            45.1955794707387
          ]
        ]
      },
      "properties": {
        "STATE": "ID",
        "DESCRIPTION": "Normal fault, certain, (U/D designated in source)",
        "RuleID": 43,
        "type": "faults"
      }
    },
    {
      "type": "Feature",
      "geometry": {
        "type": "LineString",
        "coordinates": [
          [
            -113.94321582332,
            45.170615566722
          ],
          [
            -113.942598760669,
            45.1720625583379
          ],
          [
            -113.936128614293,
            45.176812003137
          ],
          [
            -113.931133748649,
            45.1816519935
          ],
          [
            -113.930265145143,
            45.1841809298104
          ]
        ]
      },
      "properties": {
        "STATE": "ID",
        "DESCRIPTION": "Normal fault, certain, (U/D designated in source)",
        "RuleID": 43,
        "type": "faults"
      }
    },
    {
      "type": "Feature",
      "geometry": {
        "type": "LineString",
        "coordinates": [
          [
            -113.961894598125,
            45.0951564612038
          ],
          [
            -113.962743317422,
            45.0982139738215
          ],
          [
            -113.963605497974,
            45.1014776802445
          ],
          [
            -113.965043176128,
            45.106984966706
          ],
          [
            -113.964752291757,
            45.1116759243701
          ],
          [
            -113.962731103928,
            45.1194255159151
          ],
          [
            -113.961011320639,
            45.1249202286542
          ]
        ]
      },
      "properties": {
        "STATE": "ID",
        "DESCRIPTION": "Normal fault, certain, (U/D designated in source)",
        "RuleID": 43,
        "type": "faults"
      }
    },
    {
      "type": "Feature",
      "geometry": {
        "type": "LineString",
        "coordinates": [
          [
            -113.85560025905,
            45.0833784738469
          ],
          [
            -113.856245451545,
            45.0826076645741
          ],
          [
            -113.856980765725,
            45.081834430133
          ],
          [
            -113.857622936287,
            45.0789087989119
          ],
          [
            -113.858613008189,
            45.0773605917108
          ],
          [
            -113.860489948144,
            45.0759856206694
          ],
          [
            -113.862081534655,
            45.074861762724
          ],
          [
            -113.863356527911,
            45.0732871319382
          ],
          [
            -113.863680827813,
            45.0701360361359
          ],
          [
            -113.864321855719,
            45.0676604510707
          ],
          [
            -113.865596758245,
            45.0658607475096
          ],
          [
            -113.867507079595,
            45.0640617677145
          ],
          [
            -113.870689761239,
            45.0615887825357
          ],
          [
            -113.872598675828,
            45.0604651351517
          ],
          [
            -113.874508597429,
            45.0586660363296
          ],
          [
            -113.877055180224,
            45.0564172193117
          ],
          [
            -113.878647407234,
            45.0543926605264
          ],
          [
            -113.880558811054,
            45.0516929924079
          ],
          [
            -113.882046836186,
            45.0463738738923
          ],
          [
            -113.883413810639,
            45.0413243828234
          ],
          [
            -113.885794292243,
            45.0384405595703
          ],
          [
            -113.887065946461,
            45.0360048466871
          ]
        ]
      },
      "properties": {
        "STATE": "ID",
        "DESCRIPTION": "Normal fault, certain, (U/D designated in source)",
        "RuleID": 43,
        "type": "faults"
      }
    },
    {
      "type": "Feature",
      "geometry": {
        "type": "LineString",
        "coordinates": [
          [
            -113.830876248184,
            45.1201820770819
          ],
          [
            -113.832723660515,
            45.1173835641422
          ],
          [
            -113.836402219383,
            45.1111712075928
          ],
          [
            -113.840074761335,
            45.1066856512644
          ],
          [
            -113.845213682614,
            45.100993198861
          ],
          [
            -113.848399904519,
            45.0954706570759
          ],
          [
            -113.85560025905,
            45.0833784738469
          ]
        ]
      },
      "properties": {
        "STATE": "ID",
        "DESCRIPTION": "Normal fault, certain, (U/D designated in source)",
        "RuleID": 43,
        "type": "faults"
      }
    },
    {
      "type": "Feature",
      "geometry": {
        "type": "LineString",
        "coordinates": [
          [
            -113.887065946461,
            45.0360048466871
          ],
          [
            -113.897392675337,
            45.0409839120263
          ],
          [
            -113.9066149633,
            45.0451762892377
          ],
          [
            -113.912450434657,
            45.0475219597303
          ]
        ]
      },
      "properties": {
        "STATE": "ID",
        "DESCRIPTION": "Normal fault, certain, (U/D designated in source)",
        "RuleID": 43,
        "type": "faults"
      }
    },
    {
      "type": "Feature",
      "geometry": {
        "type": "LineString",
        "coordinates": [
          [
            -113.961597011424,
            45.0882193508635
          ],
          [
            -113.961882734075,
            45.0920947222982
          ],
          [
            -113.961894598125,
            45.0951564612038
          ]
        ]
      },
      "properties": {
        "STATE": "ID",
        "DESCRIPTION": "Normal fault, certain, (U/D designated in source)",
        "RuleID": 43,
        "type": "faults"
      }
    },
    {
      "type": "Feature",
      "geometry": {
        "type": "LineString",
        "coordinates": [
          [
            -114.106814232459,
            44.8494517590694
          ],
          [
            -114.106389124514,
            44.848170750691
          ],
          [
            -114.105321528901,
            44.8469404110407
          ]
        ]
      },
      "properties": {
        "STATE": "ID",
        "DESCRIPTION": "Normal fault, certain, (U/D designated in source)",
        "RuleID": 43,
        "type": "faults"
      }
    },
    {
      "type": "Feature",
      "geometry": {
        "type": "LineString",
        "coordinates": [
          [
            -114.137194942754,
            45.1955794707387
          ],
          [
            -114.139544735213,
            45.1930041265544
          ],
          [
            -114.142959951159,
            45.1881572994226
          ],
          [
            -114.148933910393,
            45.1789181896908
          ],
          [
            -114.156284866584,
            45.1668419123975
          ]
        ]
      },
      "properties": {
        "STATE": "ID",
        "DESCRIPTION": "Normal fault, certain, (U/D designated in source)",
        "RuleID": 43,
        "type": "faults"
      }
    },
    {
      "type": "Feature",
      "geometry": {
        "type": "LineString",
        "coordinates": [
          [
            -114.0586542583,
            44.7982986117641
          ],
          [
            -114.055091331474,
            44.7889644713429
          ],
          [
            -114.050606243585,
            44.7834380203177
          ],
          [
            -114.046421005252,
            44.7779109860025
          ],
          [
            -114.044722721343,
            44.7765132128562
          ]
        ]
      },
      "properties": {
        "STATE": "ID",
        "DESCRIPTION": "Normal fault, certain, (U/D designated in source)",
        "RuleID": 43,
        "type": "faults"
      }
    },
    {
      "type": "Feature",
      "geometry": {
        "type": "LineString",
        "coordinates": [
          [
            -113.799607599943,
            44.9392094305558
          ],
          [
            -113.801129390052,
            44.9455033859688
          ],
          [
            -113.803426322046,
            44.9504306258978
          ],
          [
            -113.806482944903,
            44.959188617113
          ],
          [
            -113.809161380619,
            44.9657575514238
          ],
          [
            -113.812995463015,
            44.9728749057412
          ],
          [
            -113.819141053469,
            44.9808161089411
          ],
          [
            -113.825674054966,
            44.988757280367
          ],
          [
            -113.839907803151,
            45.0021780849008
          ]
        ]
      },
      "properties": {
        "STATE": "ID",
        "DESCRIPTION": "Normal fault, certain, (U/D designated in source)",
        "RuleID": 43,
        "type": "faults"
      }
    },
    {
      "type": "Feature",
      "geometry": {
        "type": "LineString",
        "coordinates": [
          [
            -113.930265145143,
            45.1841809298104
          ],
          [
            -113.929769196055,
            45.1880009823782
          ],
          [
            -113.930227597361,
            45.1891931370963
          ],
          [
            -113.930839443494,
            45.1904936841467
          ],
          [
            -113.931144337092,
            45.1923358287203
          ],
          [
            -113.930528248215,
            45.1948277842015
          ],
          [
            -113.930526273718,
            45.196778043161
          ]
        ]
      },
      "properties": {
        "STATE": "ID",
        "DESCRIPTION": "Normal fault, certain, (U/D designated in source)",
        "RuleID": 43,
        "type": "faults"
      }
    },
    {
      "type": "Feature",
      "geometry": {
        "type": "LineString",
        "coordinates": [
          [
            -114.144776368019,
            44.9281919816586
          ],
          [
            -114.143432582677,
            44.9184258757692
          ],
          [
            -114.13998520974,
            44.9045801679801
          ],
          [
            -114.138350682859,
            44.8921598199272
          ],
          [
            -114.138307823339,
            44.8919452288769
          ]
        ]
      },
      "properties": {
        "STATE": "ID",
        "DESCRIPTION": "Normal fault, certain, (U/D designated in source)",
        "RuleID": 43,
        "type": "faults"
      }
    },
    {
      "type": "Feature",
      "geometry": {
        "type": "LineString",
        "coordinates": [
          [
            -114.093585515821,
            44.8352348374327
          ],
          [
            -114.088235326059,
            44.8258416338365
          ],
          [
            -114.084432604747,
            44.8150637800613
          ],
          [
            -114.082320256781,
            44.8087764130826
          ],
          [
            -114.079786734592,
            44.802189690707
          ],
          [
            -114.07767697018,
            44.7971000844688
          ],
          [
            -114.076829034214,
            44.7917099873299
          ],
          [
            -114.076400780368,
            44.785421341003
          ],
          [
            -114.074691611573,
            44.7796829507098
          ],
          [
            -114.067879751452,
            44.7709839499946
          ],
          [
            -114.060565573187,
            44.7629279000588
          ],
          [
            -114.056949171449,
            44.7591456910204
          ],
          [
            -114.053226720897,
            44.7550230149402
          ],
          [
            -114.050621006498,
            44.7519589045391
          ]
        ]
      },
      "properties": {
        "STATE": "ID",
        "DESCRIPTION": "Normal fault, certain, (U/D designated in source)",
        "RuleID": 43,
        "type": "faults"
      }
    },
    {
      "type": "Feature",
      "geometry": {
        "type": "LineString",
        "coordinates": [
          [
            -114.138307823339,
            44.8919452288769
          ],
          [
            -114.137131811851,
            44.8860212846338
          ],
          [
            -114.135714886577,
            44.8810253896619
          ],
          [
            -114.134704387884,
            44.8781706588241
          ],
          [
            -114.133493994276,
            44.8757445983755
          ],
          [
            -114.132483301547,
            44.8728898449006
          ]
        ]
      },
      "properties": {
        "STATE": "ID",
        "DESCRIPTION": "Normal fault, concealed, (U/D designated in source)",
        "RuleID": 44,
        "type": "faults"
      }
    },
    {
      "type": "Feature",
      "geometry": {
        "type": "LineString",
        "coordinates": [
          [
            -113.712704486831,
            44.8656702978527
          ],
          [
            -113.707261774187,
            44.8684035390703
          ],
          [
            -113.704331493985,
            44.8698188915172
          ],
          [
            -113.693012355791,
            44.8758767256784
          ],
          [
            -113.682610559198,
            44.8802525863715
          ],
          [
            -113.679692129571,
            44.8816676187811
          ]
        ]
      },
      "properties": {
        "STATE": "ID",
        "DESCRIPTION": "Normal fault, concealed, (U/D designated in source)",
        "RuleID": 44,
        "type": "faults"
      }
    },
    {
      "type": "Feature",
      "geometry": {
        "type": "LineString",
        "coordinates": [
          [
            -114.132483301547,
            44.8728898449006
          ],
          [
            -114.12859618082,
            44.8712373311979
          ]
        ]
      },
      "properties": {
        "STATE": "ID",
        "DESCRIPTION": "Normal fault, concealed, (U/D designated in source)",
        "RuleID": 44,
        "type": "faults"
      }
    },
    {
      "type": "Feature",
      "geometry": {
        "type": "LineString",
        "coordinates": [
          [
            -113.927932159265,
            44.7855859171944
          ],
          [
            -113.927516365951,
            44.7819788318062
          ],
          [
            -113.925102942227,
            44.7736974147394
          ],
          [
            -113.923170559151,
            44.7688663947963
          ],
          [
            -113.922018366493,
            44.7663981364184
          ]
        ]
      },
      "properties": {
        "STATE": "ID",
        "DESCRIPTION": "Normal fault, concealed, (U/D designated in source)",
        "RuleID": 44,
        "type": "faults"
      }
    },
    {
      "type": "Feature",
      "geometry": {
        "type": "LineString",
        "coordinates": [
          [
            -114.132483301547,
            44.8728898449006
          ],
          [
            -114.132271479701,
            44.8674640473634
          ],
          [
            -114.132055850795,
            44.8601818312312
          ],
          [
            -114.132049637149,
            44.8571177266515
          ]
        ]
      },
      "properties": {
        "STATE": "ID",
        "DESCRIPTION": "Normal fault, concealed, (U/D designated in source)",
        "RuleID": 44,
        "type": "faults"
      }
    },
    {
      "type": "Feature",
      "geometry": {
        "type": "LineString",
        "coordinates": [
          [
            -113.940744281292,
            44.8320749679206
          ],
          [
            -113.941706259282,
            44.8296178599081
          ],
          [
            -113.942623268507,
            44.8273790234205
          ],
          [
            -113.942917165827,
            44.8247924394215
          ]
        ]
      },
      "properties": {
        "STATE": "ID",
        "DESCRIPTION": "Normal fault, concealed, (U/D designated in source)",
        "RuleID": 44,
        "type": "faults"
      }
    },
    {
      "type": "Feature",
      "geometry": {
        "type": "LineString",
        "coordinates": [
          [
            -113.936339623163,
            44.8099217770174
          ],
          [
            -113.931854368187,
            44.8040604131773
          ],
          [
            -113.929433024916,
            44.8019892681749
          ],
          [
            -113.927981096787,
            44.7999184057719
          ],
          [
            -113.927014070265,
            44.7978481160429
          ],
          [
            -113.927014795205,
            44.7969597062735
          ]
        ]
      },
      "properties": {
        "STATE": "ID",
        "DESCRIPTION": "Normal fault, concealed, (U/D designated in source)",
        "RuleID": 44,
        "type": "faults"
      }
    },
    {
      "type": "Feature",
      "geometry": {
        "type": "LineString",
        "coordinates": [
          [
            -113.740669901313,
            44.8478904253437
          ],
          [
            -113.739934033772,
            44.8484021569638
          ],
          [
            -113.734098477973,
            44.8521434718793
          ],
          [
            -113.731725500895,
            44.853695861378
          ],
          [
            -113.728807994736,
            44.8553729384861
          ],
          [
            -113.723396974656,
            44.8588713703283
          ]
        ]
      },
      "properties": {
        "STATE": "ID",
        "DESCRIPTION": "Normal fault, concealed, (U/D designated in source)",
        "RuleID": 44,
        "type": "faults"
      }
    },
    {
      "type": "Feature",
      "geometry": {
        "type": "LineString",
        "coordinates": [
          [
            -113.726365371274,
            44.7743886365112
          ],
          [
            -113.720498415763,
            44.7713521874455
          ],
          [
            -113.714639302544,
            44.7666874452342
          ],
          [
            -113.711787161399,
            44.764184109671
          ],
          [
            -113.708765913299,
            44.761907861746
          ],
          [
            -113.704812245376,
            44.7591700078733
          ],
          [
            -113.702357632998,
            44.7573721750429
          ],
          [
            -113.69947151128,
            44.7559782578621
          ],
          [
            -113.697104366065,
            44.754423604635
          ],
          [
            -113.680882171846,
            44.7429554615885
          ],
          [
            -113.659596385474,
            44.7254676794826
          ]
        ]
      },
      "properties": {
        "STATE": "ID",
        "DESCRIPTION": "Normal fault, concealed, (U/D designated in source)",
        "RuleID": 44,
        "type": "faults"
      }
    },
    {
      "type": "Feature",
      "geometry": {
        "type": "LineString",
        "coordinates": [
          [
            -114.015892557127,
            44.9773996145737
          ],
          [
            -114.007043616183,
            44.9594069280502
          ],
          [
            -114.001737178866,
            44.9497825713447
          ],
          [
            -113.99820013969,
            44.9435056268772
          ]
        ]
      },
      "properties": {
        "STATE": "ID",
        "DESCRIPTION": "Thrust fault, certain, (teeth on right from origin)",
        "RuleID": 63,
        "type": "faults"
      }
    },
    {
      "type": "Feature",
      "geometry": {
        "type": "LineString",
        "coordinates": [
          [
            -114.109923625051,
            45.1128203538237
          ],
          [
            -114.109060962104,
            45.1118951238734
          ],
          [
            -114.108028156445,
            45.1106842434042
          ]
        ]
      },
      "properties": {
        "STATE": "ID",
        "DESCRIPTION": "Thrust fault, certain, (teeth on right from origin)",
        "RuleID": 63,
        "type": "faults"
      }
    },
    {
      "type": "Feature",
      "geometry": {
        "type": "LineString",
        "coordinates": [
          [
            -114.128112258376,
            45.1369941508328
          ],
          [
            -114.122839684851,
            45.1304866287991
          ],
          [
            -114.118882768619,
            45.1237912709192
          ],
          [
            -114.114928976729,
            45.1185847098329
          ],
          [
            -114.113347972371,
            45.1165389530272
          ],
          [
            -114.111767774701,
            45.1150518450605
          ],
          [
            -114.109923625051,
            45.1128203538237
          ]
        ]
      },
      "properties": {
        "STATE": "ID",
        "DESCRIPTION": "Thrust fault, certain, (teeth on right from origin)",
        "RuleID": 63,
        "type": "faults"
      }
    },
    {
      "type": "Feature",
      "geometry": {
        "type": "LineString",
        "coordinates": [
          [
            -113.92260848238,
            44.8933212833134
          ],
          [
            -113.911609178563,
            44.8854685165909
          ],
          [
            -113.895928964006,
            44.8798821432269
          ],
          [
            -113.877833776131,
            44.876864540136
          ],
          [
            -113.863961805563,
            44.8747063504187
          ],
          [
            -113.85551821861,
            44.873410642466
          ]
        ]
      },
      "properties": {
        "STATE": "ID",
        "DESCRIPTION": "Thrust fault, certain, (teeth on right from origin)",
        "RuleID": 63,
        "type": "faults"
      }
    },
    {
      "type": "Feature",
      "geometry": {
        "type": "LineString",
        "coordinates": [
          [
            -114.076390020348,
            45.06173518109
          ],
          [
            -114.073399974331,
            45.0601688494573
          ],
          [
            -114.070188825076,
            45.0584456089433
          ],
          [
            -114.068085325515,
            45.057505906738
          ],
          [
            -114.065649967627,
            45.0568015317884
          ],
          [
            -114.063436133389,
            45.0560969819016
          ],
          [
            -114.061443582054,
            45.0555492392983
          ],
          [
            -114.059119118493,
            45.0548446638286
          ],
          [
            -114.057347948875,
            45.0541397661834
          ],
          [
            -114.055798199601,
            45.0533565283486
          ],
          [
            -114.054691064641,
            45.0526512620497
          ],
          [
            -114.053251570992,
            45.0517112469449
          ],
          [
            -114.052033636028,
            45.0508490361032
          ]
        ]
      },
      "properties": {
        "STATE": "ID",
        "DESCRIPTION": "Thrust fault, certain, (teeth on right from origin)",
        "RuleID": 63,
        "type": "faults"
      }
    },
    {
      "type": "Feature",
      "geometry": {
        "type": "LineString",
        "coordinates": [
          [
            -114.134126622035,
            45.1430206491676
          ],
          [
            -114.131585026687,
            45.1402294163182
          ],
          [
            -114.129801964273,
            45.138468525528
          ],
          [
            -114.128112258376,
            45.1369941508328
          ]
        ]
      },
      "properties": {
        "STATE": "ID",
        "DESCRIPTION": "Thrust fault, certain, (teeth on right from origin)",
        "RuleID": 63,
        "type": "faults"
      }
    },
    {
      "type": "Feature",
      "geometry": {
        "type": "LineString",
        "coordinates": [
          [
            -114.045325119895,
            45.045584117338
          ],
          [
            -114.039035212395,
            45.0391084645506
          ],
          [
            -114.034525806213,
            45.0322667966099
          ],
          [
            -114.030660633124,
            45.024968766933
          ],
          [
            -114.027117421624,
            45.015389380225
          ],
          [
            -114.023575463273,
            45.0069502990283
          ],
          [
            -114.021642985875,
            45.0003353827721
          ],
          [
            -114.020676415697,
            44.9950888355726
          ],
          [
            -114.019710961227,
            44.9925799924977
          ]
        ]
      },
      "properties": {
        "STATE": "ID",
        "DESCRIPTION": "Thrust fault, concealed, (teeth on right from origin)",
        "RuleID": 64,
        "type": "faults"
      }
    },
    {
      "type": "Feature",
      "geometry": {
        "type": "LineString",
        "coordinates": [
          [
            -113.828164183137,
            44.8670231525313
          ],
          [
            -113.821740700647,
            44.8643315087137
          ],
          [
            -113.819592598834,
            44.8632504093415
          ]
        ]
      },
      "properties": {
        "STATE": "ID",
        "DESCRIPTION": "Thrust fault, concealed, (teeth on right from origin)",
        "RuleID": 64,
        "type": "faults"
      }
    },
    {
      "type": "Feature",
      "geometry": {
        "type": "LineString",
        "coordinates": [
          [
            -113.819592598834,
            44.8632504093415
          ],
          [
            -113.802237242766,
            44.8557031788661
          ],
          [
            -113.7659337278,
            44.8420418129748
          ]
        ]
      },
      "properties": {
        "STATE": "ID",
        "DESCRIPTION": "Thrust fault, concealed, (teeth on right from origin)",
        "RuleID": 64,
        "type": "faults"
      }
    },
    {
      "type": "Feature",
      "geometry": {
        "type": "LineString",
        "coordinates": [
          [
            -114.149763940241,
            45.1593246786206
          ],
          [
            -114.144285542023,
            45.1538677022348
          ],
          [
            -114.140910551737,
            45.1504476125702
          ],
          [
            -114.138590350682,
            45.1479195667294
          ],
          [
            -114.136691980518,
            45.1458376767769
          ],
          [
            -114.134126622035,
            45.1430206491676
          ]
        ]
      },
      "properties": {
        "STATE": "ID",
        "DESCRIPTION": "Thrust fault, concealed, (teeth on right from origin)",
        "RuleID": 64,
        "type": "faults"
      }
    },
    {
      "type": "Feature",
      "geometry": {
        "type": "LineString",
        "coordinates": [
          [
            -113.85551821861,
            44.873410642466
          ],
          [
            -113.83877866845,
            44.8696467216923
          ],
          [
            -113.828164183137,
            44.8670231525313
          ]
        ]
      },
      "properties": {
        "STATE": "ID",
        "DESCRIPTION": "Thrust fault, concealed, (teeth on right from origin)",
        "RuleID": 64,
        "type": "faults"
      }
    },
    {
      "type": "Feature",
      "geometry": {
        "type": "LineString",
        "coordinates": [
          [
            -114.156284866584,
            45.1668419123975
          ],
          [
            -114.153915198001,
            45.1647544901155
          ],
          [
            -114.151542747336,
            45.161552219947
          ],
          [
            -114.149763940241,
            45.1593246786206
          ]
        ]
      },
      "properties": {
        "STATE": "ID",
        "DESCRIPTION": "Thrust fault, concealed, (teeth on right from origin)",
        "RuleID": 64,
        "type": "faults"
      }
    },
    {
      "type": "Feature",
      "geometry": {
        "type": "LineString",
        "coordinates": [
          [
            -114.108028156445,
            45.1106842434042
          ],
          [
            -114.104149090013,
            45.1029333823535
          ],
          [
            -114.09800863882,
            45.0901666827208
          ],
          [
            -114.094455844092,
            45.0833271783489
          ],
          [
            -114.090904949301,
            45.0774001152963
          ],
          [
            -114.087355432526,
            45.0721567912352
          ],
          [
            -114.084453396254,
            45.0691937142478
          ],
          [
            -114.080585546187,
            45.0660031081266
          ],
          [
            -114.076390020348,
            45.06173518109
          ]
        ]
      },
      "properties": {
        "STATE": "ID",
        "DESCRIPTION": "Thrust fault, concealed, (teeth on right from origin)",
        "RuleID": 64,
        "type": "faults"
      }
    },
    {
      "type": "Feature",
      "geometry": {
        "type": "LineString",
        "coordinates": [
          [
            -113.7659337278,
            44.8420418129748
          ],
          [
            -113.74560071528,
            44.8344311383878
          ],
          [
            -113.735033969137,
            44.8306242165434
          ]
        ]
      },
      "properties": {
        "STATE": "ID",
        "DESCRIPTION": "Thrust fault, concealed, (teeth on right from origin)",
        "RuleID": 64,
        "type": "faults"
      }
    },
    {
      "type": "Feature",
      "geometry": {
        "type": "LineString",
        "coordinates": [
          [
            -114.052033636028,
            45.0508490361032
          ],
          [
            -114.047731224145,
            45.0477728409528
          ],
          [
            -114.04685004692,
            45.0470147979062
          ],
          [
            -114.045325119895,
            45.045584117338
          ]
        ]
      },
      "properties": {
        "STATE": "ID",
        "DESCRIPTION": "Thrust fault, concealed, (teeth on right from origin)",
        "RuleID": 64,
        "type": "faults"
      }
    },
    {
      "type": "Feature",
      "geometry": {
        "type": "LineString",
        "coordinates": [
          [
            -113.75533480041,
            45.2673682594729
          ],
          [
            -113.752674441493,
            45.2670356618091
          ],
          [
            -113.74790202746,
            45.2659008822001
          ],
          [
            -113.7429340448,
            45.2639226939324
          ],
          [
            -113.741351746868,
            45.2616707089676
          ],
          [
            -113.737977150045,
            45.2596956196223
          ],
          [
            -113.733408338273,
            45.2577176501805
          ],
          [
            -113.730429461909,
            45.2563052927479
          ],
          [
            -113.724870685134,
            45.2533412203928
          ],
          [
            -113.723490557549,
            45.2506678040736
          ],
          [
            -113.72171411482,
            45.2477123879469
          ],
          [
            -113.720736883437,
            45.244056497246
          ],
          [
            -113.719955408428,
            45.2411034791294
          ],
          [
            -113.717975505372,
            45.2391312027822
          ],
          [
            -113.714997981871,
            45.2377187228148
          ],
          [
            -113.707847971623,
            45.2351712169406
          ],
          [
            -113.705867969752,
            45.2333390957875
          ],
          [
            -113.705484374753,
            45.230527648711
          ],
          [
            -113.705501789493,
            45.227155192537
          ],
          [
            -113.705320906524,
            45.2236415757793
          ],
          [
            -113.703342847709,
            45.2215283958173
          ],
          [
            -113.699772193575,
            45.2196923040507
          ],
          [
            -113.68965665503,
            45.214465716448
          ],
          [
            -113.687087540691,
            45.2113672174211
          ],
          [
            -113.684520279576,
            45.2081280139092
          ],
          [
            -113.683348320388,
            45.2043305903168
          ],
          [
            -113.683369367916,
            45.2005364642271
          ],
          [
            -113.683382617168,
            45.1981476935531
          ],
          [
            -113.682393441784,
            45.1973016067694
          ],
          [
            -113.67621945199,
            45.1991113198468
          ],
          [
            -113.669856694715,
            45.199093104821
          ],
          [
            -113.665483325806,
            45.1989397289579
          ],
          [
            -113.661119157442,
            45.1972404645764
          ],
          [
            -113.655378903013,
            45.1928670584444
          ],
          [
            -113.650427315505,
            45.1899008789086
          ],
          [
            -113.648253159854,
            45.1877864116052
          ],
          [
            -113.644083118321,
            45.1870708022176
          ],
          [
            -113.640132436398,
            45.1831235756765
          ],
          [
            -113.639952157097,
            45.1801721523961
          ],
          [
            -113.637584356111,
            45.1773538951548
          ],
          [
            -113.63327010084,
            45.1740882721737
          ],
          [
            -113.627389764923,
            45.1691925832155
          ],
          [
            -113.621656607185,
            45.1670836574516
          ],
          [
            -113.616072894076,
            45.1672973790311
          ],
          [
            -113.606718669649,
            45.1665687651939
          ],
          [
            -113.603929637847,
            45.1662108745124
          ],
          [
            -113.600987355254,
            45.164342629131
          ],
          [
            -113.600015850631,
            45.1623653305278
          ],
          [
            -113.597231976955,
            45.161310506526
          ],
          [
            -113.59412308742,
            45.1597900286037
          ],
          [
            -113.591656209445,
            45.1604780228474
          ],
          [
            -113.590512821175,
            45.160476982133
          ]
        ]
      },
      "properties": {
        "STATE": "ID",
        "DESCRIPTION": "Thrust fault, reactivated with normal motion, certain",
        "RuleID": 22,
        "type": "faults"
      }
    }
  ]
}