{
  "type": "FeatureCollection",
  "features": [
    {
      "type": "Feature",
      "geometry": {
        "type": "LineString",
        "coordinates": [
          [
            -109.03266929813697,
            38.44987823775782
          ],
          [
            -109.0328598586565,
            38.44978268098305
          ],
          [
            -109.03372932185033,
            38.44955434517689
          ],
          [
            -109.03453823230579,
            38.44938212022814
          ],
          [
            -109.03548436491248,
            38.44921822670625
          ],
          [
            -109.0365755062673,
            38.44927544430911
          ],
          [
            -109.03992504728066,
            38.4500804172325
          ],
          [
            -109.0432740394234,
            38.451640382689185
          ],
          [
            -109.0448763113951,
            38.45226981179271
          ],
          [
            -109.04727971980178,
            38.45348312133101
          ],
          [
            -109.05143040443664,
            38.4553219719931
          ],
          [
            -109.05431438367256,
            38.456721943243046
          ]
        ]
      },
      "properties": {
        "fault_name": "Paradox Valley graben",
        "age": "class B",
        "slip_rate": "Less than 0.2 mm/yr"
      }
    },
    {
      "type": "Feature",
      "geometry": {
        "type": "LineString",
        "coordinates": [
          [
            -109.03266929813697,
            38.44987823775782
          ],
          [
            -109.03278374530079,
            38.44995101382292
          ],
          [
            -109.03445435840435,
            38.45115988172753
          ],
          [
            -109.03671276255452,
            38.45259819030828
          ],
          [
            -109.04035232286071,
            38.454383152120556
          ],
          [
            -109.04173292026466,
            38.45507369424549
          ],
          [
            -109.04500634971899,
            38.45588255803544
          ],
          [
            -109.04705084972862,
            38.456058099747175
          ],
          [
            -109.05287990531788,
            38.45698861331201
          ],
          [
            -109.05412382584797,
            38.45682083010564
          ],
          [
            -109.05431438367256,
            38.456721943243046
          ]
        ]
      },
      "properties": {
        "fault_name": "Paradox Valley graben",
        "age": "class B",
        "slip_rate": "Less than 0.2 mm/yr"
      }
    },
    {
      "type": "Feature",
      "geometry": {
        "type": "LineString",
        "coordinates": [
          [
            -108.89362569319681,
            38.30765648530372
          ],
          [
            -108.89493018263495,
            38.30852258782882
          ],
          [
            -108.89616633722945,
            38.30927035926682
          ],
          [
            -108.8971124806159,
            38.309788687256
          ],
          [
            -108.89892087641944,
            38.31065478969412
          ],
          [
            -108.90044648257151,
            38.3115781118411
          ],
          [
            -108.90240765934696,
            38.312096994977196
          ],
          [
            -108.90632890437683,
            38.31359975721243
          ],
          [
            -108.90763395077045,
            38.31463752396789
          ],
          [
            -108.9102429323417,
            38.31613639722007
          ],
          [
            -108.91263856942285,
            38.31723138568335
          ],
          [
            -108.91453085529749,
            38.317929710735186
          ],
          [
            -108.9192537919212,
            38.31949358402368
          ],
          [
            -108.92077217741503,
            38.320180244313995
          ],
          [
            -108.92637236472774,
            38.3219807809987
          ],
          [
            -108.92709683085158,
            38.32209522313746
          ],
          [
            -108.92898911762452,
            38.32255688367047
          ],
          [
            -108.9306602840903,
            38.32325076823958
          ],
          [
            -108.93276591355671,
            38.32423131074043
          ],
          [
            -108.93719106495193,
            38.325962960818615
          ],
          [
            -108.94017449757126,
            38.32683295177535
          ],
          [
            -108.94314959921465,
            38.327820719090944
          ],
          [
            -108.949260913551,
            38.32955625574891
          ],
          [
            -108.95114597876737,
            38.330307915749394
          ],
          [
            -108.95448776192995,
            38.331689011660124
          ],
          [
            -108.95666950385376,
            38.33284455672571
          ],
          [
            -108.95826400629655,
            38.33376399130527
          ],
          [
            -108.96080465482076,
            38.33566397327544
          ],
          [
            -108.96465034794197,
            38.33790672696789
          ],
          [
            -108.96595483917675,
            38.33871560903409
          ],
          [
            -108.96762601013408,
            38.33980671022148
          ],
          [
            -108.96915162077774,
            38.34067225465481
          ],
          [
            -108.9728523078458,
            38.34268667998343
          ],
          [
            -108.97401179392571,
            38.34332334019855
          ],
          [
            -108.976628554009,
            38.34476166031492
          ],
          [
            -108.97865807191633,
            38.34585275921004
          ],
          [
            -108.98026035017624,
            38.34677608323647
          ],
          [
            -108.98410604509407,
            38.3488471731084
          ],
          [
            -108.98679891763477,
            38.35023604824284
          ],
          [
            -108.99172799156503,
            38.3540849002299
          ],
          [
            -108.99296415244771,
            38.35529044421583
          ],
          [
            -108.9948486660985,
            38.35649932120361
          ],
          [
            -108.99854880878749,
            38.359600957123845
          ],
          [
            -109.00044110005203,
            38.36086705611292
          ],
          [
            -109.00254671784035,
            38.362477025780684
          ],
          [
            -109.00457621957798,
            38.364025887948195
          ],
          [
            -109.00987858572964,
            38.36702026665067
          ],
          [
            -109.01096972798274,
            38.367764141177986
          ],
          [
            -109.01380036076552,
            38.36932021918026
          ],
          [
            -109.01808826036512,
            38.37208238519498
          ],
          [
            -109.02113279639008,
            38.37477900625191
          ],
          [
            -109.02498568501672,
            38.37731617925416
          ],
          [
            -109.03079919166667,
            38.3813938786726
          ],
          [
            -109.03261535520247,
            38.38242774721165
          ],
          [
            -109.03544543641965,
            38.38409826811154
          ],
          [
            -109.03712437241431,
            38.38478491811419
          ],
          [
            -109.03886386384228,
            38.385589898748236
          ],
          [
            -109.04155726998223,
            38.38674542734486
          ],
          [
            -109.04344898991825,
            38.38737874209896
          ],
          [
            -109.04548626926962,
            38.388302053333
          ],
          [
            -109.04715687069508,
            38.38893925805022
          ],
          [
            -109.04962916281607,
            38.3901403433256
          ],
          [
            -109.05261202859845,
            38.391754196740365
          ],
          [
            -109.05500820826205,
            38.39291028374494
          ],
          [
            -109.0570221583655,
            38.394141924789515
          ],
          [
            -109.05886110138026,
            38.39526357022622
          ],
          [
            -109.06104283342259,
            38.39653020973671
          ],
          [
            -109.06439238072417,
            38.398601282683494
          ]
        ]
      },
      "properties": {
        "fault_name": "Paradox Valley graben",
        "age": "class B",
        "slip_rate": "Less than 0.2 mm/yr"
      }
    },
    {
      "type": "Feature",
      "geometry": {
        "type": "LineString",
        "coordinates": [
          [
            -109.05873457367248,
            38.45886435466442
          ],
          [
            -109.05971313456261,
            38.45922981103911
          ],
          [
            -109.0608803928664,
            38.459748133297424
          ],
          [
            -109.06241377393725,
            38.460328120329976
          ],
          [
            -109.06328379857811,
            38.46061422292649
          ],
          [
            -109.06430605621863,
            38.46124754517663
          ],
          [
            -109.06532053444877,
            38.46187697909382
          ],
          [
            -109.06597666842386,
            38.46234252481699
          ],
          [
            -109.06728893278078,
            38.46308973527535
          ],
          [
            -109.06801395675839,
            38.463601391963124
          ],
          [
            -109.0688150985833,
            38.46435249171377
          ],
          [
            -109.06968457525184,
            38.46520692470072
          ],
          [
            -109.07128685441005,
            38.46658801527315
          ],
          [
            -109.07244689744545,
            38.46745411068999
          ],
          [
            -109.07346915418763,
            38.468251321302546
          ],
          [
            -109.07499531819352,
            38.46917408302387
          ],
          [
            -109.07761984331411,
            38.470150727673705
          ]
        ]
      },
      "properties": {
        "fault_name": "Paradox Valley graben",
        "age": "class B",
        "slip_rate": "Less than 0.2 mm/yr"
      }
    },
    {
      "type": "Feature",
      "geometry": {
        "type": "LineString",
        "coordinates": [
          [
            -109.05908934263269,
            38.3953964243269
          ],
          [
            -109.06103197458744,
            38.3965242521703
          ],
          [
            -109.06438152188902,
            38.398595323879704
          ]
        ]
      },
      "properties": {
        "fault_name": "Paradox Valley graben",
        "age": "class B",
        "slip_rate": "Less than 0.2 mm/yr"
      }
    },
    {
      "type": "Feature",
      "geometry": {
        "type": "LineString",
        "coordinates": [
          [
            -109.09593845118295,
            38.49827261318066
          ],
          [
            -109.09487062110978,
            38.49636874581512
          ],
          [
            -109.09313832428892,
            38.494282105095294
          ],
          [
            -109.0905904631913,
            38.493286571802685
          ],
          [
            -109.0889881912196,
            38.49281769420707
          ],
          [
            -109.08862928461919,
            38.492176591657916
          ],
          [
            -109.08690531697766,
            38.489578843847745
          ],
          [
            -109.08451689336823,
            38.48743109670548
          ],
          [
            -109.08347185624876,
            38.486748329823506
          ],
          [
            -109.08266293501352,
            38.48595500832607
          ],
          [
            -109.08186179229031,
            38.48503168718427
          ],
          [
            -109.08061840356284,
            38.48337615177154
          ],
          [
            -109.07968725395676,
            38.482102278210746
          ],
          [
            -109.07867276494684,
            38.480690629735086
          ],
          [
            -109.07803940236586,
            38.47961897487496
          ],
          [
            -109.07609376734314,
            38.47718511670789
          ],
          [
            -109.07494149832822,
            38.47579680332291
          ],
          [
            -109.07403368515658,
            38.474797371689206
          ],
          [
            -109.07291975444133,
            38.473885163671014
          ],
          [
            -109.07168415680233,
            38.47301573523199
          ],
          [
            -109.07031077197179,
            38.47171130776967
          ],
          [
            -109.0686851608707,
            38.47065077106237
          ],
          [
            -109.06723566358278,
            38.4694530117632
          ],
          [
            -109.06593117683957,
            38.46865191514784
          ],
          [
            -109.06495447636038,
            38.46798803725841
          ],
          [
            -109.06291718892415,
            38.46696194587861
          ],
          [
            -109.06081156394933,
            38.46579085590599
          ]
        ]
      },
      "properties": {
        "fault_name": "Paradox Valley graben",
        "age": "class B",
        "slip_rate": "Less than 0.2 mm/yr"
      }
    },
    {
      "type": "Feature",
      "geometry": {
        "type": "LineString",
        "coordinates": [
          [
            -109.39789936171589,
            38.41725785271003
          ],
          [
            -109.39948604162917,
            38.41726561320216
          ],
          [
            -109.40053105090088,
            38.417211712745335
          ],
          [
            -109.40439942917796,
            38.41826832427204
          ],
          [
            -109.40848114026703,
            38.419092714323256
          ],
          [
            -109.41227284913123,
            38.420206546724906
          ],
          [
            -109.41231118383766,
            38.42023321326274
          ]
        ]
      },
      "properties": {
        "fault_name": "Moab fault  and deformation zones",
        "age": "class B",
        "slip_rate": "Less than 0.2 mm/yr"
      }
    },
    {
      "type": "Feature",
      "geometry": {
        "type": "LineString",
        "coordinates": [
          [
            -109.36698453561061,
            38.4086905113194
          ],
          [
            -109.36997513229434,
            38.40974713483689
          ],
          [
            -109.37405685236656,
            38.41103263206058
          ],
          [
            -109.37733744408862,
            38.41145203481599
          ],
          [
            -109.38134305619502,
            38.413199194669744
          ],
          [
            -109.38484531889152,
            38.41396970168037
          ],
          [
            -109.38958315587087,
            38.41536963530751
          ],
          [
            -109.39221540290964,
            38.41556015710093
          ],
          [
            -109.39476321639656,
            38.41678122767186
          ],
          [
            -109.39789936171589,
            38.41725785271003
          ]
        ]
      },
      "properties": {
        "fault_name": "Moab fault  and deformation zones",
        "age": "class B",
        "slip_rate": "Less than 0.2 mm/yr"
      }
    },
    {
      "type": "Feature",
      "geometry": {
        "type": "LineString",
        "coordinates": [
          [
            -109.35550942922183,
            38.40914841773474
          ],
          [
            -109.35907281688353,
            38.4107200310135
          ],
          [
            -109.36163619278443,
            38.41229554271235
          ],
          [
            -109.36191064068015,
            38.412459427850315
          ],
          [
            -109.36540513294946,
            38.41363048801429
          ],
          [
            -109.36838850987323,
            38.41503044017948
          ],
          [
            -109.37101298558649,
            38.41578929091027
          ],
          [
            -109.37422468910268,
            38.416380915954214
          ],
          [
            -109.37977918540511,
            38.41629640673303
          ],
          [
            -109.38284588466476,
            38.41677359100361
          ],
          [
            -109.38978151197043,
            38.41755905575875
          ],
          [
            -109.395412117137,
            38.41747121526353
          ],
          [
            -109.39789936171589,
            38.41725785271003
          ]
        ]
      },
      "properties": {
        "fault_name": "Moab fault  and deformation zones",
        "age": "class B",
        "slip_rate": "Less than 0.2 mm/yr"
      }
    },
    {
      "type": "Feature",
      "geometry": {
        "type": "LineString",
        "coordinates": [
          [
            -109.34001424964718,
            38.406802505056085
          ],
          [
            -109.34329487730184,
            38.40988077533301
          ],
          [
            -109.34576714696493,
            38.41179184223305
          ],
          [
            -109.34808607959893,
            38.41353124635166
          ],
          [
            -109.34953610419795,
            38.4144395529872
          ],
          [
            -109.34975722001357,
            38.414580661225344
          ],
          [
            -109.35370171074803,
            38.415343385767734
          ],
          [
            -109.35749342140886,
            38.416228335028215
          ],
          [
            -109.36026289958203,
            38.4168194088894
          ],
          [
            -109.36325348458764,
            38.417124926879445
          ],
          [
            -109.36581739588446,
            38.41696823077326
          ],
          [
            -109.36764074863746,
            38.41720487497671
          ],
          [
            -109.36922021418071,
            38.417689295673426
          ],
          [
            -109.37012022458579,
            38.4179676182682
          ],
          [
            -109.37340859032832,
            38.41815813321053
          ],
          [
            -109.37501082996063,
            38.41851311027029
          ],
          [
            -109.37749030231569,
            38.41898585499019
          ],
          [
            -109.38106867657127,
            38.41974913971192
          ],
          [
            -109.38354815072293,
            38.420397439336476
          ],
          [
            -109.38945321815827,
            38.42186624387409
          ]
        ]
      },
      "properties": {
        "fault_name": "Moab fault  and deformation zones",
        "age": "class B",
        "slip_rate": "Less than 0.2 mm/yr"
      }
    },
    {
      "type": "Feature",
      "geometry": {
        "type": "LineString",
        "coordinates": [
          [
            -109.34001424964718,
            38.406802505056085
          ],
          [
            -109.34276872505679,
            38.40706191473194
          ]
        ]
      },
      "properties": {
        "fault_name": "Moab fault  and deformation zones",
        "age": "class B",
        "slip_rate": "Less than 0.2 mm/yr"
      }
    },
    {
      "type": "Feature",
      "geometry": {
        "type": "LineString",
        "coordinates": [
          [
            -109.28747752172717,
            38.400692041307664
          ],
          [
            -109.28989586821871,
            38.40007368424351
          ],
          [
            -109.2969076151683,
            38.40052026722619
          ],
          [
            -109.30150822909809,
            38.40118021023634
          ],
          [
            -109.30697830173011,
            38.40230902775885
          ],
          [
            -109.31033556466167,
            38.402843430677564
          ],
          [
            -109.31324227666416,
            38.40383894531431
          ],
          [
            -109.31407395312387,
            38.40409837970641
          ],
          [
            -109.31514230332161,
            38.40442614173743
          ],
          [
            -109.32002514725241,
            38.40566218690565
          ],
          [
            -109.32345851365821,
            38.40556659272556
          ],
          [
            -109.32783745302028,
            38.406054872338444
          ],
          [
            -109.3323697204283,
            38.406081487080066
          ],
          [
            -109.34001424964718,
            38.406802505056085
          ]
        ]
      },
      "properties": {
        "fault_name": "Moab fault  and deformation zones",
        "age": "class B",
        "slip_rate": "Less than 0.2 mm/yr"
      }
    },
    {
      "type": "Feature",
      "geometry": {
        "type": "LineString",
        "coordinates": [
          [
            -109.4428599734141,
            38.44848423825545
          ],
          [
            -109.44289052871017,
            38.44852979330531
          ],
          [
            -109.44338610230297,
            38.45089087416622
          ],
          [
            -109.44453834526675,
            38.45296639670266
          ],
          [
            -109.44553781444513,
            38.455728021237924
          ],
          [
            -109.44807840457887,
            38.45873018226774
          ],
          [
            -109.45068788112182,
            38.46115623727114
          ],
          [
            -109.45329680430258,
            38.464562834789575
          ],
          [
            -109.45481515925367,
            38.466756126734424
          ],
          [
            -109.45648629158346,
            38.46865941972898
          ],
          [
            -109.45916410117346,
            38.47177602093298
          ],
          [
            -109.46301691613824,
            38.474961493331676
          ],
          [
            -109.46744973555273,
            38.478657509863055
          ],
          [
            -109.47028753778977,
            38.48045412190142
          ],
          [
            -109.47224089203574,
            38.483044625240915
          ],
          [
            -109.47362201944574,
            38.48512347395676
          ],
          [
            -109.47550648009593,
            38.48662621012807
          ],
          [
            -109.47784094100791,
            38.48813338626135
          ],
          [
            -109.48016818216,
            38.490155002201455
          ],
          [
            -109.48183875034776,
            38.49137163433818
          ],
          [
            -109.48227375413421,
            38.4921727302039
          ],
          [
            -109.48429544232553,
            38.49528544774632
          ],
          [
            -109.48705713030856,
            38.49823426765035
          ],
          [
            -109.48923160216677,
            38.50123642918551
          ],
          [
            -109.49068107430188,
            38.50331138712958
          ],
          [
            -109.49402278919248,
            38.50654241684017
          ],
          [
            -109.49692228323167,
            38.51000622876372
          ],
          [
            -109.49880676364481,
            38.51248172993021
          ],
          [
            -109.50112625143767,
            38.515434448255974
          ],
          [
            -109.50301073724069,
            38.517967192966225
          ],
          [
            -109.50642081033115,
            38.522464913334176
          ],
          [
            -109.5091141859284,
            38.52449043678551
          ],
          [
            -109.51173145176318,
            38.526744849166576
          ],
          [
            -109.51485928317454,
            38.52945703112949
          ],
          [
            -109.51756042919901,
            38.53084922893468
          ],
          [
            -109.52070324271266,
            38.531955318008436
          ],
          [
            -109.52383939072693,
            38.533119184115435
          ],
          [
            -109.52713497443277,
            38.533534725706886
          ],
          [
            -109.53027113143018,
            38.53538858212465
          ],
          [
            -109.5326056049186,
            38.536609113755304
          ]
        ]
      },
      "properties": {
        "fault_name": "Moab fault  and deformation zones",
        "age": "class B",
        "slip_rate": "Less than 0.2 mm/yr"
      }
    },
    {
      "type": "Feature",
      "geometry": {
        "type": "LineString",
        "coordinates": [
          [
            -109.41986462568337,
            38.42545140674812
          ],
          [
            -109.4199790728472,
            38.425649738253504
          ],
          [
            -109.42180242739681,
            38.42622971010724
          ],
          [
            -109.42434301842884,
            38.42797299674621
          ],
          [
            -109.42645637340672,
            38.42867463174701
          ],
          [
            -109.4276158397237,
            38.430174048239714
          ],
          [
            -109.42847807776769,
            38.43155846870391
          ],
          [
            -109.43014144326354,
            38.43409175721625
          ],
          [
            -109.43253703542892,
            38.43640670633122
          ],
          [
            -109.4343526168564,
            38.43791389222525
          ],
          [
            -109.43667209476777,
            38.44022161934048
          ],
          [
            -109.43716043422758,
            38.44067549686185
          ]
        ]
      },
      "properties": {
        "fault_name": "Moab fault  and deformation zones",
        "age": "class B",
        "slip_rate": "Less than 0.2 mm/yr"
      }
    },
    {
      "type": "Feature",
      "geometry": {
        "type": "LineString",
        "coordinates": [
          [
            -109.36713725459882,
            38.45276513281591
          ],
          [
            -109.36666447485806,
            38.45278402713842
          ],
          [
            -109.3660389123487,
            38.45266959323051
          ],
          [
            -109.36381111469859,
            38.45225406828805
          ],
          [
            -109.36300999892484,
            38.45239518706263
          ],
          [
            -109.36073665579153,
            38.452810766767996
          ],
          [
            -109.3574555134022,
            38.452101368988835
          ],
          [
            -109.35577716131247,
            38.45151417175457
          ],
          [
            -109.35366380902956,
            38.45110197970065
          ],
          [
            -109.35029933711786,
            38.450739802716896
          ],
          [
            -109.347522095704,
            38.45084261421015
          ],
          [
            -109.34466874542602,
            38.451052647742095
          ],
          [
            -109.34463819012994,
            38.45104875875892
          ]
        ]
      },
      "properties": {
        "fault_name": "Moab fault  and deformation zones",
        "age": "class B",
        "slip_rate": "Less than 0.2 mm/yr"
      }
    },
    {
      "type": "Feature",
      "geometry": {
        "type": "LineString",
        "coordinates": [
          [
            -109.41469954276839,
            38.48868698329601
          ],
          [
            -109.41346397118053,
            38.48735590023574
          ],
          [
            -109.41033560077999,
            38.48481540923472
          ],
          [
            -109.40808502095597,
            38.4831937866667
          ],
          [
            -109.40765001537288,
            38.48273268475066
          ],
          [
            -109.40656666510655,
            38.48157271127557
          ],
          [
            -109.40525442769908,
            38.480588848102244
          ],
          [
            -109.40322495740247,
            38.47867778067035
          ],
          [
            -109.40200437240846,
            38.4760833762214
          ],
          [
            -109.40150823916525,
            38.47390173584572
          ],
          [
            -109.40034877823815,
            38.47280676080633
          ],
          [
            -109.39744928958886,
            38.469854601168166
          ],
          [
            -109.39548870120991,
            38.467603535072776
          ],
          [
            -109.39529814428364,
            38.46750465033172
          ]
        ]
      },
      "properties": {
        "fault_name": "Moab fault  and deformation zones",
        "age": "class B",
        "slip_rate": "Less than 0.2 mm/yr"
      }
    },
    {
      "type": "Feature",
      "geometry": {
        "type": "LineString",
        "coordinates": [
          [
            -109.3905142039673,
            38.4652575081194
          ],
          [
            -109.38923251736433,
            38.4639492032495
          ],
          [
            -109.38800416284144,
            38.46267534091275
          ],
          [
            -109.38589857469755,
            38.460539277033995
          ],
          [
            -109.38386132409225,
            38.45920375822294
          ],
          [
            -109.38277018812735,
            38.457411008962886
          ],
          [
            -109.38263296238283,
            38.45718990199634
          ],
          [
            -109.38250351784535,
            38.45720157006259
          ],
          [
            -109.38154184618088,
            38.457296581690265
          ],
          [
            -109.37986349319284,
            38.45648049873591
          ],
          [
            -109.3778951415732,
            38.45612552612095
          ],
          [
            -109.37578955612423,
            38.454504454832296
          ],
          [
            -109.37503398673203,
            38.45376835976601
          ],
          [
            -109.3744845330868,
            38.45323059312995
          ],
          [
            -109.37439286540196,
            38.45321892793889
          ]
        ]
      },
      "properties": {
        "fault_name": "Moab fault  and deformation zones",
        "age": "class B",
        "slip_rate": "Less than 0.2 mm/yr"
      }
    },
    {
      "type": "Feature",
      "geometry": {
        "type": "LineString",
        "coordinates": [
          [
            -109.33464364387329,
            38.448660568332265
          ],
          [
            -109.33437641843246,
            38.44857668222026
          ],
          [
            -109.33081359491277,
            38.44711951587377
          ],
          [
            -109.32891412521079,
            38.446185101869546
          ],
          [
            -109.32637297093507,
            38.44444958966862
          ],
          [
            -109.32536627570857,
            38.44294683632501
          ],
          [
            -109.32390903943444,
            38.44270630119495
          ],
          [
            -109.32128456192456,
            38.44182911828984
          ],
          [
            -109.31930843179288,
            38.441531366995214
          ],
          [
            -109.31712617872768,
            38.440539734258486
          ],
          [
            -109.31531059640189,
            38.43972698408718
          ],
          [
            -109.31254111643209,
            38.438617025052395
          ],
          [
            -109.30984773724158,
            38.437041514661985
          ],
          [
            -109.30759713855295,
            38.435424332304144
          ],
          [
            -109.30742935661407,
            38.4352104457812
          ]
        ]
      },
      "properties": {
        "fault_name": "Moab fault  and deformation zones",
        "age": "class B",
        "slip_rate": "Less than 0.2 mm/yr"
      }
    },
    {
      "type": "Feature",
      "geometry": {
        "type": "LineString",
        "coordinates": [
          [
            -109.32140615518645,
            38.43660304527671
          ],
          [
            -109.32133782124112,
            38.436553046903896
          ],
          [
            -109.31949890068425,
            38.43539363166902
          ],
          [
            -109.3192927867339,
            38.43526030294446
          ],
          [
            -109.31893444607209,
            38.43503530932778
          ],
          [
            -109.31777442279963,
            38.4340469973507
          ],
          [
            -109.3158827253215,
            38.43300202684975
          ],
          [
            -109.31421935802902,
            38.43155594665608
          ],
          [
            -109.31203709598067,
            38.43004542966718
          ],
          [
            -109.31038149372552,
            38.4278482440786
          ],
          [
            -109.30799365491936,
            38.4251360699411
          ],
          [
            -109.3077114114436,
            38.42398052720758
          ],
          [
            -109.3076730318214,
            38.42093610372736
          ]
        ]
      },
      "properties": {
        "fault_name": "Moab fault  and deformation zones",
        "age": "class B",
        "slip_rate": "Less than 0.2 mm/yr"
      }
    },
    {
      "type": "Feature",
      "geometry": {
        "type": "LineString",
        "coordinates": [
          [
            -109.30267581438862,
            38.42409502771486
          ],
          [
            -109.30239356642132,
            38.422515599880825
          ],
          [
            -109.30256130703768,
            38.42010061525089
          ],
          [
            -109.30346183307569,
            38.41757951195166
          ],
          [
            -109.30385069130432,
            38.41527896898794
          ]
        ]
      },
      "properties": {
        "fault_name": "Moab fault  and deformation zones",
        "age": "class B",
        "slip_rate": "Less than 0.2 mm/yr"
      }
    },
    {
      "type": "Feature",
      "geometry": {
        "type": "LineString",
        "coordinates": [
          [
            -109.32387634704631,
            38.29040969868719
          ],
          [
            -109.32617250109965,
            38.29061189902484
          ],
          [
            -109.3284769960104,
            38.291351871690686
          ],
          [
            -109.33146761155874,
            38.29206128331398
          ],
          [
            -109.33362654974906,
            38.292873480235315
          ],
          [
            -109.33611382666729,
            38.293846226888924
          ],
          [
            -109.33812054084112,
            38.29481175512708
          ],
          [
            -109.34076781759293,
            38.29559339110926
          ],
          [
            -109.34326287032827,
            38.29641336072989
          ],
          [
            -109.3455745814057,
            38.29672611371431
          ],
          [
            -109.3475429545849,
            38.297256646121134
          ],
          [
            -109.34984744590237,
            38.29783995290304
          ],
          [
            -109.3514952642556,
            38.298957706703824
          ],
          [
            -109.35344086873562,
            38.3002321218886
          ],
          [
            -109.35537869739854,
            38.30174264624873
          ],
          [
            -109.35697318456997,
            38.30328761800887
          ],
          [
            -109.35904879503452,
            38.30499258417724
          ],
          [
            -109.36049050662389,
            38.30684644523445
          ],
          [
            -109.36261944737193,
            38.30839529870244
          ],
          [
            -109.36586952871369,
            38.3109396910721
          ],
          [
            -109.36902071811905,
            38.31332352885655
          ]
        ]
      },
      "properties": {
        "fault_name": "Lisbon Valley fault zone",
        "age": "class B",
        "slip_rate": "Less than 0.2 mm/yr"
      }
    },
    {
      "type": "Feature",
      "geometry": {
        "type": "LineString",
        "coordinates": [
          [
            -109.32387634704631,
            38.29040969868719
          ],
          [
            -109.32395246040201,
            38.290539143039496
          ],
          [
            -109.32601253180879,
            38.293064660217
          ],
          [
            -109.32768370366446,
            38.295349626003016
          ]
        ]
      },
      "properties": {
        "fault_name": "Lisbon Valley fault zone",
        "age": "class B",
        "slip_rate": "Less than 0.2 mm/yr"
      }
    },
    {
      "type": "Feature",
      "geometry": {
        "type": "LineString",
        "coordinates": [
          [
            -109.14448357981668,
            38.15121075925312
          ],
          [
            -109.14716915893557,
            38.15371681974099
          ],
          [
            -109.14942751278006,
            38.15570066715574
          ],
          [
            -109.15283754095476,
            38.15887782391745
          ],
          [
            -109.15662979060478,
            38.16271941172119
          ],
          [
            -109.15906369142546,
            38.16564490926323
          ],
          [
            -109.1612531462843,
            38.16833041197316
          ],
          [
            -109.16441927826611,
            38.1716186757694
          ],
          [
            -109.16869931221707,
            38.175585809982366
          ],
          [
            -109.1726437885785,
            38.179194619812975
          ],
          [
            -109.17584049112776,
            38.18119734577238
          ],
          [
            -109.17922052455513,
            38.18366895490612
          ],
          [
            -109.18283666757853,
            38.18665221669296
          ],
          [
            -109.18691115531439,
            38.189253816290176
          ],
          [
            -109.19033674141153,
            38.19203819270759
          ],
          [
            -109.19409788330155,
            38.195139785253154
          ],
          [
            -109.19718790911419,
            38.19768805632308
          ],
          [
            -109.20133071821898,
            38.201334635120716
          ],
          [
            -109.20636632156217,
            38.20485176412923
          ],
          [
            -109.20936468597816,
            38.20688893117096
          ],
          [
            -109.21184415743487,
            38.20825055831307
          ],
          [
            -109.21462141232345,
            38.20958551469474
          ],
          [
            -109.21840533998068,
            38.21202322502026
          ],
          [
            -109.22495929917326,
            38.21583366717727
          ],
          [
            -109.23055158220983,
            38.21900023775277
          ],
          [
            -109.23578552009302,
            38.222440691738
          ],
          [
            -109.24262113705977,
            38.22718611278369
          ],
          [
            -109.24994565313679,
            38.23174819576415
          ],
          [
            -109.25742241119659,
            38.23646693722324
          ],
          [
            -109.26247302808312,
            38.23954906112803
          ],
          [
            -109.26685253158718,
            38.241876202756586
          ],
          [
            -109.26962200796372,
            38.24363448221238
          ],
          [
            -109.27230760235398,
            38.244771104214045
          ],
          [
            -109.27439818234441,
            38.246007175680745
          ],
          [
            -109.2758020838435,
            38.24712491976681
          ],
          [
            -109.2773737538067,
            38.24913542589003
          ],
          [
            -109.27974658625604,
            38.25108427074261
          ],
          [
            -109.28327114783288,
            38.253941442720475
          ],
          [
            -109.28655958993218,
            38.256604175326245
          ],
          [
            -109.29025247423367,
            38.25876690498098
          ],
          [
            -109.29385368905368,
            38.26093019167946
          ],
          [
            -109.29680600492988,
            38.26315792670504
          ],
          [
            -109.3003466652149,
            38.26559121086105
          ],
          [
            -109.30384065891923,
            38.26810171788294
          ],
          [
            -109.30788467939391,
            38.27190442983677
          ],
          [
            -109.3113103454411,
            38.274994376146296
          ],
          [
            -109.31491158092234,
            38.279022648299765
          ],
          [
            -109.31850504238314,
            38.28340202570504
          ],
          [
            -109.32186959783817,
            38.287121410664916
          ],
          [
            -109.32387634704631,
            38.29040969868719
          ]
        ]
      },
      "properties": {
        "fault_name": "Lisbon Valley fault zone",
        "age": "class B",
        "slip_rate": "Less than 0.2 mm/yr"
      }
    },
    {
      "type": "Feature",
      "geometry": {
        "type": "LineString",
        "coordinates": [
          [
            -109.1967075466941,
            38.18077778005317
          ],
          [
            -109.20034647458635,
            38.183134942251876
          ],
          [
            -109.20435984634018,
            38.186045425303064
          ]
        ]
      },
      "properties": {
        "fault_name": "Lisbon Valley fault zone",
        "age": "class B",
        "slip_rate": "Less than 0.2 mm/yr"
      }
    },
    {
      "type": "Feature",
      "geometry": {
        "type": "LineString",
        "coordinates": [
          [
            -109.1873002183589,
            38.175120707302085
          ],
          [
            -109.18960412127987,
            38.17746676727786
          ],
          [
            -109.19171024661631,
            38.17963727499011
          ],
          [
            -109.19304525002802,
            38.181296684006426
          ],
          [
            -109.19511304335299,
            38.18331830415384
          ],
          [
            -109.19685970693017,
            38.18623269086081
          ],
          [
            -109.19885137611965,
            38.189028743689164
          ]
        ]
      },
      "properties": {
        "fault_name": "Lisbon Valley fault zone",
        "age": "class B",
        "slip_rate": "Less than 0.2 mm/yr"
      }
    },
    {
      "type": "Feature",
      "geometry": {
        "type": "LineString",
        "coordinates": [
          [
            -109.18633129639176,
            38.17631458177585
          ],
          [
            -109.18826129444034,
            38.17958007372062
          ],
          [
            -109.190474066869,
            38.18347444233248
          ]
        ]
      },
      "properties": {
        "fault_name": "Lisbon Valley fault zone",
        "age": "class B",
        "slip_rate": "Less than 0.2 mm/yr"
      }
    },
    {
      "type": "Feature",
      "geometry": {
        "type": "LineString",
        "coordinates": [
          [
            -109.153799274603,
            38.15453288313637
          ],
          [
            -109.15949824335932,
            38.15696670618109
          ],
          [
            -109.16398441731181,
            38.158873874031734
          ],
          [
            -109.16758557643624,
            38.16049549534008
          ],
          [
            -109.17040116692958,
            38.16194490282364
          ],
          [
            -109.17261342821683,
            38.1621776646768
          ],
          [
            -109.17531458502107,
            38.162730973991614
          ],
          [
            -109.17888519603599,
            38.1636120510374
          ]
        ]
      },
      "properties": {
        "fault_name": "Lisbon Valley fault zone",
        "age": "class B",
        "slip_rate": "Less than 0.2 mm/yr"
      }
    },
    {
      "type": "Feature",
      "geometry": {
        "type": "LineString",
        "coordinates": [
          [
            -109.14448357981668,
            38.15121075925312
          ],
          [
            -109.14846585638695,
            38.15311404408134
          ],
          [
            -109.15117477463521,
            38.15499066766342
          ],
          [
            -109.15315034960805,
            38.15666174405902
          ],
          [
            -109.15626372443154,
            38.15815725865506
          ],
          [
            -109.15952098960062,
            38.15969444195482
          ]
        ]
      },
      "properties": {
        "fault_name": "Lisbon Valley fault zone",
        "age": "class B",
        "slip_rate": "Less than 0.2 mm/yr"
      }
    },
    {
      "type": "Feature",
      "geometry": {
        "type": "LineString",
        "coordinates": [
          [
            -109.09942348868388,
            38.131572918244494
          ],
          [
            -109.10146075006897,
            38.1315690212891
          ],
          [
            -109.10445913784115,
            38.13177900294021
          ],
          [
            -109.11036424659898,
            38.132312858330444
          ],
          [
            -109.1149421115925,
            38.13223672675908
          ],
          [
            -109.11838328615475,
            38.132572263858904
          ],
          [
            -109.12102277091978,
            38.13347279312387
          ],
          [
            -109.1252572755572,
            38.13541441306063
          ],
          [
            -109.12899566042614,
            38.13734825799712
          ],
          [
            -109.13367237693187,
            38.1408615188768
          ],
          [
            -109.13767019615317,
            38.144203117925564
          ],
          [
            -109.14092076977168,
            38.14799860220648
          ],
          [
            -109.14414024371507,
            38.150897988279404
          ],
          [
            -109.14448357981668,
            38.15121075925312
          ]
        ]
      },
      "properties": {
        "fault_name": "Lisbon Valley fault zone",
        "age": "class B",
        "slip_rate": "Less than 0.2 mm/yr"
      }
    },
    {
      "type": "Feature",
      "geometry": {
        "type": "LineString",
        "coordinates": [
          [
            -109.08579744899228,
            38.09873284518949
          ],
          [
            -109.08244851074845,
            38.09707732332117
          ],
          [
            -109.08057126716325,
            38.09560123614025
          ],
          [
            -109.07799289478699,
            38.09430792788929
          ],
          [
            -109.07570396857842,
            38.09352572270386
          ],
          [
            -109.07791621639097,
            38.09539513700039
          ],
          [
            -109.0795412310107,
            38.09713844214189
          ],
          [
            -109.0820284773862,
            38.099560626344946
          ],
          [
            -109.08524851187835,
            38.1024600217363
          ],
          [
            -109.0886663257516,
            38.105366639325105
          ],
          [
            -109.09198525487506,
            38.107956592700056
          ],
          [
            -109.09590697331708,
            38.11036376883182
          ],
          [
            -109.1001181397234,
            38.112930941172095
          ],
          [
            -109.10386430579935,
            38.1147503460512
          ],
          [
            -109.10678657123267,
            38.115970874223486
          ],
          [
            -109.1103038510658,
            38.11704695478558
          ],
          [
            -109.1143550257234,
            38.118397476661386
          ],
          [
            -109.11797897600492,
            38.11920578368911
          ],
          [
            -109.12246516522875,
            38.120113530221275
          ]
        ]
      },
      "properties": {
        "fault_name": "Lisbon Valley fault zone",
        "age": "class B",
        "slip_rate": "Less than 0.2 mm/yr"
      }
    },
    {
      "type": "Feature",
      "geometry": {
        "type": "LineString",
        "coordinates": [
          [
            -109.08579744899228,
            38.09873284518949
          ],
          [
            -109.08875026702673,
            38.100498923024
          ],
          [
            -109.09425868604328,
            38.10269998571401
          ],
          [
            -109.0978598541509,
            38.10405051133129
          ],
          [
            -109.10297938080285,
            38.105892691153294
          ],
          [
            -109.10648109732367,
            38.10767043128802
          ],
          [
            -109.10914391043832,
            38.10927262205258
          ],
          [
            -109.11219561591757,
            38.111160917347114
          ],
          [
            -109.11561398584801,
            38.11398364311854
          ],
          [
            -109.1195045812587,
            38.11736358128923
          ],
          [
            -109.12246516522875,
            38.120113530221275
          ]
        ]
      },
      "properties": {
        "fault_name": "Lisbon Valley fault zone",
        "age": "class B",
        "slip_rate": "Less than 0.2 mm/yr"
      }
    },
    {
      "type": "Feature",
      "geometry": {
        "type": "LineString",
        "coordinates": [
          [
            -109.06099437380456,
            38.07923983069385
          ],
          [
            -109.06361107459907,
            38.080922026061046
          ],
          [
            -109.066907234125,
            38.082734216778945
          ],
          [
            -109.07009616894199,
            38.08462251629769
          ],
          [
            -109.07352954702587,
            38.08690747830201
          ],
          [
            -109.0768406931457,
            38.0900429857224
          ],
          [
            -109.07982406288295,
            38.09227850321089
          ],
          [
            -109.08206686060169,
            38.09481124130662
          ],
          [
            -109.0837985447715,
            38.0963601052873
          ],
          [
            -109.08532466925149,
            38.09809952118763
          ],
          [
            -109.08579744899228,
            38.09873284518949
          ]
        ]
      },
      "properties": {
        "fault_name": "Lisbon Valley fault zone",
        "age": "class B",
        "slip_rate": "Less than 0.2 mm/yr"
      }
    },
    {
      "type": "Feature",
      "geometry": {
        "type": "LineString",
        "coordinates": [
          [
            -109.23809710720293,
            38.23209550496661
          ],
          [
            -109.23461040871702,
            38.22962391022721
          ],
          [
            -109.23084149011157,
            38.22667898985245
          ],
          [
            -109.22753756734494,
            38.22471460526704
          ],
          [
            -109.2236086408211,
            38.22211634473677
          ],
          [
            -109.22083916713952,
            38.22055250526807
          ],
          [
            -109.2179780275697,
            38.21867589094046
          ]
        ]
      },
      "properties": {
        "fault_name": "Lisbon Valley fault zone",
        "age": "class B",
        "slip_rate": "Less than 0.2 mm/yr"
      }
    },
    {
      "type": "Feature",
      "geometry": {
        "type": "LineString",
        "coordinates": [
          [
            -109.20244423031932,
            38.21123196407048
          ],
          [
            -109.19804196799751,
            38.208035382832556
          ],
          [
            -109.194036378349,
            38.20481990613965
          ],
          [
            -109.18871132614318,
            38.2010661162713
          ]
        ]
      },
      "properties": {
        "fault_name": "Lisbon Valley fault zone",
        "age": "class B",
        "slip_rate": "Less than 0.2 mm/yr"
      }
    },
    {
      "type": "Feature",
      "geometry": {
        "type": "LineString",
        "coordinates": [
          [
            -109.18127264856659,
            38.195117091766285
          ],
          [
            -109.17780873225462,
            38.19213382930436
          ],
          [
            -109.1750698264455,
            38.18940277816425
          ],
          [
            -109.17206367992422,
            38.187636713903764
          ],
          [
            -109.17017921657909,
            38.186282302193696
          ],
          [
            -109.16892031664159,
            38.18528677026424
          ]
        ]
      },
      "properties": {
        "fault_name": "Lisbon Valley fault zone",
        "age": "class B",
        "slip_rate": "Less than 0.2 mm/yr"
      }
    },
    {
      "type": "Feature",
      "geometry": {
        "type": "LineString",
        "coordinates": [
          [
            -109.15952080814094,
            38.17565864292949
          ],
          [
            -109.15428743439975,
            38.17069985987
          ]
        ]
      },
      "properties": {
        "fault_name": "Lisbon Valley fault zone",
        "age": "class B",
        "slip_rate": "Less than 0.2 mm/yr"
      }
    },
    {
      "type": "Feature",
      "geometry": {
        "type": "LineString",
        "coordinates": [
          [
            -109.156316940629,
            38.16863210125385
          ],
          [
            -109.15138077539785,
            38.16523329222093
          ],
          [
            -109.14925186339592,
            38.16376054903264
          ],
          [
            -109.14562793557228,
            38.16104838514999
          ],
          [
            -109.14046288230169,
            38.157180693280644
          ],
          [
            -109.13632006511207,
            38.15379687411781
          ],
          [
            -109.13146001862656,
            38.1495475159591
          ],
          [
            -109.13039945233075,
            38.14875031181921
          ],
          [
            -109.12555492963165,
            38.147495354335
          ],
          [
            -109.12261710537761,
            38.146625380332246
          ],
          [
            -109.12131264378723,
            38.1458242869186
          ],
          [
            -109.11903928358592,
            38.14430265282074
          ],
          [
            -109.11626203857881,
            38.14152937177249
          ],
          [
            -109.11272199363977,
            38.13944275019906
          ],
          [
            -109.10925028893428,
            38.136768358323465
          ],
          [
            -109.10545857018859,
            38.13483062526226
          ],
          [
            -109.10245241827741,
            38.13318288287307
          ],
          [
            -109.09942348868388,
            38.131572918244494
          ]
        ]
      },
      "properties": {
        "fault_name": "Lisbon Valley fault zone",
        "age": "class B",
        "slip_rate": "Less than 0.2 mm/yr"
      }
    },
    {
      "type": "Feature",
      "geometry": {
        "type": "LineString",
        "coordinates": [
          [
            -109.15304338091896,
            38.18329189991019
          ],
          [
            -109.14992279981028,
            38.18047640726169
          ],
          [
            -109.14712277442588,
            38.17813034673389
          ],
          [
            -109.14394941280264,
            38.17531151774969
          ],
          [
            -109.13993603655724,
            38.17247325065081
          ],
          [
            -109.13612155360396,
            38.16952498315712
          ],
          [
            -109.13474821458749,
            38.16767446271085
          ],
          [
            -109.13330598197524,
            38.16624782430073
          ],
          [
            -109.13100985487137,
            38.16386787100856
          ],
          [
            -109.1292548297755,
            38.16309733526939
          ],
          [
            -109.12653868458077,
            38.16153292868246
          ],
          [
            -109.12267086415747,
            38.158779099312724
          ],
          [
            -109.11885582155375,
            38.155983047703664
          ],
          [
            -109.11567412176807,
            38.153434766663686
          ],
          [
            -109.11231742657178,
            38.15022260512843
          ]
        ]
      },
      "properties": {
        "fault_name": "Lisbon Valley fault zone",
        "age": "class B",
        "slip_rate": "Less than 0.2 mm/yr"
      }
    },
    {
      "type": "Feature",
      "geometry": {
        "type": "LineString",
        "coordinates": [
          [
            -109.09942348868388,
            38.131572918244494
          ],
          [
            -109.09939293159117,
            38.13157291895112
          ],
          [
            -109.09631065913777,
            38.13081405309455
          ],
          [
            -109.09264115528816,
            38.129696307704656
          ],
          [
            -109.09001667238839,
            38.12855966733011
          ],
          [
            -109.08372992606022,
            38.124359747734005
          ],
          [
            -109.07818319389676,
            38.120209268963414
          ],
          [
            -109.07371203258933,
            38.11639100086402
          ],
          [
            -109.07164478993164,
            38.11459825398967
          ],
          [
            -109.06995866022817,
            38.113243833892305
          ],
          [
            -109.06641860900092,
            38.11138609181977
          ],
          [
            -109.06174909518715,
            38.10920057877259
          ],
          [
            -109.05721735598853,
            38.107560062138255
          ],
          [
            -109.05637789742352,
            38.10731229076295
          ],
          [
            -109.05164781560005,
            38.10590454729414
          ],
          [
            -109.04717662285155,
            38.10546956781645
          ],
          [
            -109.044574905956,
            38.105381800845976
          ],
          [
            -109.04230930809706,
            38.105191256300664
          ]
        ]
      },
      "properties": {
        "fault_name": "Lisbon Valley fault zone",
        "age": "class B",
        "slip_rate": "Less than 0.2 mm/yr"
      }
    },
    {
      "type": "Feature",
      "geometry": {
        "type": "LineString",
        "coordinates": [
          [
            -109.11528509914775,
            38.32129841078078
          ],
          [
            -109.11559008886482,
            38.31992119685662
          ],
          [
            -109.11633786627024,
            38.31872009080792
          ],
          [
            -109.11897790619415,
            38.31753341409359
          ],
          [
            -109.12395965194277,
            38.3158472802751
          ],
          [
            -109.12791971766765,
            38.31478281485084
          ],
          [
            -109.13063586555732,
            38.31353558180293
          ],
          [
            -109.13500762288871,
            38.31368832579562
          ],
          [
            -109.13721210476561,
            38.31307386875702
          ],
          [
            -109.14092773800336,
            38.313333283940075
          ],
          [
            -109.14515450095966,
            38.31411158030803
          ],
          [
            -109.14813790393458,
            38.31470655400147
          ],
          [
            -109.15141075936542,
            38.31559540866603
          ],
          [
            -109.15424916527031,
            38.31647649381524
          ],
          [
            -109.1561336654464,
            38.31775424574992
          ]
        ]
      },
      "properties": {
        "fault_name": "Pine Ridge faults",
        "age": "class B",
        "slip_rate": "Less than 0.2 mm/yr"
      }
    },
    {
      "type": "Feature",
      "geometry": {
        "type": "LineString",
        "coordinates": [
          [
            -109.15810265936146,
            38.36037168527638
          ],
          [
            -109.15703482928829,
            38.35829282007257
          ],
          [
            -109.1556003221875,
            38.356213955754214
          ],
          [
            -109.15372358255716,
            38.35413120869324
          ],
          [
            -109.15214407569141,
            38.35210567867802
          ],
          [
            -109.15069402234631,
            38.35065236785946
          ],
          [
            -109.14925231165526,
            38.34972905098094
          ],
          [
            -109.14671945062622,
            38.34775297297076
          ],
          [
            -109.14447604205313,
            38.34589522408826
          ],
          [
            -109.14128706142205,
            38.34414803876352
          ],
          [
            -109.13824252539709,
            38.34228640896885
          ],
          [
            -109.13593077928536,
            38.34013922080419
          ],
          [
            -109.13258901678404,
            38.338334815289684
          ],
          [
            -109.1294689324437,
            38.336873737346636
          ],
          [
            -109.1275155413668,
            38.33570653925155
          ],
          [
            -109.12598938634407,
            38.334886555850666
          ]
        ]
      },
      "properties": {
        "fault_name": "Pine Ridge faults",
        "age": "class B",
        "slip_rate": "Less than 0.2 mm/yr"
      }
    },
    {
      "type": "Feature",
      "geometry": {
        "type": "LineString",
        "coordinates": [
          [
            -109.30954327393728,
            38.040116327795154
          ],
          [
            -109.31451788975751,
            38.03901798709847
          ],
          [
            -109.3186608219315,
            38.03745354667125
          ],
          [
            -109.3233454256454,
            38.03658798229338
          ],
          [
            -109.32732777857248,
            38.03614907823053
          ],
          [
            -109.33378245506155,
            38.03439796328901
          ],
          [
            -109.33757425465559,
            38.03360462286341
          ],
          [
            -109.34013822883449,
            38.033230727242646
          ],
          [
            -109.34250331061956,
            38.03277683309736
          ],
          [
            -109.3448606076044,
            38.032826264321294
          ]
        ]
      },
      "properties": {
        "fault_name": "Shay graben faults",
        "age": "class B",
        "slip_rate": "Less than 0.2 mm/yr"
      }
    },
    {
      "type": "Feature",
      "geometry": {
        "type": "LineString",
        "coordinates": [
          [
            -109.31022988056345,
            38.0452434487009
          ],
          [
            -109.31438004237886,
            38.04309568796825
          ],
          [
            -109.31705070497244,
            38.04159625591446
          ],
          [
            -109.31962191687758,
            38.04025348895674
          ],
          [
            -109.32262813885733,
            38.03914349065062
          ],
          [
            -109.3248937726489,
            38.038731264349586
          ],
          [
            -109.32829666820025,
            38.03786181665717
          ],
          [
            -109.33184457699129,
            38.036713485057234
          ],
          [
            -109.33411799468479,
            38.03590848830469
          ],
          [
            -109.33819979830034,
            38.03531347625085
          ],
          [
            -109.34451002209846,
            38.033837357294814
          ],
          [
            -109.35204028830815,
            38.03213234696218
          ],
          [
            -109.3563815523272,
            38.03106789930144
          ],
          [
            -109.35913609600878,
            38.0304651182345
          ],
          [
            -109.36298123936103,
            38.02927845110922
          ],
          [
            -109.36713195992854,
            38.02744013222326
          ],
          [
            -109.37096931937884,
            38.026566238226806
          ],
          [
            -109.37383832908887,
            38.02502902933582
          ],
          [
            -109.37733290759645,
            38.02376625673514
          ],
          [
            -109.38023968158268,
            38.023007366827194
          ],
          [
            -109.38364259240541,
            38.02174459476865
          ],
          [
            -109.38680104828312,
            38.02075293130789
          ],
          [
            -109.3912339907668,
            38.01953237396095
          ],
          [
            -109.39532358726743,
            38.01850959469825
          ],
          [
            -109.398528154567,
            38.01751404174815
          ],
          [
            -109.40112991368336,
            38.01710236888606
          ],
          [
            -109.4033955465766,
            38.0168390283369
          ],
          [
            -109.40605842257331,
            38.016236246978686
          ],
          [
            -109.40846962386509,
            38.01562235777546
          ],
          [
            -109.41049136865026,
            38.015011803242245
          ],
          [
            -109.41216199163527,
            38.01440125070046
          ],
          [
            -109.41413818015745,
            38.01371069828683
          ],
          [
            -109.41837278181293,
            38.01279902814723
          ],
          [
            -109.42117288085917,
            38.012387354281294
          ],
          [
            -109.42427799118205,
            38.01197512321447
          ],
          [
            -109.42786421940819,
            38.01191399268889
          ],
          [
            -109.43017597180811,
            38.01142232364685
          ],
          [
            -109.43328109830067,
            38.01023955305467
          ],
          [
            -109.43776738993245,
            38.00874400523306
          ],
          [
            -109.44107087162627,
            38.006894025219005
          ],
          [
            -109.44329152677155,
            38.005741814897156
          ],
          [
            -109.44683165166064,
            38.00536846935044
          ],
          [
            -109.44889895270883,
            38.00491402391395
          ],
          [
            -109.45314134635107,
            38.00341903283362
          ],
          [
            -109.46619575389144,
            37.99835683524554
          ],
          [
            -109.47763226416406,
            37.993866837273984
          ],
          [
            -109.48394248526724,
            37.99113961828261
          ],
          [
            -109.4853692030762,
            37.99041073226007
          ],
          [
            -109.48803151762588,
            37.98941128683352
          ],
          [
            -109.49212110604165,
            37.987835732270895
          ],
          [
            -109.49615735608916,
            37.986416842937096
          ],
          [
            -109.50230697818247,
            37.984544046954
          ],
          [
            -109.50718204360123,
            37.98281567907953
          ],
          [
            -109.51496437618131,
            37.98036672977529
          ],
          [
            -109.51949610999007,
            37.978558369161775
          ],
          [
            -109.52555398175353,
            37.976059998795684
          ],
          [
            -109.52821680385134,
            37.97451831977457
          ],
          [
            -109.53186353271353,
            37.972477749765225
          ],
          [
            -109.53418301870973,
            37.97112718569273
          ],
          [
            -109.53994311602449,
            37.96870492874774
          ],
          [
            -109.54112591158942,
            37.96836158472291
          ],
          [
            -109.54989217608674,
            37.964512648249254
          ],
          [
            -109.55662895411776,
            37.962719258104315
          ],
          [
            -109.56577688493151,
            37.96049529130825
          ],
          [
            -109.56892749672018,
            37.95946193502128
          ],
          [
            -109.57300979261248,
            37.95816079299532
          ],
          [
            -109.5747870501133,
            37.957310228222234
          ],
          [
            -109.57768654684743,
            37.95654353777845
          ],
          [
            -109.57876990070703,
            37.95623464123423
          ],
          [
            -109.58004380879797,
            37.95620407010378
          ],
          [
            -109.58127216242254,
            37.95593683689947
          ],
          [
            -109.5838816578301,
            37.95497570870851
          ],
          [
            -109.58669673538543,
            37.952266824172554
          ],
          [
            -109.5886729068396,
            37.9499096126879
          ],
          [
            -109.58990906143408,
            37.948162400300376
          ],
          [
            -109.59380749913721,
            37.94495406591607
          ],
          [
            -109.5952880916087,
            37.944031283319305
          ],
          [
            -109.59691313317789,
            37.94279128071658
          ],
          [
            -109.59937708713642,
            37.94097961065981
          ],
          [
            -109.6006132417309,
            37.93938850786595
          ],
          [
            -109.60268886297523,
            37.93718351507441
          ],
          [
            -109.60402391220104,
            37.93540241269309
          ],
          [
            -109.60520616787848,
            37.93443741307388
          ],
          [
            -109.60668677562134,
            37.93265964297791
          ],
          [
            -109.61087522902405,
            37.92952741723838
          ],
          [
            -109.61910768403679,
            37.92400406323438
          ],
          [
            -109.6212666258204,
            37.92311905227981
          ],
          [
            -109.62407448002249,
            37.921535707271055
          ],
          [
            -109.62584452405159,
            37.92072736489179
          ],
          [
            -109.63190247486679,
            37.917214008747585
          ],
          [
            -109.63608370222134,
            37.91501621178209
          ],
          [
            -109.63775430724006,
            37.91408954098097
          ],
          [
            -109.63849432769301,
            37.913703982282826
          ],
          [
            -109.63962380375425,
            37.913086197695286
          ],
          [
            -109.64080606482158,
            37.91223564131675
          ],
          [
            -109.64292723244748,
            37.91138896181586
          ],
          [
            -109.645086176926,
            37.91057616969801
          ],
          [
            -109.64867237011782,
            37.90985113830091
          ],
          [
            -109.65230410969117,
            37.90959165473982
          ],
          [
            -109.6563780835907,
            37.90929438928493
          ],
          [
            -109.65966648616414,
            37.90899268791986
          ],
          [
            -109.6635954540105,
            37.90880986526065
          ],
          [
            -109.67076003583097,
            37.90886700275044
          ],
          [
            -109.67380398076446,
            37.90895474304329
          ],
          [
            -109.67620736581495,
            37.90872582878664
          ],
          [
            -109.67949576479513,
            37.90858079179021
          ],
          [
            -109.68126581062087,
            37.90815744533929
          ],
          [
            -109.68288305840665,
            37.90843575379908
          ],
          [
            -109.68440919995463,
            37.90832129382613
          ],
          [
            -109.68646924890352,
            37.90793571765511
          ],
          [
            -109.68838428012114,
            37.90817624823579
          ],
          [
            -109.69020764365393,
            37.90836678029684
          ]
        ]
      },
      "properties": {
        "fault_name": "Shay graben faults",
        "age": "class B",
        "slip_rate": "Less than 0.2 mm/yr"
      }
    }
  ]
}