{
  "type": "FeatureCollection",
  "features": [
    {
      "type": "Feature",
      "geometry": {
        "type": "LineString",
        "coordinates": [
          [
            -114.63536486793816,
            41.045491200698585
          ],
          [
            -114.63462427256344,
            41.04195124632166
          ],
          [
            -114.63382367601592,
            41.03829684586889
          ],
          [
            -114.6332514231288,
            41.03581354384391
          ],
          [
            -114.63251083044901,
            41.032498584826314
          ],
          [
            -114.63154967172255,
            41.029553621858305
          ],
          [
            -114.63104631512613,
            41.0284930787439
          ]
        ]
      },
      "properties": {
        "fault_name": "Independence Valley fault zone",
        "age": "undifferentiated Quaternary",
        "slip_rate": "Less than 0.2 mm/yr"
      }
    },
    {
      "type": "Feature",
      "geometry": {
        "type": "LineString",
        "coordinates": [
          [
            -114.62605624109649,
            41.06497655027435
          ],
          [
            -114.6271551645566,
            41.062229913275125
          ],
          [
            -114.6277046226934,
            41.06026160170016
          ],
          [
            -114.62806296335516,
            41.05817884615348
          ],
          [
            -114.62861242059365,
            41.055561654720506
          ],
          [
            -114.62873464087963,
            41.05331501377371
          ],
          [
            -114.62876518898919,
            41.05102226392943
          ]
        ]
      },
      "properties": {
        "fault_name": "Independence Valley fault zone",
        "age": "undifferentiated Quaternary",
        "slip_rate": "Less than 0.2 mm/yr"
      }
    },
    {
      "type": "Feature",
      "geometry": {
        "type": "LineString",
        "coordinates": [
          [
            -114.62822349499139,
            41.04865340420069
          ],
          [
            -114.62742234328503,
            41.04529288966395
          ],
          [
            -114.62738400229041,
            41.043526798223674
          ],
          [
            -114.62692620016037,
            41.04135960411865
          ]
        ]
      },
      "properties": {
        "fault_name": "Independence Valley fault zone",
        "age": "undifferentiated Quaternary",
        "slip_rate": "Less than 0.2 mm/yr"
      }
    },
    {
      "type": "Feature",
      "geometry": {
        "type": "LineString",
        "coordinates": [
          [
            -114.62752117144102,
            41.02454480124062
          ],
          [
            -114.6274294938747,
            41.02272537666321
          ],
          [
            -114.62678890614391,
            41.02035263015221
          ],
          [
            -114.62563663443403,
            41.01828099031503
          ],
          [
            -114.62412601218091,
            41.01549269186789
          ],
          [
            -114.62327930690645,
            41.01311994509071
          ]
        ]
      },
      "properties": {
        "fault_name": "Independence Valley fault zone",
        "age": "undifferentiated Quaternary",
        "slip_rate": "Less than 0.2 mm/yr"
      }
    },
    {
      "type": "Feature",
      "geometry": {
        "type": "LineString",
        "coordinates": [
          [
            -114.62476732125886,
            41.0707287081312
          ],
          [
            -114.62503399333745,
            41.06908094981804
          ],
          [
            -114.625331775871,
            41.067314858268205
          ]
        ]
      },
      "properties": {
        "fault_name": "Independence Valley fault zone",
        "age": "undifferentiated Quaternary",
        "slip_rate": "Less than 0.2 mm/yr"
      }
    },
    {
      "type": "Feature",
      "geometry": {
        "type": "LineString",
        "coordinates": [
          [
            -114.6234927241601,
            41.037388548828424
          ],
          [
            -114.62383606026168,
            41.034703022811705
          ],
          [
            -114.62411828487281,
            41.03165139070209
          ],
          [
            -114.6242405060571,
            41.02966030288074
          ],
          [
            -114.6245455101472,
            41.02688311304034
          ],
          [
            -114.62453828140413,
            41.02525035395245
          ]
        ]
      },
      "properties": {
        "fault_name": "Independence Valley fault zone",
        "age": "undifferentiated Quaternary",
        "slip_rate": "Less than 0.2 mm/yr"
      }
    },
    {
      "type": "Feature",
      "geometry": {
        "type": "LineString",
        "coordinates": [
          [
            -114.62158534658869,
            41.010853862979744
          ],
          [
            -114.62106643296818,
            41.009106661851774
          ],
          [
            -114.62048640426396,
            41.0070811312313
          ],
          [
            -114.62002860303222,
            41.00480782633043
          ],
          [
            -114.6197924745716,
            41.00255340569359
          ],
          [
            -114.6195102391807,
            41.001084536840246
          ],
          [
            -114.61927356005278,
            41.00003566006236
          ],
          [
            -114.61898360813358,
            40.997045204808714
          ],
          [
            -114.6189836737106,
            40.993852536052565
          ],
          [
            -114.61938045867328,
            40.988836039143685
          ],
          [
            -114.61993001382814,
            40.984376744698764
          ],
          [
            -114.62003676781985,
            40.980284104069455
          ],
          [
            -114.62063183342362,
            40.97803306578323
          ],
          [
            -114.62146361318958,
            40.973886537051236
          ],
          [
            -114.62219650281583,
            40.969450571227476
          ],
          [
            -114.62261609510526,
            40.96275968303485
          ],
          [
            -114.62289841224286,
            40.958460935695314
          ],
          [
            -114.62299791683027,
            40.95559214218177
          ],
          [
            -114.62314240096222,
            40.9537727576674
          ],
          [
            -114.62313519108375,
            40.95315833427981
          ]
        ]
      },
      "properties": {
        "fault_name": "Independence Valley fault zone",
        "age": "undifferentiated Quaternary",
        "slip_rate": "Less than 0.2 mm/yr"
      }
    },
    {
      "type": "Feature",
      "geometry": {
        "type": "LineString",
        "coordinates": [
          [
            -114.62134880041145,
            41.05240726678003
          ],
          [
            -114.62147101890078,
            41.05011062518278
          ],
          [
            -114.6213565618555,
            41.04726121623231
          ],
          [
            -114.62126488428916,
            41.04496457589931
          ],
          [
            -114.62131820918276,
            41.041382950841125
          ],
          [
            -114.6213715376696,
            41.03945630615755
          ],
          [
            -114.62128763861533,
            41.03704522369375
          ]
        ]
      },
      "properties": {
        "fault_name": "Independence Valley fault zone",
        "age": "undifferentiated Quaternary",
        "slip_rate": "Less than 0.2 mm/yr"
      }
    },
    {
      "type": "Feature",
      "geometry": {
        "type": "LineString",
        "coordinates": [
          [
            -114.66338103364083,
            41.07181191675979
          ],
          [
            -114.66253377141092,
            41.06969472179598
          ],
          [
            -114.66207596658596,
            41.067695859164324
          ],
          [
            -114.66139704594536,
            41.06573533070239
          ],
          [
            -114.66125981570931,
            41.064911453064624
          ]
        ]
      },
      "properties": {
        "fault_name": "Independence Valley fault zone",
        "age": "undifferentiated Quaternary",
        "slip_rate": "Less than 0.2 mm/yr"
      }
    },
    {
      "type": "Feature",
      "geometry": {
        "type": "LineString",
        "coordinates": [
          [
            -114.66112258277828,
            41.06362202426192
          ],
          [
            -114.66089368216242,
            41.06267592594356
          ]
        ]
      },
      "properties": {
        "fault_name": "Independence Valley fault zone",
        "age": "undifferentiated Quaternary",
        "slip_rate": "Less than 0.2 mm/yr"
      }
    },
    {
      "type": "Feature",
      "geometry": {
        "type": "LineString",
        "coordinates": [
          [
            -114.6608020045961,
            41.060749838322586
          ],
          [
            -114.6606725483805,
            41.05891097297267
          ],
          [
            -114.66030586236974,
            41.05686599899588
          ],
          [
            -114.65987139397922,
            41.05527935300143
          ],
          [
            -114.65948970969646,
            41.05412714610275
          ]
        ]
      },
      "properties": {
        "fault_name": "Independence Valley fault zone",
        "age": "undifferentiated Quaternary",
        "slip_rate": "Less than 0.2 mm/yr"
      }
    },
    {
      "type": "Feature",
      "geometry": {
        "type": "LineString",
        "coordinates": [
          [
            -114.62404230356947,
            41.07455477769361
          ],
          [
            -114.62445398259953,
            41.073342014255424
          ],
          [
            -114.62453065021577,
            41.07222035912138
          ]
        ]
      },
      "properties": {
        "fault_name": "Independence Valley fault zone",
        "age": "undifferentiated Quaternary",
        "slip_rate": "Less than 0.2 mm/yr"
      }
    },
    {
      "type": "Feature",
      "geometry": {
        "type": "LineString",
        "coordinates": [
          [
            -114.6583377389222,
            40.963030527987485
          ],
          [
            -114.65869667876026,
            40.959993945069655
          ],
          [
            -114.65863559242264,
            40.958063444993094
          ],
          [
            -114.65856672577631,
            40.956251831335614
          ],
          [
            -114.6577350672829,
            40.95387134884719
          ],
          [
            -114.65684284706799,
            40.95175030677777
          ],
          [
            -114.65614840533593,
            40.95019035895311
          ],
          [
            -114.65556841256429,
            40.94836319179368
          ],
          [
            -114.65468341031271,
            40.94681046882679
          ],
          [
            -114.65309673129774,
            40.944621102720546
          ],
          [
            -114.65224950500044,
            40.94322893003209
          ],
          [
            -114.65187617235487,
            40.942618395727514
          ]
        ]
      },
      "properties": {
        "fault_name": "Independence Valley fault zone",
        "age": "late Quaternary",
        "slip_rate": "Less than 0.2 mm/yr"
      }
    },
    {
      "type": "Feature",
      "geometry": {
        "type": "LineString",
        "coordinates": [
          [
            -114.60125822881376,
            40.75399694378353
          ],
          [
            -114.60343994738137,
            40.75094141933872
          ],
          [
            -114.60539581241855,
            40.749526586296206
          ],
          [
            -114.60656412893772,
            40.747984696043886
          ],
          [
            -114.60662123663695,
            40.747070982941224
          ],
          [
            -114.60705574275674,
            40.74609160523862
          ],
          [
            -114.60910539370623,
            40.74415852273728
          ],
          [
            -114.61009048984005,
            40.741374553325485
          ],
          [
            -114.6157202964043,
            40.737084087741316
          ],
          [
            -114.61797483330719,
            40.73461500133922
          ],
          [
            -114.61903964324436,
            40.733443513272974
          ],
          [
            -114.61999737579633,
            40.73177868279346
          ],
          [
            -114.62041140302257,
            40.73027962268759
          ],
          [
            -114.62105385565589,
            40.72882339081567
          ],
          [
            -114.62338097014549,
            40.72619646720797
          ],
          [
            -114.6257952302008,
            40.72319090984287
          ],
          [
            -114.62779397721641,
            40.72051639694938
          ],
          [
            -114.62798433381836,
            40.71988821922105
          ],
          [
            -114.62801288766798,
            40.719402808966386
          ],
          [
            -114.62773687041548,
            40.71879366687118
          ],
          [
            -114.62847926242078,
            40.71492942300088
          ],
          [
            -114.62956429612994,
            40.712292979231634
          ],
          [
            -114.63048752798511,
            40.71000869724339
          ],
          [
            -114.63188665044686,
            40.708476323987476
          ],
          [
            -114.63181526672113,
            40.70733418316314
          ],
          [
            -114.63103256730902,
            40.70253206071036
          ],
          [
            -114.63067312531271,
            40.701509262909674
          ],
          [
            -114.63078733891454,
            40.70100957495887
          ],
          [
            -114.63369980013485,
            40.699910265026006
          ],
          [
            -114.63661225955853,
            40.69716912610534
          ],
          [
            -114.6390393107252,
            40.695455914298975
          ],
          [
            -114.6403099426603,
            40.6937855321047
          ],
          [
            -114.64082390476693,
            40.69338578228219
          ],
          [
            -114.64100950478945,
            40.69210087321426
          ],
          [
            -114.64125220891799,
            40.691372758814914
          ],
          [
            -114.64267988522936,
            40.690087849752764
          ],
          [
            -114.64317957220783,
            40.68965478725738
          ],
          [
            -114.64713899563728,
            40.686970755191496
          ],
          [
            -114.64915677795373,
            40.68333493926954
          ],
          [
            -114.64988387344638,
            40.681080372944365
          ],
          [
            -114.65262127457741,
            40.680289229260474
          ],
          [
            -114.65357760036763,
            40.68001618087904
          ],
          [
            -114.65410005514697,
            40.67902969523384
          ],
          [
            -114.65524343892544,
            40.67662485875101
          ],
          [
            -114.65581451142627,
            40.67568259330345
          ],
          [
            -114.65651407175886,
            40.6741121478674
          ],
          [
            -114.65707900068145,
            40.671256851182264
          ],
          [
            -114.6574833719167,
            40.669101814836324
          ],
          [
            -114.65734606083228,
            40.666526789830115
          ]
        ]
      },
      "properties": {
        "fault_name": "Independence Valley fault zone",
        "age": "late Quaternary",
        "slip_rate": "Less than 0.2 mm/yr"
      }
    },
    {
      "type": "Feature",
      "geometry": {
        "type": "LineString",
        "coordinates": [
          [
            -114.65546700444683,
            40.97644883932712
          ],
          [
            -114.65643037033394,
            40.96953035469399
          ]
        ]
      },
      "properties": {
        "fault_name": "Independence Valley fault zone",
        "age": "late Quaternary",
        "slip_rate": "Less than 0.2 mm/yr"
      }
    },
    {
      "type": "Feature",
      "geometry": {
        "type": "LineString",
        "coordinates": [
          [
            -114.65509508844447,
            40.98676486626177
          ],
          [
            -114.65513387859676,
            40.98025597628826
          ]
        ]
      },
      "properties": {
        "fault_name": "Independence Valley fault zone",
        "age": "late Quaternary",
        "slip_rate": "Less than 0.2 mm/yr"
      }
    },
    {
      "type": "Feature",
      "geometry": {
        "type": "LineString",
        "coordinates": [
          [
            -114.65023218890963,
            41.00214701820017
          ],
          [
            -114.65180263357078,
            40.999291665283906
          ],
          [
            -114.65237370517328,
            40.99657907984967
          ],
          [
            -114.65256406177525,
            40.994437565190005
          ],
          [
            -114.65337307823195,
            40.99239122674757
          ],
          [
            -114.65475316629113,
            40.99010694576292
          ]
        ]
      },
      "properties": {
        "fault_name": "Independence Valley fault zone",
        "age": "late Quaternary",
        "slip_rate": "Less than 0.2 mm/yr"
      }
    },
    {
      "type": "Feature",
      "geometry": {
        "type": "LineString",
        "coordinates": [
          [
            -114.6487477830897,
            40.940699595823205
          ],
          [
            -114.64980069124772,
            40.93384478977893
          ]
        ]
      },
      "properties": {
        "fault_name": "Independence Valley fault zone",
        "age": "late Quaternary",
        "slip_rate": "Less than 0.2 mm/yr"
      }
    },
    {
      "type": "Feature",
      "geometry": {
        "type": "LineString",
        "coordinates": [
          [
            -114.64479564140399,
            40.92903110370237
          ],
          [
            -114.64461296539768,
            40.922347974735814
          ]
        ]
      },
      "properties": {
        "fault_name": "Independence Valley fault zone",
        "age": "late Quaternary",
        "slip_rate": "Less than 0.2 mm/yr"
      }
    },
    {
      "type": "Feature",
      "geometry": {
        "type": "LineString",
        "coordinates": [
          [
            -114.64246127301845,
            40.920875271884896
          ],
          [
            -114.63983686378052,
            40.915164927781305
          ]
        ]
      },
      "properties": {
        "fault_name": "Independence Valley fault zone",
        "age": "late Quaternary",
        "slip_rate": "Less than 0.2 mm/yr"
      }
    },
    {
      "type": "Feature",
      "geometry": {
        "type": "LineString",
        "coordinates": [
          [
            -114.64146975842192,
            40.91025561179933
          ],
          [
            -114.64011147067805,
            40.90586132472862
          ]
        ]
      },
      "properties": {
        "fault_name": "Independence Valley fault zone",
        "age": "late Quaternary",
        "slip_rate": "Less than 0.2 mm/yr"
      }
    },
    {
      "type": "Feature",
      "geometry": {
        "type": "LineString",
        "coordinates": [
          [
            -114.63772355821001,
            40.91093842304755
          ],
          [
            -114.63626639739437,
            40.90565138968484
          ]
        ]
      },
      "properties": {
        "fault_name": "Independence Valley fault zone",
        "age": "late Quaternary",
        "slip_rate": "Less than 0.2 mm/yr"
      }
    },
    {
      "type": "Feature",
      "geometry": {
        "type": "LineString",
        "coordinates": [
          [
            -114.63547344191667,
            40.88324489179767
          ],
          [
            -114.63292512986477,
            40.87985004774992
          ],
          [
            -114.63125458593149,
            40.87787792277198
          ],
          [
            -114.62978180610804,
            40.876832429885376
          ]
        ]
      },
      "properties": {
        "fault_name": "Independence Valley fault zone",
        "age": "late Quaternary",
        "slip_rate": "Less than 0.2 mm/yr"
      }
    },
    {
      "type": "Feature",
      "geometry": {
        "type": "LineString",
        "coordinates": [
          [
            -114.63499972433473,
            40.90458755520216
          ],
          [
            -114.63496198071975,
            40.90256928672213
          ],
          [
            -114.63430590244022,
            40.90004826722094
          ],
          [
            -114.63371476337254,
            40.898664258805816
          ],
          [
            -114.63353630495652,
            40.89702838028202
          ],
          [
            -114.63377425070898,
            40.894381230309484
          ],
          [
            -114.63383373804544,
            40.8931022682492
          ]
        ]
      },
      "properties": {
        "fault_name": "Independence Valley fault zone",
        "age": "late Quaternary",
        "slip_rate": "Less than 0.2 mm/yr"
      }
    },
    {
      "type": "Feature",
      "geometry": {
        "type": "LineString",
        "coordinates": [
          [
            -114.63227623720917,
            40.802771013228934
          ],
          [
            -114.63260460288654,
            40.80184302323813
          ],
          [
            -114.63286158483818,
            40.800907895118506
          ],
          [
            -114.63287586176304,
            40.80001559578239
          ],
          [
            -114.63261836956828,
            40.799051975189855
          ],
          [
            -114.63276878617441,
            40.79873782509498
          ],
          [
            -114.63329226772814,
            40.79797164023375
          ],
          [
            -114.63307811565261,
            40.79719831621648
          ],
          [
            -114.63307811565261,
            40.796329811206014
          ],
          [
            -114.63237617478453,
            40.795520795204276
          ],
          [
            -114.63222150914713,
            40.79475936773396
          ],
          [
            -114.63247135398382,
            40.793307895955245
          ],
          [
            -114.63293664087684,
            40.792491679665616
          ],
          [
            -114.63346552220372,
            40.79207503792667
          ],
          [
            -114.63403064426412,
            40.79026069776326
          ],
          [
            -114.63266245259423,
            40.78853558975443
          ],
          [
            -114.63290039924502,
            40.78648330521262
          ],
          [
            -114.63379269761334,
            40.783360262100324
          ]
        ]
      },
      "properties": {
        "fault_name": "Independence Valley fault zone",
        "age": "late Quaternary",
        "slip_rate": "Less than 0.2 mm/yr"
      }
    },
    {
      "type": "Feature",
      "geometry": {
        "type": "LineString",
        "coordinates": [
          [
            -114.63252503461028,
            40.8934294452855
          ],
          [
            -114.63323887186765,
            40.8913176742369
          ],
          [
            -114.63362553641032,
            40.889146414025085
          ],
          [
            -114.63366504431653,
            40.88523986227229
          ],
          [
            -114.63266561556233,
            40.8834816027001
          ],
          [
            -114.63218507797077,
            40.88211165579417
          ]
        ]
      },
      "properties": {
        "fault_name": "Independence Valley fault zone",
        "age": "late Quaternary",
        "slip_rate": "Less than 0.2 mm/yr"
      }
    },
    {
      "type": "Feature",
      "geometry": {
        "type": "LineString",
        "coordinates": [
          [
            -114.63298368115667,
            40.77746514711659
          ],
          [
            -114.63222701222655,
            40.7757947662901
          ],
          [
            -114.63154172702218,
            40.77496671289577
          ],
          [
            -114.62914323060346,
            40.77313928720491
          ]
        ]
      },
      "properties": {
        "fault_name": "Independence Valley fault zone",
        "age": "late Quaternary",
        "slip_rate": "Less than 0.2 mm/yr"
      }
    },
    {
      "type": "Feature",
      "geometry": {
        "type": "LineString",
        "coordinates": [
          [
            -114.6328263322515,
            40.87466188309876
          ],
          [
            -114.63091861781187,
            40.86984041225334
          ]
        ]
      },
      "properties": {
        "fault_name": "Independence Valley fault zone",
        "age": "late Quaternary",
        "slip_rate": "Less than 0.2 mm/yr"
      }
    },
    {
      "type": "Feature",
      "geometry": {
        "type": "LineString",
        "coordinates": [
          [
            -114.62583027797162,
            40.81450651430462
          ],
          [
            -114.62721036423417,
            40.813602319038274
          ],
          [
            -114.62845384458981,
            40.81135493208122
          ],
          [
            -114.62961361992727,
            40.80996174407698
          ]
        ]
      },
      "properties": {
        "fault_name": "Independence Valley fault zone",
        "age": "late Quaternary",
        "slip_rate": "Less than 0.2 mm/yr"
      }
    },
    {
      "type": "Feature",
      "geometry": {
        "type": "LineString",
        "coordinates": [
          [
            -114.62751626843621,
            40.86773919718821
          ],
          [
            -114.62526767838054,
            40.86227833330827
          ],
          [
            -114.62476799140207,
            40.860208202859354
          ],
          [
            -114.62473229864085,
            40.85731715822749
          ],
          [
            -114.62501783534046,
            40.85606794082277
          ],
          [
            -114.62605641806459,
            40.85426587871731
          ],
          [
            -114.62669535559021,
            40.85196336967332
          ]
        ]
      },
      "properties": {
        "fault_name": "Independence Valley fault zone",
        "age": "late Quaternary",
        "slip_rate": "Less than 0.2 mm/yr"
      }
    },
    {
      "type": "Feature",
      "geometry": {
        "type": "LineString",
        "coordinates": [
          [
            -114.62594582377506,
            40.850559489252014
          ],
          [
            -114.62554131689417,
            40.84668096792451
          ],
          [
            -114.62501783534046,
            40.84434909630156
          ],
          [
            -114.62461332576464,
            40.84277865101263
          ],
          [
            -114.62435158543695,
            40.84023262710767
          ],
          [
            -114.62380430840966,
            40.83935222797716
          ]
        ]
      },
      "properties": {
        "fault_name": "Independence Valley fault zone",
        "age": "late Quaternary",
        "slip_rate": "Less than 0.2 mm/yr"
      }
    },
    {
      "type": "Feature",
      "geometry": {
        "type": "LineString",
        "coordinates": [
          [
            -114.62102376658545,
            40.817433250037446
          ],
          [
            -114.6217138101659,
            40.81560106726423
          ],
          [
            -114.62283215699907,
            40.81355473008068
          ],
          [
            -114.6241884495847,
            40.810509020188164
          ],
          [
            -114.62568587289135,
            40.80740370325822
          ]
        ]
      },
      "properties": {
        "fault_name": "Independence Valley fault zone",
        "age": "late Quaternary",
        "slip_rate": "Less than 0.2 mm/yr"
      }
    },
    {
      "type": "Feature",
      "geometry": {
        "type": "LineString",
        "coordinates": [
          [
            -114.62285252539982,
            40.83863838918473
          ],
          [
            -114.62389948760895,
            40.83518817133652
          ],
          [
            -114.62325703317899,
            40.83366531532478
          ],
          [
            -114.62095539041927,
            40.83090526876496
          ],
          [
            -114.62013153738738,
            40.82886813885095
          ],
          [
            -114.61907100792251,
            40.82715933728062
          ],
          [
            -114.61766716032238,
            40.82494333890095
          ]
        ]
      },
      "properties": {
        "fault_name": "Independence Valley fault zone",
        "age": "late Quaternary",
        "slip_rate": "Less than 0.2 mm/yr"
      }
    },
    {
      "type": "Feature",
      "geometry": {
        "type": "LineString",
        "coordinates": [
          [
            -114.62273177296102,
            40.768853482268376
          ],
          [
            -114.61931962655886,
            40.76701177781338
          ],
          [
            -114.61623584493577,
            40.76599812772649
          ],
          [
            -114.61244679059325,
            40.764832787875605
          ],
          [
            -114.6107050264276,
            40.76292683821018
          ],
          [
            -114.61002069164077,
            40.76223013296839
          ],
          [
            -114.60806953377569,
            40.76126645122943
          ],
          [
            -114.60624924697277,
            40.75971980074509
          ],
          [
            -114.60502382455097,
            40.75839920108504
          ],
          [
            -114.60452413667419,
            40.75726895598828
          ]
        ]
      },
      "properties": {
        "fault_name": "Independence Valley fault zone",
        "age": "late Quaternary",
        "slip_rate": "Less than 0.2 mm/yr"
      }
    },
    {
      "type": "Feature",
      "geometry": {
        "type": "LineString",
        "coordinates": [
          [
            -114.6551564164289,
            40.66094956398964
          ],
          [
            -114.65733799485933,
            40.65814169430574
          ],
          [
            -114.66017619505006,
            40.65384268268136
          ],
          [
            -114.66203000877601,
            40.65136316313452
          ],
          [
            -114.66472325771082,
            40.648345283207
          ],
          [
            -114.66758427960131,
            40.64516406714556
          ],
          [
            -114.6697125537994,
            40.642958990691504
          ],
          [
            -114.67181083055522,
            40.64079947095749
          ],
          [
            -114.67358800541105,
            40.63889218694376
          ],
          [
            -114.67476296856499,
            40.637499924762714
          ],
          [
            -114.67597627361191,
            40.63629432881552
          ]
        ]
      },
      "properties": {
        "fault_name": "Independence Valley fault zone",
        "age": "undifferentiated Quaternary",
        "slip_rate": "Less than 0.2 mm/yr"
      }
    },
    {
      "type": "Feature",
      "geometry": {
        "type": "LineString",
        "coordinates": [
          [
            -114.56915398296667,
            41.03458148587989
          ],
          [
            -114.56856673540082,
            41.03316983696196
          ],
          [
            -114.56746779936428,
            41.03136930421329
          ],
          [
            -114.56682721702342,
            41.02978265599148
          ],
          [
            -114.56603384832066,
            41.02826434033555
          ],
          [
            -114.56466768235174,
            41.02618547571212
          ],
          [
            -114.56241703695069,
            41.024354390265856
          ],
          [
            -114.56040306977924,
            41.02335107270113
          ],
          [
            -114.5584113260296,
            41.02257275297072
          ],
          [
            -114.55669514767992,
            41.02175665274033
          ],
          [
            -114.55431450078589,
            41.02077222390053
          ],
          [
            -114.5531544532589,
            41.01931113122327
          ],
          [
            -114.55226941687131,
            41.017888370703325
          ],
          [
            -114.55142271159691,
            41.01553839710756
          ]
        ]
      },
      "properties": {
        "fault_name": "unnamed fault south of Pequop Summit",
        "age": "undifferentiated Quaternary",
        "slip_rate": "Less than 0.2 mm/yr"
      }
    },
    {
      "type": "Feature",
      "geometry": {
        "type": "LineString",
        "coordinates": [
          [
            -114.4767283032705,
            41.08104793666837
          ],
          [
            -114.47794890443414,
            41.078766845207795
          ],
          [
            -114.47868170512717,
            41.076565751720814
          ],
          [
            -114.47966562716292,
            41.07380021984769
          ]
        ]
      },
      "properties": {
        "fault_name": "Goshute Valley fault zone",
        "age": "late Quaternary",
        "slip_rate": "Less than 0.2 mm/yr"
      }
    },
    {
      "type": "Feature",
      "geometry": {
        "type": "LineString",
        "coordinates": [
          [
            -114.46913689502762,
            41.07753855208925
          ],
          [
            -114.47021248744319,
            41.07490635175093
          ],
          [
            -114.47108251657563,
            41.07337302921225
          ],
          [
            -114.47279146797888,
            41.07084360367836
          ]
        ]
      },
      "properties": {
        "fault_name": "Goshute Valley fault zone",
        "age": "undifferentiated Quaternary",
        "slip_rate": "Less than 0.2 mm/yr"
      }
    },
    {
      "type": "Feature",
      "geometry": {
        "type": "LineString",
        "coordinates": [
          [
            -114.45673089595093,
            41.09946116282291
          ],
          [
            -114.4570892411043,
            41.09755395703156
          ],
          [
            -114.45824928234306,
            41.09552841677889
          ],
          [
            -114.45931709714489,
            41.09341898867349
          ],
          [
            -114.4603932456176,
            41.09047401376778
          ],
          [
            -114.46100326637422,
            41.08863902915946
          ],
          [
            -114.46222442000176,
            41.08628904709613
          ],
          [
            -114.463353348989,
            41.08409573218299
          ],
          [
            -114.4647878444117,
            41.08186019105007
          ],
          [
            -114.46597010907229,
            41.07989576274952
          ]
        ]
      },
      "properties": {
        "fault_name": "Goshute Valley fault zone",
        "age": "undifferentiated Quaternary",
        "slip_rate": "Less than 0.2 mm/yr"
      }
    },
    {
      "type": "Feature",
      "geometry": {
        "type": "LineString",
        "coordinates": [
          [
            -114.43971693831868,
            41.11637550922267
          ],
          [
            -114.44019750735129,
            41.113094981113576
          ],
          [
            -114.44057140593546,
            41.110668892275264
          ],
          [
            -114.44121198198815,
            41.10860891029854
          ],
          [
            -114.442165904785,
            41.106068374925094
          ],
          [
            -114.4429287083102,
            41.10430616619921
          ],
          [
            -114.44401207564454,
            41.10096841680566
          ],
          [
            -114.44490488515427,
            41.098683435252916
          ],
          [
            -114.44593492130683,
            41.09678733695384
          ],
          [
            -114.44714774126348,
            41.09482290671931
          ],
          [
            -114.44904003342633,
            41.092656255816124
          ],
          [
            -114.45121455559018,
            41.089509054124306
          ],
          [
            -114.45236682191018,
            41.08784573169021
          ],
          [
            -114.453335742979,
            41.08617852268976
          ],
          [
            -114.45415188217757,
            41.084511867233836
          ],
          [
            -114.4549380221372,
            41.08273021571353
          ],
          [
            -114.45708920966327,
            41.07919413080488
          ],
          [
            -114.45882149211106,
            41.075398605770374
          ],
          [
            -114.4593631771257,
            41.0736397323155
          ],
          [
            -114.46037043379927,
            41.07144252918244
          ],
          [
            -114.46067544238095,
            41.06972198786589
          ]
        ]
      },
      "properties": {
        "fault_name": "Goshute Valley fault zone",
        "age": "undifferentiated Quaternary",
        "slip_rate": "Less than 0.2 mm/yr"
      }
    },
    {
      "type": "Feature",
      "geometry": {
        "type": "LineString",
        "coordinates": [
          [
            -114.45204624462632,
            41.083416885087644
          ],
          [
            -114.45238958521949,
            41.08084579799425
          ],
          [
            -114.45306849687692,
            41.07846526076443
          ],
          [
            -114.45380130026489,
            41.0759475067462
          ],
          [
            -114.45432742556049,
            41.07367808130283
          ],
          [
            -114.45460187794778,
            41.0718203198037
          ],
          [
            -114.45524301185426,
            41.0697831156987
          ],
          [
            -114.45580025299468,
            41.06880312320703
          ]
        ]
      },
      "properties": {
        "fault_name": "Goshute Valley fault zone",
        "age": "undifferentiated Quaternary",
        "slip_rate": "Less than 0.2 mm/yr"
      }
    },
    {
      "type": "Feature",
      "geometry": {
        "type": "LineString",
        "coordinates": [
          [
            -114.44812442557297,
            41.083653563163494
          ],
          [
            -114.44892556470292,
            41.081246361335786
          ],
          [
            -114.4492305723863,
            41.07891193933021
          ],
          [
            -114.44945224425906,
            41.07682529021252
          ],
          [
            -114.44987947941493,
            41.07483030800468
          ],
          [
            -114.45030671457079,
            41.072770324810286
          ],
          [
            -114.45077228263646,
            41.07006534907178
          ]
        ]
      },
      "properties": {
        "fault_name": "Goshute Valley fault zone",
        "age": "undifferentiated Quaternary",
        "slip_rate": "Less than 0.2 mm/yr"
      }
    },
    {
      "type": "Feature",
      "geometry": {
        "type": "LineString",
        "coordinates": [
          [
            -114.43918243084316,
            41.09212962612682
          ],
          [
            -114.44012857422965,
            41.08982186606323
          ],
          [
            -114.4408308196266,
            41.08808632482728
          ],
          [
            -114.44194474944351,
            41.08648411321118
          ],
          [
            -114.44282200103085,
            41.08479801530166
          ],
          [
            -114.44397426285927,
            41.081524708889795
          ],
          [
            -114.44433260531768,
            41.07817918331157
          ],
          [
            -114.44469094687778,
            41.07631808929246
          ],
          [
            -114.44502706860932,
            41.07439532676715
          ],
          [
            -114.44658323365073,
            41.07025647166392
          ],
          [
            -114.44756771174364,
            41.06789871486791
          ]
        ]
      },
      "properties": {
        "fault_name": "Goshute Valley fault zone",
        "age": "undifferentiated Quaternary",
        "slip_rate": "Less than 0.2 mm/yr"
      }
    },
    {
      "type": "Feature",
      "geometry": {
        "type": "LineString",
        "coordinates": [
          [
            -114.7862997238225,
            40.6800543893397
          ],
          [
            -114.78685636129505,
            40.67791049609544
          ],
          [
            -114.78775690440106,
            40.676228265942754
          ],
          [
            -114.7884813363889,
            40.67472159372355
          ],
          [
            -114.78962575143332,
            40.671928807312696
          ],
          [
            -114.79107573111658,
            40.66920157396361
          ],
          [
            -114.79215126963322,
            40.66703489794777
          ],
          [
            -114.79283013457825,
            40.665093228015415
          ],
          [
            -114.79373067409101,
            40.6631476637949
          ],
          [
            -114.79488231967514,
            40.660817100245566
          ],
          [
            -114.79560730682182,
            40.65926820819088
          ],
          [
            -114.79650729387069,
            40.65755931172484
          ],
          [
            -114.79784283627158,
            40.65528541327292
          ],
          [
            -114.79872005012967,
            40.65383207216799
          ],
          [
            -114.79912448963691,
            40.653092069718554
          ]
        ]
      },
      "properties": {
        "fault_name": "Spruce Mountain Ridge fault zone",
        "age": "undifferentiated Quaternary",
        "slip_rate": "Less than 0.2 mm/yr"
      }
    },
    {
      "type": "Feature",
      "geometry": {
        "type": "LineString",
        "coordinates": [
          [
            -114.77540477729197,
            40.6958817080042
          ],
          [
            -114.77573308637548,
            40.69433670628622
          ],
          [
            -114.77651084864677,
            40.69260503210691
          ],
          [
            -114.77726639378449,
            40.691170580863165
          ],
          [
            -114.77831916360194,
            40.68943501607817
          ],
          [
            -114.77934913777072,
            40.68696667494201
          ],
          [
            -114.78002799642756,
            40.68470833568339
          ],
          [
            -114.78021909234302,
            40.68369389108556
          ]
        ]
      },
      "properties": {
        "fault_name": "Spruce Mountain Ridge fault zone",
        "age": "undifferentiated Quaternary",
        "slip_rate": "Less than 0.2 mm/yr"
      }
    },
    {
      "type": "Feature",
      "geometry": {
        "type": "LineString",
        "coordinates": [
          [
            -114.77329157143446,
            40.704567836208
          ],
          [
            -114.7741765117023,
            40.700608385182726
          ]
        ]
      },
      "properties": {
        "fault_name": "Spruce Mountain Ridge fault zone",
        "age": "undifferentiated Quaternary",
        "slip_rate": "Less than 0.2 mm/yr"
      }
    },
    {
      "type": "Feature",
      "geometry": {
        "type": "LineString",
        "coordinates": [
          [
            -114.77239172811603,
            40.71333006300497
          ],
          [
            -114.7731849459018,
            40.70677283721127
          ]
        ]
      },
      "properties": {
        "fault_name": "Spruce Mountain Ridge fault zone",
        "age": "undifferentiated Quaternary",
        "slip_rate": "Less than 0.2 mm/yr"
      }
    }
  ]
}