{
  "type": "FeatureCollection",
  "features": [
    {
      "type": "Feature",
      "geometry": {
        "type": "LineString",
        "coordinates": [
          [
            -113.907790068387,
            35.1710338331908
          ],
          [
            -113.906296047899,
            35.1719935623902
          ],
          [
            -113.903512972826,
            35.1759314977162
          ]
        ]
      },
      "properties": {
        "STATE": "AZ",
        "DESCRIPTION": "Fault, sense of displacement unknown or undefined, certain",
        "RuleID": 22
      }
    },
    {
      "type": "Feature",
      "geometry": {
        "type": "LineString",
        "coordinates": [
          [
            -114.046499981539,
            35.140027351159
          ],
          [
            -114.056851058352,
            35.1566519078268
          ],
          [
            -114.06544923728,
            35.16697265015
          ]
        ]
      },
      "properties": {
        "STATE": "AZ",
        "DESCRIPTION": "Fault, sense of displacement unknown or undefined, certain",
        "RuleID": 22
      }
    },
    {
      "type": "Feature",
      "geometry": {
        "type": "LineString",
        "coordinates": [
          [
            -113.903512972826,
            35.1759314977162
          ],
          [
            -113.901557514725,
            35.1782113984084
          ]
        ]
      },
      "properties": {
        "STATE": "AZ",
        "DESCRIPTION": "Fault, sense of displacement unknown or undefined, certain",
        "RuleID": 22
      }
    },
    {
      "type": "Feature",
      "geometry": {
        "type": "LineString",
        "coordinates": [
          [
            -113.937498079774,
            35.1252195894796
          ],
          [
            -113.934117870277,
            35.1327891648917
          ],
          [
            -113.93268265171,
            35.1346626037247
          ],
          [
            -113.928621721348,
            35.13838190116
          ],
          [
            -113.926803771064,
            35.1406092823003
          ],
          [
            -113.923316133838,
            35.14773052289
          ],
          [
            -113.921711827182,
            35.1520527305377
          ],
          [
            -113.920037423188,
            35.1548646603458
          ],
          [
            -113.910042805067,
            35.1683365949622
          ],
          [
            -113.907790068387,
            35.1710338331908
          ]
        ]
      },
      "properties": {
        "STATE": "AZ",
        "DESCRIPTION": "Fault, sense of displacement unknown or undefined, certain",
        "RuleID": 22
      }
    },
    {
      "type": "Feature",
      "geometry": {
        "type": "LineString",
        "coordinates": [
          [
            -114.033685074735,
            35.126201173378
          ],
          [
            -114.034593508642,
            35.127825510928
          ],
          [
            -114.04389147338,
            35.1385855568934
          ],
          [
            -114.046499981539,
            35.140027351159
          ]
        ]
      },
      "properties": {
        "STATE": "AZ",
        "DESCRIPTION": "Fault, sense of displacement unknown or undefined, certain",
        "RuleID": 22
      }
    },
    {
      "type": "Feature",
      "geometry": {
        "type": "LineString",
        "coordinates": [
          [
            -114.037719179605,
            35.3656396863036
          ],
          [
            -114.043658252766,
            35.3717472637925
          ],
          [
            -114.049459636651,
            35.3814788526103
          ],
          [
            -114.05573196951,
            35.3934874140444
          ],
          [
            -114.06415680503,
            35.4051097536782
          ],
          [
            -114.069576865755,
            35.4119027619252
          ],
          [
            -114.073818531762,
            35.4187795886247
          ],
          [
            -114.074804002493,
            35.4217579335918
          ],
          [
            -114.073895637756,
            35.4261273899335
          ]
        ]
      },
      "properties": {
        "STATE": "AZ",
        "DESCRIPTION": "Fault, sense of displacement unknown or undefined, certain",
        "RuleID": 22
      }
    },
    {
      "type": "Feature",
      "geometry": {
        "type": "LineString",
        "coordinates": [
          [
            -114.374606422197,
            35.1900340425164
          ],
          [
            -114.352911432552,
            35.1730659898026
          ],
          [
            -114.333227286637,
            35.1567413757014
          ],
          [
            -114.328387359719,
            35.1524698922773
          ],
          [
            -114.324719595906,
            35.1477942657517
          ],
          [
            -114.320178378582,
            35.1410539130521
          ],
          [
            -114.317475161941,
            35.1377326926766
          ],
          [
            -114.312496106647,
            35.135987728679
          ]
        ]
      },
      "properties": {
        "STATE": "AZ",
        "DESCRIPTION": "Fault, sense of displacement unknown or undefined, certain",
        "RuleID": 22
      }
    },
    {
      "type": "Feature",
      "geometry": {
        "type": "LineString",
        "coordinates": [
          [
            -113.93979551213,
            35.1200827139598
          ],
          [
            -113.937498079774,
            35.1252195894796
          ]
        ]
      },
      "properties": {
        "STATE": "AZ",
        "DESCRIPTION": "Fault, sense of displacement unknown or undefined, certain",
        "RuleID": 22
      }
    },
    {
      "type": "Feature",
      "geometry": {
        "type": "LineString",
        "coordinates": [
          [
            -114.016826611885,
            35.1347969405735
          ],
          [
            -114.020366693655,
            35.140907295412
          ],
          [
            -114.022099016527,
            35.1426148215499
          ],
          [
            -114.026134684466,
            35.1457158485637
          ],
          [
            -114.028180736765,
            35.1478232714147
          ],
          [
            -114.03283549575,
            35.1534028757847
          ],
          [
            -114.03617556852,
            35.1580621539763
          ],
          [
            -114.043315317313,
            35.1702416703928
          ],
          [
            -114.049907169241,
            35.185406456959
          ]
        ]
      },
      "properties": {
        "STATE": "AZ",
        "DESCRIPTION": "Fault, sense of displacement unknown or undefined, certain",
        "RuleID": 22
      }
    },
    {
      "type": "Feature",
      "geometry": {
        "type": "LineString",
        "coordinates": [
          [
            -114.02729463228,
            35.1190516450168
          ],
          [
            -114.029135814795,
            35.1218243846686
          ],
          [
            -114.031138371566,
            35.1239576474415
          ],
          [
            -114.033685074735,
            35.126201173378
          ]
        ]
      },
      "properties": {
        "STATE": "AZ",
        "DESCRIPTION": "Fault, sense of displacement unknown or undefined, certain",
        "RuleID": 22
      }
    },
    {
      "type": "Feature",
      "geometry": {
        "type": "LineString",
        "coordinates": [
          [
            -114.073895637756,
            35.4261273899335
          ],
          [
            -114.074300581218,
            35.4273653176874
          ],
          [
            -114.073199671583,
            35.4332290023968
          ],
          [
            -114.073499582225,
            35.4359386559106
          ],
          [
            -114.075498207968,
            35.4438863870125
          ],
          [
            -114.078395430168,
            35.4521581255486
          ]
        ]
      },
      "properties": {
        "STATE": "AZ",
        "DESCRIPTION": "Fault, sense of displacement unknown or undefined, certain",
        "RuleID": 22
      }
    },
    {
      "type": "Feature",
      "geometry": {
        "type": "LineString",
        "coordinates": [
          [
            -114.31351076454,
            35.0794581547336
          ],
          [
            -114.318902116007,
            35.081403661564
          ],
          [
            -114.322607570434,
            35.0840417951893
          ],
          [
            -114.326455848907,
            35.0878992865351
          ],
          [
            -114.329875695668,
            35.0930075919377
          ],
          [
            -114.333429354575,
            35.1001105463255
          ],
          [
            -114.338031688778,
            35.1112016210218
          ],
          [
            -114.34518352081,
            35.1253357471071
          ],
          [
            -114.358029052979,
            35.1550488101854
          ],
          [
            -114.364121370642,
            35.1672170597921
          ],
          [
            -114.37050426635,
            35.1834142007742
          ],
          [
            -114.374606422197,
            35.1900340425164
          ],
          [
            -114.377278270566,
            35.1959704487109
          ],
          [
            -114.385670789193,
            35.2060026974366
          ],
          [
            -114.38916637022,
            35.2115958195182
          ],
          [
            -114.396152665203,
            35.2243318898348
          ],
          [
            -114.403751348901,
            35.2397988500651
          ],
          [
            -114.407751716643,
            35.2500925536517
          ],
          [
            -114.418524036849,
            35.283631955357
          ],
          [
            -114.425835219233,
            35.3050912314867
          ],
          [
            -114.434101255067,
            35.3251349782721
          ],
          [
            -114.436061537121,
            35.3312364083385
          ],
          [
            -114.438323404276,
            35.3405148019795
          ],
          [
            -114.440339021653,
            35.3461279333395
          ],
          [
            -114.444219308896,
            35.3535915455539
          ],
          [
            -114.454128943697,
            35.3676368110198
          ],
          [
            -114.45729972446,
            35.3728605868235
          ],
          [
            -114.459863805539,
            35.3797597619819
          ],
          [
            -114.46611478185,
            35.4012642188572
          ],
          [
            -114.466507626802,
            35.4115800206647
          ],
          [
            -114.465409628607,
            35.4224207404236
          ],
          [
            -114.467209359261,
            35.4357599695931
          ]
        ]
      },
      "properties": {
        "STATE": "AZ",
        "DESCRIPTION": "Normal fault, certain, (U/D designated in source)",
        "RuleID": 43
      }
    },
    {
      "type": "Feature",
      "geometry": {
        "type": "LineString",
        "coordinates": [
          [
            -114.334647839308,
            35.4111342156175
          ],
          [
            -114.332700238771,
            35.4014710026185
          ],
          [
            -114.33115842252,
            35.3971563353138
          ],
          [
            -114.321188687731,
            35.3795897614405
          ],
          [
            -114.318232682474,
            35.3737682349048
          ],
          [
            -114.312374475656,
            35.3573448653017
          ],
          [
            -114.306564871287,
            35.3451914606878
          ],
          [
            -114.303286297181,
            35.333786371598
          ],
          [
            -114.300033393333,
            35.32517868381
          ],
          [
            -114.296236594614,
            35.3167389226126
          ],
          [
            -114.290643914523,
            35.3066153575244
          ]
        ]
      },
      "properties": {
        "STATE": "AZ",
        "DESCRIPTION": "Normal fault, certain, (U/D designated in source)",
        "RuleID": 43
      }
    },
    {
      "type": "Feature",
      "geometry": {
        "type": "LineString",
        "coordinates": [
          [
            -114.330802105762,
            35.2746785872971
          ],
          [
            -114.34414944134,
            35.2996381078435
          ],
          [
            -114.345613423064,
            35.3039661074265
          ],
          [
            -114.351246922602,
            35.3246477074173
          ],
          [
            -114.358708639271,
            35.3453817308543
          ],
          [
            -114.359283994041,
            35.347118528635
          ],
          [
            -114.359311710661,
            35.3484672756334
          ],
          [
            -114.362168596708,
            35.3547343415718
          ],
          [
            -114.365162877382,
            35.3652487991003
          ],
          [
            -114.371230434781,
            35.398208963094
          ],
          [
            -114.373258348297,
            35.4066098015058
          ],
          [
            -114.375031453785,
            35.4113341798119
          ],
          [
            -114.377242309209,
            35.4159539069316
          ],
          [
            -114.38240342696,
            35.424048283255
          ]
        ]
      },
      "properties": {
        "STATE": "AZ",
        "DESCRIPTION": "Normal fault, certain, (U/D designated in source)",
        "RuleID": 43
      }
    }
  ]
}