{
  "type": "FeatureCollection",
  "features": [
    {
      "type": "Feature",
      "geometry": {
        "type": "LineString",
        "coordinates": [
          [
            -109.23601679944774,
            33.018379812623735
          ],
          [
            -109.23368514936426,
            33.01786150126615
          ],
          [
            -109.23172114559061,
            33.01740049277596
          ],
          [
            -109.22890068533012,
            33.01567843375356
          ],
          [
            -109.22688548387347,
            33.01437302574339
          ],
          [
            -109.2261521154452,
            33.01413897381823
          ],
          [
            -109.22522539363517,
            33.01401782233493
          ]
        ]
      },
      "properties": {
        "fault_name": "Clifton faults",
        "age": "undifferentiated Quaternary",
        "slip_rate": "Less than 0.2 mm/yr"
      }
    },
    {
      "type": "Feature",
      "geometry": {
        "type": "LineString",
        "coordinates": [
          [
            -109.29454241839885,
            33.04879321266353
          ],
          [
            -109.29168750505228,
            33.047969389360595
          ],
          [
            -109.28977119912525,
            33.046866865848536
          ],
          [
            -109.28711237363216,
            33.0460282838515
          ],
          [
            -109.28502233442751,
            33.04504876595793
          ],
          [
            -109.28111235606795,
            33.042510420282056
          ],
          [
            -109.27956670490863,
            33.041541783037026
          ],
          [
            -109.27851015857372,
            33.041482732972945
          ]
        ]
      },
      "properties": {
        "fault_name": "Clifton faults",
        "age": "undifferentiated Quaternary",
        "slip_rate": "Less than 0.2 mm/yr"
      }
    },
    {
      "type": "Feature",
      "geometry": {
        "type": "LineString",
        "coordinates": [
          [
            -109.27325497104249,
            33.04369036863053
          ],
          [
            -109.27006176383802,
            33.04113805484449
          ]
        ]
      },
      "properties": {
        "fault_name": "Clifton faults",
        "age": "undifferentiated Quaternary",
        "slip_rate": "Less than 0.2 mm/yr"
      }
    },
    {
      "type": "Feature",
      "geometry": {
        "type": "LineString",
        "coordinates": [
          [
            -109.27123484412314,
            33.040114856256835
          ],
          [
            -109.27069663558865,
            33.03847170481474
          ],
          [
            -109.26880863557624,
            33.03624210128473
          ],
          [
            -109.2671791895672,
            33.03481716117557
          ],
          [
            -109.26533502015414,
            33.032990536667704
          ],
          [
            -109.26474148168636,
            33.03220533294575
          ],
          [
            -109.26398613687294,
            33.03175786072546
          ],
          [
            -109.2637972454232,
            33.03158548134226
          ],
          [
            -109.26359034904024,
            33.03143522383161
          ],
          [
            -109.26080034885442,
            33.029145223319695
          ],
          [
            -109.25856073386673,
            33.026408124852225
          ],
          [
            -109.25520245134733,
            33.02415189529959
          ],
          [
            -109.25054335170267,
            33.021483237869724
          ]
        ]
      },
      "properties": {
        "fault_name": "Clifton faults",
        "age": "undifferentiated Quaternary",
        "slip_rate": "Less than 0.2 mm/yr"
      }
    },
    {
      "type": "Feature",
      "geometry": {
        "type": "LineString",
        "coordinates": [
          [
            -109.27017476740917,
            33.041126344332476
          ],
          [
            -109.26614867820588,
            33.0378515486236
          ],
          [
            -109.26158049884774,
            33.03435850893764
          ],
          [
            -109.25254304823751,
            33.027935787828234
          ],
          [
            -109.2506778537552,
            33.026856225259
          ],
          [
            -109.25017490589227,
            33.02662063311523
          ]
        ]
      },
      "properties": {
        "fault_name": "Clifton faults",
        "age": "undifferentiated Quaternary",
        "slip_rate": "Less than 0.2 mm/yr"
      }
    },
    {
      "type": "Feature",
      "geometry": {
        "type": "LineString",
        "coordinates": [
          [
            -109.24785266296645,
            33.020365316302495
          ],
          [
            -109.24106186115256,
            33.015980633036676
          ]
        ]
      },
      "properties": {
        "fault_name": "Clifton faults",
        "age": "undifferentiated Quaternary",
        "slip_rate": "Less than 0.2 mm/yr"
      }
    },
    {
      "type": "Feature",
      "geometry": {
        "type": "LineString",
        "coordinates": [
          [
            -109.2452503459963,
            33.02664522388997
          ],
          [
            -109.23783034259785,
            33.02254522409169
          ]
        ]
      },
      "properties": {
        "fault_name": "Clifton faults",
        "age": "undifferentiated Quaternary",
        "slip_rate": "Less than 0.2 mm/yr"
      }
    },
    {
      "type": "Feature",
      "geometry": {
        "type": "LineString",
        "coordinates": [
          [
            -109.2210903387879,
            33.013695222950375
          ],
          [
            -109.21050033705865,
            33.00592522332306
          ]
        ]
      },
      "properties": {
        "fault_name": "Clifton faults",
        "age": "undifferentiated Quaternary",
        "slip_rate": "Less than 0.2 mm/yr"
      }
    },
    {
      "type": "Feature",
      "geometry": {
        "type": "LineString",
        "coordinates": [
          [
            -109.21918581696077,
            33.005578730694566
          ],
          [
            -109.21767467368478,
            33.00445214130842
          ],
          [
            -109.21619490227344,
            33.00342049426701
          ],
          [
            -109.21223956617854,
            33.00140014801841
          ],
          [
            -109.21081847272157,
            33.000713690845366
          ]
        ]
      },
      "properties": {
        "fault_name": "Clifton faults",
        "age": "undifferentiated Quaternary",
        "slip_rate": "Less than 0.2 mm/yr"
      }
    },
    {
      "type": "Feature",
      "geometry": {
        "type": "LineString",
        "coordinates": [
          [
            -109.20718749132632,
            33.003599848335156
          ],
          [
            -109.20483592199973,
            33.00289108604929
          ],
          [
            -109.19985007274688,
            33.000443291695035
          ]
        ]
      },
      "properties": {
        "fault_name": "Clifton faults",
        "age": "undifferentiated Quaternary",
        "slip_rate": "Less than 0.2 mm/yr"
      }
    },
    {
      "type": "Feature",
      "geometry": {
        "type": "LineString",
        "coordinates": [
          [
            -109.1800518632483,
            33.02863049621646
          ],
          [
            -109.17568637705592,
            33.02660038432051
          ],
          [
            -109.17503456128242,
            33.02621994637444
          ],
          [
            -109.17379086712775,
            33.02521248085187
          ],
          [
            -109.17203448288085,
            33.02375246796371
          ],
          [
            -109.17035682429051,
            33.022063396732904
          ],
          [
            -109.16947550872483,
            33.01941292370251
          ],
          [
            -109.16730339943584,
            33.018098966767944
          ]
        ]
      },
      "properties": {
        "fault_name": "Clifton faults",
        "age": "undifferentiated Quaternary",
        "slip_rate": "Less than 0.2 mm/yr"
      }
    },
    {
      "type": "Feature",
      "geometry": {
        "type": "LineString",
        "coordinates": [
          [
            -109.17320354769666,
            33.01503139970923
          ],
          [
            -109.17016961179205,
            33.01283459233804
          ],
          [
            -109.16484977610308,
            33.00848608709333
          ],
          [
            -109.1606184470102,
            33.00502244468724
          ],
          [
            -109.15630479630467,
            33.00021695216055
          ]
        ]
      },
      "properties": {
        "fault_name": "Clifton faults",
        "age": "undifferentiated Quaternary",
        "slip_rate": "Less than 0.2 mm/yr"
      }
    }
  ]
}