{
  "type": "FeatureCollection",
  "features": [
    {
      "type": "Feature",
      "geometry": {
        "type": "LineString",
        "coordinates": [
          [
            -81.6872023147043,
            36.5579873118059
          ],
          [
            -81.6855053549118,
            36.5602850973608
          ],
          [
            -81.6829588790163,
            36.5631588063173
          ],
          [
            -81.6811115969408,
            36.5636229974422
          ],
          [
            -81.679545031205,
            36.5636283929919
          ],
          [
            -81.6782644010208,
            36.5635176917936
          ],
          [
            -81.6775490896281,
            36.5626031769551
          ],
          [
            -81.6774028690526,
            36.5616866937496
          ],
          [
            -81.6772549138304,
            36.5604260463683
          ],
          [
            -81.6768186748604,
            36.5584793173839
          ],
          [
            -81.6763868600932,
            36.5577924081783
          ],
          [
            -81.6753905529847,
            36.5572225640055
          ],
          [
            -81.6745349184563,
            36.5569961158101
          ],
          [
            -81.6708411996199,
            36.5581540461338
          ],
          [
            -81.6641646509338,
            36.5602378543008
          ],
          [
            -81.6594741120508,
            36.5617417877296
          ],
          [
            -81.6573442550212,
            36.5623215810131
          ],
          [
            -81.6536462700855,
            36.5623326760601
          ],
          [
            -81.6524993235886,
            36.5606166753773
          ],
          [
            -81.6496400597011,
            36.5579888819547
          ],
          [
            -81.6462161336906,
            36.5553627519269
          ],
          [
            -81.6420771478157,
            36.5527386527821
          ],
          [
            -81.6373783004146,
            36.5517204046735
          ],
          [
            -81.6343913104668,
            36.5514993562352
          ],
          [
            -81.6316880120789,
            36.5515070820733
          ],
          [
            -81.6285614230376,
            36.5523181053254
          ],
          [
            -81.6267152449915,
            36.5531256649446
          ],
          [
            -81.6250120544842,
            36.5540470296607
          ],
          [
            -81.6234547800234,
            36.555885190911
          ],
          [
            -81.6223250093148,
            36.5582953136348
          ],
          [
            -81.6217676495968,
            36.5608182779602
          ],
          [
            -81.6216319240388,
            36.5620796743911
          ],
          [
            -81.6204972395455,
            36.5629995477285
          ],
          [
            -81.6196444625581,
            36.5636897722129
          ],
          [
            -81.6187951620508,
            36.5643796384305
          ],
          [
            -81.6179429492054,
            36.5651841938978
          ],
          [
            -81.6172400237838,
            36.5670198586232
          ],
          [
            -81.6153974623551,
            36.5692025268123
          ],
          [
            -81.6139792722531,
            36.5698940255302
          ],
          [
            -81.6126999805587,
            36.5702411725631
          ],
          [
            -81.610850219133,
            36.5701317094921
          ],
          [
            -81.6089948935424,
            36.5692193103902
          ],
          [
            -81.6081385843793,
            36.5686485014746
          ],
          [
            -81.6068573963413,
            36.568422713012
          ],
          [
            -81.6055775117587,
            36.5686551643068
          ],
          [
            -81.6038732810023,
            36.5693472436581
          ],
          [
            -81.6020271613468,
            36.5704980368867
          ],
          [
            -81.5993311860251,
            36.5722241743782
          ],
          [
            -81.5974912773214,
            36.5742915903018
          ],
          [
            -81.5949385006425,
            36.5773930681328
          ],
          [
            -81.5925338633405,
            36.5811814389022
          ],
          [
            -81.5888724092942,
            36.5863532523124
          ]
        ]
      },
      "properties": {
        "STATE": "NC",
        "DESCRIPTION": "Thrust fault, certain, (teeth on right from origin)",
        "RuleID": 63
      }
    },
    {
      "type": "Feature",
      "geometry": {
        "type": "LineString",
        "coordinates": [
          [
            -81.7183785487606,
            36.3480492903225
          ],
          [
            -81.7179732190229,
            36.3504156109999
          ],
          [
            -81.7165651825786,
            36.3523691756231
          ],
          [
            -81.7147248624465,
            36.3532925056682
          ],
          [
            -81.7116045499341,
            36.3535327869328
          ],
          [
            -81.7086212502654,
            36.3533135951867
          ],
          [
            -81.7062098288864,
            36.3533220085646
          ],
          [
            -81.7046514324298,
            36.3542440322901
          ],
          [
            -81.7030983845425,
            36.3557397618249
          ],
          [
            -81.7015539164644,
            36.3584959045573
          ],
          [
            -81.7008602338087,
            36.3617079707628
          ],
          [
            -81.7004416116998,
            36.3631995261347
          ],
          [
            -81.6980412162426,
            36.3660733232374
          ],
          [
            -81.6938013926804,
            36.3694114227945
          ],
          [
            -81.6896404627596,
            36.3724738187217
          ],
          [
            -81.6894180758279,
            36.3726355993296
          ],
          [
            -81.6863014895273,
            36.3740210997635
          ],
          [
            -81.6838918800502,
            36.3747166637025
          ],
          [
            -81.6820489503122,
            36.3751812005875
          ],
          [
            -81.6792098015005,
            36.3755339293334
          ],
          [
            -81.6756690091632,
            36.3771501160839
          ],
          [
            -81.6712815178396,
            36.3795711271266
          ],
          [
            -81.666330908597,
            36.3832544020649
          ],
          [
            -81.6643474751621,
            36.3844068049059
          ],
          [
            -81.6637829504813,
            36.3852109159312
          ],
          [
            -81.6637859005487,
            36.3860134081225
          ],
          [
            -81.6636514452086,
            36.3873893327362
          ],
          [
            -81.6629456891955,
            36.388652296682
          ],
          [
            -81.6622407740056,
            36.3892275960742
          ],
          [
            -81.660964889621,
            36.3896899253025
          ],
          [
            -81.6603989959078,
            36.3901500946548
          ],
          [
            -81.6592662230294,
            36.3907264857438
          ],
          [
            -81.6581356905494,
            36.3919910044266
          ],
          [
            -81.65714888043,
            36.3935986165755
          ],
          [
            -81.6557475094851,
            36.398073284432
          ],
          [
            -81.6542018807837,
            36.4011729819249
          ],
          [
            -81.651093260743,
            36.4045061262675
          ],
          [
            -81.6468469333781,
            36.4080721740863
          ],
          [
            -81.6427390732294,
            36.4106057724242
          ],
          [
            -81.6401907342281,
            36.4118741274564
          ],
          [
            -81.6369286190548,
            36.4131442416233
          ],
          [
            -81.6338109673522,
            36.415101879835
          ],
          [
            -81.6321099777173,
            36.4156797673431
          ],
          [
            -81.6305492168949,
            36.4154546204823
          ],
          [
            -81.6295517958754,
            36.4149990793765
          ],
          [
            -81.6255731413124,
            36.4144368827154
          ],
          [
            -81.6208927614769,
            36.4155957559078
          ],
          [
            -81.6170641192781,
            36.4174402390524
          ],
          [
            -81.6129556958858,
            36.4202021042518
          ],
          [
            -81.6088469760494,
            36.4229638278588
          ],
          [
            -81.6063005621377,
            36.4252629625411
          ],
          [
            -81.603332742238,
            36.4288239209945
          ],
          [
            -81.6024570636007,
            36.4304444378508
          ],
          [
            -81.601780202797,
            36.4316937098314
          ],
          [
            -81.6005108195202,
            36.4336453601878
          ],
          [
            -81.5988119463161,
            36.4352545467659
          ],
          [
            -81.5975354241277,
            36.4359454859375
          ],
          [
            -81.5958335029399,
            36.4364082208736
          ],
          [
            -81.5941270515481,
            36.4365270877072
          ],
          [
            -81.5921382533742,
            36.4366465361381
          ],
          [
            -81.5900098093946,
            36.4366520041413
          ],
          [
            -81.5877333167679,
            36.4359698515074
          ],
          [
            -81.5847466717731,
            36.4354037406559
          ],
          [
            -81.5814780797466,
            36.4348386822979
          ],
          [
            -81.5786387207292,
            36.4347304463342
          ],
          [
            -81.5759404780597,
            36.435195504112
          ],
          [
            -81.573810241941,
            36.4357736720993
          ],
          [
            -81.5719654589786,
            36.4363509005928
          ],
          [
            -81.5698392023967,
            36.4372728512656
          ],
          [
            -81.5677141630319,
            36.4387676877506
          ],
          [
            -81.5644510677966,
            36.4406093440396
          ],
          [
            -81.5607680757431,
            36.4433683667129
          ],
          [
            -81.5567996664658,
            36.4461281432508
          ],
          [
            -81.5518335558947,
            36.4486606357921
          ],
          [
            -81.5474334881572,
            36.450274725153
          ],
          [
            -81.5453065910764,
            36.45119624521
          ],
          [
            -81.5399171296647,
            36.4547606308773
          ],
          [
            -81.5353789495455,
            36.4574060971843
          ],
          [
            -81.5312711675502,
            36.4613114922779
          ],
          [
            -81.5281557203134,
            36.4648709823108
          ],
          [
            -81.5264538934486,
            36.4660205829139
          ],
          [
            -81.5241787869224,
            36.4662543678758
          ],
          [
            -81.5211963523314,
            36.4663744669609
          ],
          [
            -81.5177847772577,
            36.4662663999713
          ],
          [
            -81.5156514724941,
            36.4660410949703
          ],
          [
            -81.5133793834089,
            36.4658157777556
          ],
          [
            -81.5109605185894,
            36.4655908695081
          ],
          [
            -81.509399344542,
            36.4655937527568
          ],
          [
            -81.5075533075314,
            36.4660556491138
          ],
          [
            -81.5064178450971,
            36.466401615167
          ],
          [
            -81.5047156642962,
            36.4675506259743
          ],
          [
            -81.502446165054,
            36.4692742424537
          ],
          [
            -81.5009072458694,
            36.4706409944213
          ],
          [
            -81.4994672365875,
            36.4719155742692
          ],
          [
            -81.4976218508555,
            36.4730648652539
          ],
          [
            -81.4952076429025,
            36.4737566884668
          ],
          [
            -81.4933618394539,
            36.4744476372336
          ],
          [
            -81.4925124769629,
            36.4752513008274
          ],
          [
            -81.4912350420861,
            36.4763996755444
          ],
          [
            -81.4886835589813,
            36.4786963053084
          ],
          [
            -81.4817284112845,
            36.4826045932448
          ],
          [
            -81.4767570078397,
            36.4844464495059
          ],
          [
            -81.4723520775215,
            36.4852550882974
          ],
          [
            -81.4683720925536,
            36.4856052104337
          ],
          [
            -81.4626880681703,
            36.4867597202571
          ],
          [
            -81.4565785828039,
            36.4874560160617
          ],
          [
            -81.4514620125075,
            36.4879212502798
          ],
          [
            -81.4470523399829,
            36.4874685915968
          ],
          [
            -81.4443543200957,
            36.4873574996877
          ],
          [
            -81.44321477931,
            36.4875883133048
          ],
          [
            -81.441510906083,
            36.4885077323861
          ],
          [
            -81.44051747538,
            36.4888522267219
          ],
          [
            -81.4398066007664,
            36.488853381553
          ],
          [
            -81.4369617063302,
            36.4882836764901
          ],
          [
            -81.435682287075,
            36.4879414546484
          ],
          [
            -81.4344031975015,
            36.4880574951504
          ],
          [
            -81.4329810835584,
            36.4882884569049
          ],
          [
            -81.4311344024558,
            36.4890928140036
          ],
          [
            -81.4290047996494,
            36.4898976747978
          ],
          [
            -81.4274402946489,
            36.490358121287
          ],
          [
            -81.4254533730557,
            36.490589440173
          ],
          [
            -81.4227518138062,
            36.4903633096206
          ],
          [
            -81.4196213090086,
            36.489794045379
          ],
          [
            -81.4180593642066,
            36.4895662030234
          ],
          [
            -81.4163515249177,
            36.4896823227017
          ],
          [
            -81.4132294894366,
            36.4923223003089
          ],
          [
            -81.4098212084851,
            36.494846980323
          ],
          [
            -81.4075489756694,
            36.4963389804191
          ],
          [
            -81.4059872195137,
            36.4971430054981
          ],
          [
            -81.4028606798797,
            36.4982922234334
          ],
          [
            -81.4001593092764,
            36.4994412365618
          ],
          [
            -81.3953277905894,
            36.5010505382953
          ],
          [
            -81.3930548714609,
            36.5017395315593
          ],
          [
            -81.3914929302522,
            36.5024287288216
          ],
          [
            -81.3860928992629,
            36.5048401914575
          ],
          [
            -81.3775617759777,
            36.5074835160225
          ],
          [
            -81.3684682022218,
            36.511042329309
          ],
          [
            -81.3636320311599,
            36.5117333599617
          ],
          [
            -81.3610728827307,
            36.5116205823137
          ],
          [
            -81.3597932954905,
            36.5110483097501
          ],
          [
            -81.3590824235719,
            36.5104752575065
          ],
          [
            -81.3587966703784,
            36.5097881369426
          ],
          [
            -81.3583712192766,
            36.5092146724759
          ],
          [
            -81.3585111327804,
            36.5081833707361
          ],
          [
            -81.3590767587957,
            36.5053176209462
          ],
          [
            -81.3595025665286,
            36.503024619647
          ],
          [
            -81.3590737979486,
            36.5023374278925
          ],
          [
            -81.3582232371049,
            36.5019937885684
          ],
          [
            -81.3572264053802,
            36.5017653257134
          ],
          [
            -81.3552355213183,
            36.5019958530474
          ],
          [
            -81.3526765175179,
            36.5026847844646
          ],
          [
            -81.3498343072478,
            36.5045200776097
          ],
          [
            -81.346566261397,
            36.5076165234837
          ],
          [
            -81.3433004478597,
            36.5130049685555
          ],
          [
            -81.3410256997612,
            36.5165591492708
          ],
          [
            -81.338894382071,
            36.5177063412566
          ],
          [
            -81.3363346443469,
            36.5187391072666
          ],
          [
            -81.3342035997445,
            36.5193127552834
          ],
          [
            -81.3323552765216,
            36.5195427307821
          ],
          [
            -81.328273825944,
            36.5205824987772
          ],
          [
            -81.3269495717729,
            36.520919920689
          ],
          [
            -81.317424591085,
            36.5229860324499
          ],
          [
            -81.30931874373,
            36.5248216837873
          ],
          [
            -81.3049092311056,
            36.5266562874499
          ],
          [
            -81.2985102501641,
            36.5295224453641
          ],
          [
            -81.2913983949593,
            36.5337633261019
          ],
          [
            -81.2830046761833,
            36.5384629913927
          ],
          [
            -81.2751826434576,
            36.5430469991843
          ],
          [
            -81.2677822601632,
            36.5470574407939
          ],
          [
            -81.2655060585906,
            36.548317788122
          ],
          [
            -81.2616669707817,
            36.5495778175779
          ],
          [
            -81.258676376793,
            36.550379979047
          ],
          [
            -81.2564014184887,
            36.5508377139162
          ],
          [
            -81.2536970582922,
            36.5512953926733
          ],
          [
            -81.2514216984411,
            36.5517533292299
          ],
          [
            -81.2471544870425,
            36.5523247955447
          ],
          [
            -81.244167543807,
            36.5526677249736
          ],
          [
            -81.2408949399045,
            36.552895521578
          ],
          [
            -81.2344907415478,
            36.5526638967506
          ],
          [
            -81.2279460430875,
            36.5527755581068
          ],
          [
            -81.222967691174,
            36.5528875887727
          ],
          [
            -81.2186998994637,
            36.5535729735064
          ],
          [
            -81.2150004017651,
            36.5543730369226
          ],
          [
            -81.2088794053866,
            36.5568911381093
          ],
          [
            -81.2048945704144,
            36.5589512812016
          ],
          [
            -81.2023311028854,
            36.5600955989335
          ],
          [
            -81.2003376613198,
            36.5606675064774
          ],
          [
            -81.1905173118715,
            36.5632963856056
          ],
          [
            -81.1855349364039,
            36.5648968331099
          ],
          [
            -81.1811227719527,
            36.5670707966197
          ],
          [
            -81.1763716848229,
            36.5704250115042
          ],
          [
            -81.1748163570114,
            36.57152426711
          ]
        ]
      },
      "properties": {
        "STATE": "NC",
        "DESCRIPTION": "Thrust fault, certain, (teeth on right from origin)",
        "RuleID": 63
      }
    },
    {
      "type": "Feature",
      "geometry": {
        "type": "LineString",
        "coordinates": [
          [
            -81.8029124532273,
            35.8684756437263
          ],
          [
            -81.7966996966375,
            35.8719893053834
          ],
          [
            -81.7911980024091,
            35.8750858083244
          ],
          [
            -81.7851336996066,
            35.8785259822587
          ],
          [
            -81.7820301505557,
            35.880475395441
          ],
          [
            -81.7782219162835,
            35.8827687569668
          ],
          [
            -81.7683441357424,
            35.8883867323411
          ],
          [
            -81.7607240748352,
            35.8932017267364
          ],
          [
            -81.7559273487974,
            35.8966406968327
          ],
          [
            -81.7532463169505,
            35.8982453326518
          ],
          [
            -81.7523972221575,
            35.8987039085086
          ],
          [
            -81.7502817651218,
            35.8992768300654
          ],
          [
            -81.7473195516078,
            35.8985874745046
          ],
          [
            -81.744496537437,
            35.8987011782356
          ],
          [
            -81.7405469550515,
            35.8992730643242
          ],
          [
            -81.7380065517673,
            35.89996000095
          ],
          [
            -81.7341965702719,
            35.9007610100451
          ],
          [
            -81.7309487976005,
            35.9019061534275
          ],
          [
            -81.7274219938287,
            35.9033952960984
          ],
          [
            -81.7244557783201,
            35.9048846304932
          ],
          [
            -81.7221995103637,
            35.9058007174195
          ],
          [
            -81.7207875141456,
            35.9066025587267
          ],
          [
            -81.7201970110852,
            35.9069745015066
          ],
          [
            -81.7195140462292,
            35.907404684406
          ],
          [
            -81.7158433943327,
            35.9102698889284
          ],
          [
            -81.7142896852852,
            35.9116432633773
          ],
          [
            -81.71217312961,
            35.9130189676206
          ],
          [
            -81.7084996543086,
            35.9151957277368
          ],
          [
            -81.7008754863039,
            35.9196627229787
          ],
          [
            -81.6955068846714,
            35.923099174912
          ],
          [
            -81.6928261681332,
            35.9244730548088
          ],
          [
            -81.69042250191,
            35.9258472476396
          ],
          [
            -81.6884476375046,
            35.9272216551845
          ],
          [
            -81.6868908382526,
            35.9283670586329
          ],
          [
            -81.6856198353133,
            35.92997162718
          ],
          [
            -81.6840633109457,
            35.9320343865504
          ],
          [
            -81.6832166011798,
            35.9332949912339
          ],
          [
            -81.6820836881642,
            35.9348995710537
          ],
          [
            -81.6805280297727,
            35.9363888854853
          ],
          [
            -81.6782689779372,
            35.937763022502
          ],
          [
            -81.6709198722759,
            35.9426870333666
          ],
          [
            -81.6652690855582,
            35.9464656331884
          ],
          [
            -81.6610277761825,
            35.9503601681347
          ],
          [
            -81.6566433544022,
            35.9540250722119
          ],
          [
            -81.6529676378041,
            35.9575757910367
          ],
          [
            -81.6471680703124,
            35.9628442346061
          ],
          [
            -81.6423564942247,
            35.9676548396349
          ],
          [
            -81.6389605695999,
            35.97132033202
          ],
          [
            -81.6358496822114,
            35.9742980112928
          ],
          [
            -81.6330190521236,
            35.9771612198158
          ],
          [
            -81.632028041482,
            35.9781919488477
          ],
          [
            -81.6301901917169,
            35.9796803098087
          ],
          [
            -81.6259459942576,
            35.9827708603871
          ],
          [
            -81.6201471229602,
            35.9860883328375
          ],
          [
            -81.613499026614,
            35.9906657642514
          ],
          [
            -81.6088307336107,
            35.9936405070418
          ],
          [
            -81.6057189730598,
            35.9958145372029
          ],
          [
            -81.6041602603962,
            35.9970736538684
          ],
          [
            -81.6030294853711,
            35.997874667424
          ],
          [
            -81.6021795335852,
            35.9986761706779
          ],
          [
            -81.6014697576113,
            36.000050851976
          ],
          [
            -81.600331970337,
            36.0032601941149
          ],
          [
            -81.5997616362514,
            36.0048646083644
          ],
          [
            -81.5996209537897,
            36.0054378564096
          ],
          [
            -81.5991936063444,
            36.0062397718589
          ],
          [
            -81.5980607750756,
            36.0074994582042
          ],
          [
            -81.5966437761396,
            36.0088732270417
          ],
          [
            -81.5959368541133,
            36.010018886053
          ],
          [
            -81.5950846978618,
            36.0113935825149
          ],
          [
            -81.5940921250498,
            36.0133413554784
          ],
          [
            -81.5929570991968,
            36.015174376625
          ],
          [
            -81.5918240541289,
            36.0164338628015
          ],
          [
            -81.5905484302558,
            36.0176932576453
          ],
          [
            -81.5891337175323,
            36.0186080528957
          ],
          [
            -81.5874340376411,
            36.0194080106722
          ],
          [
            -81.5864447742226,
            36.0200945636291
          ],
          [
            -81.5853100142709,
            36.0208952030866
          ],
          [
            -81.58474350611,
            36.0215823773677
          ],
          [
            -81.5834674582321,
            36.0238735788332
          ],
          [
            -81.5816153333388,
            36.0285719969566
          ],
          [
            -81.5804807530502,
            36.0307485981959
          ],
          [
            -81.5777859239788,
            36.0341840947618
          ],
          [
            -81.5753758222249,
            36.0364734652902
          ],
          [
            -81.5708427777742,
            36.0410520691675
          ],
          [
            -81.5693343689699,
            36.0424530407747
          ],
          [
            -81.5680067955239,
            36.0436843755774
          ],
          [
            -81.5654592218872,
            36.0453997068732
          ],
          [
            -81.5643271865257,
            36.0460855524872
          ],
          [
            -81.5634754731436,
            36.0465427873246
          ],
          [
            -81.5627666942996,
            36.0472295889819
          ],
          [
            -81.5621994459269,
            36.0479163817422
          ],
          [
            -81.5619139343801,
            36.0488333644677
          ],
          [
            -81.5617647861952,
            36.0515849603057
          ],
          [
            -81.5611919673694,
            36.0541068066274
          ],
          [
            -81.560197364365,
            36.055825092471
          ],
          [
            -81.5569387157903,
            36.0590294377371
          ],
          [
            -81.5529694396389,
            36.0624617963816
          ],
          [
            -81.5502755609851,
            36.0641768702547
          ],
          [
            -81.5488620555973,
            36.0648618028639
          ],
          [
            -81.5475868611189,
            36.0652033668683
          ],
          [
            -81.546314640064,
            36.0654301856063
          ],
          [
            -81.5454654365748,
            36.0656579041124
          ],
          [
            -81.5441903696572,
            36.0661140878
          ],
          [
            -81.5419252173626,
            36.0673708359349
          ],
          [
            -81.5392343956757,
            36.0690853141168
          ],
          [
            -81.5373940476959,
            36.0696547242864
          ],
          [
            -81.5356959730941,
            36.0702245507488
          ],
          [
            -81.5327274821529,
            36.0703329936733
          ],
          [
            -81.5318777845902,
            36.0702166333036
          ],
          [
            -81.530605169175,
            36.0702138196478
          ],
          [
            -81.5291906522842,
            36.0705548310866
          ],
          [
            -81.5265019515197,
            36.0716955080563
          ],
          [
            -81.5229578309242,
            36.0736372773511
          ],
          [
            -81.5191310158987,
            36.0766101239118
          ],
          [
            -81.5143101781804,
            36.0802688602826
          ],
          [
            -81.5097711132206,
            36.0847305885899
          ],
          [
            -81.508209485524,
            36.0863324186154
          ],
          [
            -81.5067900090345,
            36.0878197502506
          ],
          [
            -81.5048024613156,
            36.0899937158826
          ],
          [
            -81.5026705920597,
            36.0928554823957
          ],
          [
            -81.5019552680905,
            36.0943446751637
          ],
          [
            -81.5011040056627,
            36.0956039329813
          ],
          [
            -81.4999674311141,
            36.0965185554111
          ],
          [
            -81.4988347247111,
            36.0975477474221
          ],
          [
            -81.4937301936362,
            36.0992327004187
          ],
          [
            -81.4909013790435,
            36.1001662312609
          ],
          [
            -81.4876456517902,
            36.1014191290893
          ],
          [
            -81.4839632130989,
            36.1027859575116
          ],
          [
            -81.4797120815438,
            36.1043808569807
          ],
          [
            -81.4768793071774,
            36.1057494004161
          ],
          [
            -81.4746081208991,
            36.1068904224532
          ],
          [
            -81.4729068653629,
            36.1086058728769
          ],
          [
            -81.4710572611424,
            36.1111238161483
          ],
          [
            -81.4692054246083,
            36.1144444000476
          ],
          [
            -81.4674919376112,
            36.11765059178
          ],
          [
            -81.4671922138184,
            36.1223512298903
          ],
          [
            -81.4668976948642,
            36.1252169107715
          ],
          [
            -81.4663301320812,
            36.1300187138742
          ],
          [
            -81.4654925815379,
            36.1354082502197
          ],
          [
            -81.4652191909592,
            36.1394209182489
          ],
          [
            -81.4648027742143,
            36.1426315995971
          ],
          [
            -81.4649481422886,
            36.1453827341053
          ],
          [
            -81.4652399743816,
            36.148821414279
          ],
          [
            -81.4662351891388,
            36.1511131275271
          ],
          [
            -81.4690761839884,
            36.1558092424909
          ],
          [
            -81.4717739110249,
            36.1593590660234
          ],
          [
            -81.4736192599259,
            36.1610760301492
          ],
          [
            -81.4767360357711,
            36.1632492654357
          ],
          [
            -81.4819820667746,
            36.1663365273798
          ],
          [
            -81.4859138876703,
            36.1683366435469
          ],
          [
            -81.4873703846309,
            36.1690792419217
          ],
          [
            -81.4924739356439,
            36.1714784778575
          ],
          [
            -81.4972928132383,
            36.1737632969676
          ],
          [
            -81.5005526565722,
            36.1757065097775
          ],
          [
            -81.5036736742621,
            36.1776499470384
          ],
          [
            -81.5089219645287,
            36.1810797292706
          ],
          [
            -81.5124676428028,
            36.18336610136
          ],
          [
            -81.5153039771927,
            36.1849660359746
          ],
          [
            -81.5188487319988,
            36.1866789582735
          ],
          [
            -81.5211183956327,
            36.1878210823826
          ],
          [
            -81.5243829802747,
            36.1898782339101
          ],
          [
            -81.5259435093318,
            36.1906779633435
          ],
          [
            -81.5275047705158,
            36.1918210600569
          ],
          [
            -81.5292095815839,
            36.1935375630985
          ],
          [
            -81.5320489747373,
            36.1962833648447
          ],
          [
            -81.5351752718262,
            36.200174806981
          ],
          [
            -81.5383039359758,
            36.2034931157114
          ],
          [
            -81.5402910426219,
            36.2054377184348
          ],
          [
            -81.541428658318,
            36.2062378557763
          ],
          [
            -81.541995326379,
            36.206580767826
          ],
          [
            -81.5428478042274,
            36.2072667947218
          ],
          [
            -81.54426588204,
            36.2077224617566
          ],
          [
            -81.547239837433,
            36.2079454527692
          ],
          [
            -81.5510645486042,
            36.2082813663706
          ],
          [
            -81.5534751076005,
            36.2082759272605
          ],
          [
            -81.5563054313628,
            36.2079261418139
          ],
          [
            -81.5611228986022,
            36.2078007038444
          ],
          [
            -81.5735819566711,
            36.2062822062532
          ],
          [
            -81.5871780492261,
            36.2054475032441
          ],
          [
            -81.5955329302391,
            36.2047388135759
          ],
          [
            -81.6024706066019,
            36.2040334881246
          ],
          [
            -81.605299747283,
            36.2034532803366
          ],
          [
            -81.6072825087781,
            36.2032186611294
          ],
          [
            -81.6088430468183,
            36.2036733702571
          ],
          [
            -81.6109703786837,
            36.2042407658666
          ],
          [
            -81.6142328576747,
            36.2057226031024
          ],
          [
            -81.6173558184206,
            36.207089849369
          ],
          [
            -81.6196223415443,
            36.2076569469495
          ],
          [
            -81.6213255428313,
            36.208110976497
          ],
          [
            -81.6233114421418,
            36.2089079864441
          ],
          [
            -81.6252976495743,
            36.2098196125938
          ],
          [
            -81.6281379563144,
            36.2117606015793
          ],
          [
            -81.6299892924868,
            36.2139337703329
          ],
          [
            -81.6325515311205,
            36.2167925554091
          ],
          [
            -81.6356834840024,
            36.2206814023735
          ],
          [
            -81.6366808583095,
            36.2219397872001
          ],
          [
            -81.6378199445477,
            36.222853393567
          ],
          [
            -81.6389546820415,
            36.2235383190382
          ],
          [
            -81.640659240683,
            36.224221097806
          ],
          [
            -81.6437765707887,
            36.2245561480141
          ],
          [
            -81.647459379586,
            36.2245453423497
          ],
          [
            -81.6517122664491,
            36.2247621104607
          ],
          [
            -81.6538382831808,
            36.224641135951
          ],
          [
            -81.6551134731677,
            36.2247521019678
          ],
          [
            -81.6561052060548,
            36.2252075621008
          ],
          [
            -81.6565337644291,
            36.225550133762
          ],
          [
            -81.6573893387703,
            36.2268089018675
          ],
          [
            -81.6581007784242,
            36.2276090438678
          ],
          [
            -81.659096362389,
            36.2281793362369
          ],
          [
            -81.6609396307918,
            36.2286323133615
          ],
          [
            -81.6639143407698,
            36.2288524860864
          ],
          [
            -81.6687302368557,
            36.2280351863445
          ],
          [
            -81.6714168382574,
            36.227338805106
          ],
          [
            -81.6748147787016,
            36.2264113130195
          ],
          [
            -81.6759471599145,
            36.2262930483951
          ],
          [
            -81.6770802103722,
            36.2264040852589
          ],
          [
            -81.6790657395767,
            36.2268562211951
          ],
          [
            -81.6826147901265,
            36.2283353460853
          ],
          [
            -81.6841776296505,
            36.2290181010917
          ],
          [
            -81.6858830506747,
            36.2298151821213
          ],
          [
            -81.6863072252704,
            36.2299284291708
          ],
          [
            -81.6874399963521,
            36.2299247140052
          ],
          [
            -81.6894214175608,
            36.229345107614
          ],
          [
            -81.6922479243814,
            36.2279600413368
          ],
          [
            -81.6957889179414,
            36.2272604035666
          ],
          [
            -81.6991852899272,
            36.2269052934359
          ],
          [
            -81.7020216916907,
            36.2272397067703
          ],
          [
            -81.7054263461434,
            36.2280305776015
          ],
          [
            -81.7089774403604,
            36.2298526135273
          ],
          [
            -81.7126727716727,
            36.2320181481194
          ],
          [
            -81.7166545999837,
            36.2345265695432
          ],
          [
            -81.7199190974891,
            36.2357759809356
          ],
          [
            -81.7257380883539,
            36.2371310626684
          ],
          [
            -81.7277257384808,
            36.2379263597452
          ],
          [
            -81.7301401530463,
            36.2394079813932
          ],
          [
            -81.7324287208271,
            36.2430681210042
          ],
          [
            -81.7347186989628,
            36.2469577913813
          ],
          [
            -81.7352880736478,
            36.2476434743281
          ],
          [
            -81.735575353079,
            36.2482154353335
          ],
          [
            -81.7360100855743,
            36.2498188850852
          ],
          [
            -81.7358772849309,
            36.2519976016761
          ],
          [
            -81.7367386803551,
            36.253484459204
          ],
          [
            -81.7377404429324,
            36.255200319478
          ],
          [
            -81.7400213328124,
            36.2577138614934
          ],
          [
            -81.7415878230897,
            36.2590837780122
          ],
          [
            -81.7434352057766,
            36.2602231446048
          ],
          [
            -81.7447162276262,
            36.2606770442959
          ],
          [
            -81.7465611848618,
            36.261243666417
          ],
          [
            -81.7481236039742,
            36.2616960260404
          ],
          [
            -81.7494011071229,
            36.2620352934954
          ],
          [
            -81.7498264333588,
            36.2623776284494
          ],
          [
            -81.7502581520063,
            36.2632928345572
          ],
          [
            -81.7498421817241,
            36.2650139210818
          ],
          [
            -81.7459014791852,
            36.2698433846952
          ],
          [
            -81.7429354406447,
            36.2719179217813
          ],
          [
            -81.7415217546955,
            36.2729547257028
          ],
          [
            -81.7405372289919,
            36.2743340793955
          ],
          [
            -81.7401290309335,
            36.2770866029543
          ],
          [
            -81.7395880564863,
            36.2820178175291
          ],
          [
            -81.7386246142424,
            36.2874094828356
          ],
          [
            -81.7376581096417,
            36.2921126725612
          ],
          [
            -81.7365402191527,
            36.2948680408627
          ],
          [
            -81.7354238719693,
            36.2979670574879
          ],
          [
            -81.7348700013078,
            36.3008348985046
          ],
          [
            -81.7353146709667,
            36.3039283752065
          ],
          [
            -81.7357437503639,
            36.3049586149564
          ],
          [
            -81.7371755454508,
            36.30713137871
          ],
          [
            -81.7384598883721,
            36.3088462403099
          ],
          [
            -81.7390356967911,
            36.3101047660443
          ],
          [
            -81.7394636514975,
            36.3109057025378
          ],
          [
            -81.739894307438,
            36.3115919155765
          ],
          [
            -81.7400407049815,
            36.3123937966349
          ],
          [
            -81.7400444042439,
            36.3131960393358
          ],
          [
            -81.7394815782773,
            36.3141154545088
          ],
          [
            -81.7351063893816,
            36.3181433153104
          ],
          [
            -81.7318579573467,
            36.3205626818468
          ],
          [
            -81.730018133983,
            36.3213716041986
          ],
          [
            -81.7288864893887,
            36.3219486676586
          ],
          [
            -81.7253446864466,
            36.3225345112243
          ],
          [
            -81.7225079514081,
            36.3228885287417
          ],
          [
            -81.7210938818783,
            36.3233520497493
          ],
          [
            -81.72038722755,
            36.3240421534186
          ],
          [
            -81.7201044855092,
            36.3246163542181
          ],
          [
            -81.7201157836206,
            36.3264503346705
          ],
          [
            -81.7217008259051,
            36.3310301787673
          ],
          [
            -81.7241328555351,
            36.3351483354107
          ],
          [
            -81.7256834734796,
            36.3395122488606
          ]
        ]
      },
      "properties": {
        "STATE": "NC",
        "DESCRIPTION": "Thrust fault, certain, (teeth on right from origin)",
        "RuleID": 63
      }
    },
    {
      "type": "Feature",
      "geometry": {
        "type": "LineString",
        "coordinates": [
          [
            -81.6192590709282,
            36.6411929767873
          ],
          [
            -81.6231564899418,
            36.6409281256117
          ],
          [
            -81.6265113570665,
            36.6415633838733
          ],
          [
            -81.6278826066016,
            36.6402070875467
          ],
          [
            -81.6266905556943,
            36.6355237081546
          ]
        ]
      },
      "properties": {
        "STATE": "VA",
        "DESCRIPTION": "Fault, sense of displacement unknown or undefined, certain",
        "RuleID": 22
      }
    },
    {
      "type": "Feature",
      "geometry": {
        "type": "LineString",
        "coordinates": [
          [
            -81.5829208989587,
            36.6174224030676
          ],
          [
            -81.5750257388772,
            36.6116895103095
          ],
          [
            -81.5732674618801,
            36.6063398460841
          ]
        ]
      },
      "properties": {
        "STATE": "VA",
        "DESCRIPTION": "Fault, sense of displacement unknown or undefined, certain",
        "RuleID": 22
      }
    },
    {
      "type": "Feature",
      "geometry": {
        "type": "LineString",
        "coordinates": [
          [
            -81.5732674618801,
            36.6063398460841
          ],
          [
            -81.5711909090828,
            36.5985328726301
          ],
          [
            -81.5705760931192,
            36.5949603409661
          ]
        ]
      },
      "properties": {
        "STATE": "VA",
        "DESCRIPTION": "Fault, sense of displacement unknown or undefined, certain",
        "RuleID": 22
      }
    },
    {
      "type": "Feature",
      "geometry": {
        "type": "LineString",
        "coordinates": [
          [
            -81.0877089535288,
            36.6153878652809
          ],
          [
            -81.1070620262445,
            36.6038172447878
          ],
          [
            -81.1269962784064,
            36.5942523758765
          ],
          [
            -81.1397454366166,
            36.5892213102014
          ],
          [
            -81.1602814630007,
            36.5832267728318
          ],
          [
            -81.1716784087733,
            36.5813373316565
          ],
          [
            -81.1808650021785,
            36.5808090125717
          ]
        ]
      },
      "properties": {
        "STATE": "VA",
        "DESCRIPTION": "Fault, sense of displacement unknown or undefined, certain",
        "RuleID": 22
      }
    },
    {
      "type": "Feature",
      "geometry": {
        "type": "LineString",
        "coordinates": [
          [
            -81.561077615427,
            36.6453794888999
          ],
          [
            -81.5662964966477,
            36.6406295428252
          ],
          [
            -81.5695826067206,
            36.6370175910429
          ],
          [
            -81.5737298535029,
            36.6349618431223
          ],
          [
            -81.5773485136057,
            36.6347006180698
          ],
          [
            -81.5810036201562,
            36.636675215044
          ],
          [
            -81.5829903099841,
            36.6388906394814
          ]
        ]
      },
      "properties": {
        "STATE": "VA",
        "DESCRIPTION": "Fault, sense of displacement unknown or undefined, certain",
        "RuleID": 22
      }
    },
    {
      "type": "Feature",
      "geometry": {
        "type": "LineString",
        "coordinates": [
          [
            -81.6056092878653,
            36.6245648375576
          ],
          [
            -81.6000147716169,
            36.6232818086385
          ],
          [
            -81.5955349739064,
            36.6219870179647
          ],
          [
            -81.5930419307023,
            36.622907713867
          ],
          [
            -81.59029936875,
            36.6256201195471
          ],
          [
            -81.5888953693346,
            36.6249639643185
          ],
          [
            -81.5829208989587,
            36.6174224030676
          ]
        ]
      },
      "properties": {
        "STATE": "VA",
        "DESCRIPTION": "Fault, sense of displacement unknown or undefined, certain",
        "RuleID": 22
      }
    },
    {
      "type": "Feature",
      "geometry": {
        "type": "LineString",
        "coordinates": [
          [
            -81.5829903099841,
            36.6388906394814
          ],
          [
            -81.5825745022969,
            36.6476158750554
          ],
          [
            -81.5840004179104,
            36.6496133726565
          ]
        ]
      },
      "properties": {
        "STATE": "VA",
        "DESCRIPTION": "Fault, sense of displacement unknown or undefined, certain",
        "RuleID": 22
      }
    },
    {
      "type": "Feature",
      "geometry": {
        "type": "LineString",
        "coordinates": [
          [
            -81.2046209507654,
            36.5724033430396
          ],
          [
            -81.1945868355171,
            36.5763786033659
          ],
          [
            -81.1808650021785,
            36.5808090125717
          ]
        ]
      },
      "properties": {
        "STATE": "VA",
        "DESCRIPTION": "Fault, sense of displacement unknown or undefined, certain",
        "RuleID": 22
      }
    },
    {
      "type": "Feature",
      "geometry": {
        "type": "LineString",
        "coordinates": [
          [
            -81.6121422731926,
            36.6320995840757
          ],
          [
            -81.608197576744,
            36.6294575673606
          ],
          [
            -81.6056092878653,
            36.6245648375576
          ]
        ]
      },
      "properties": {
        "STATE": "VA",
        "DESCRIPTION": "Fault, sense of displacement unknown or undefined, certain",
        "RuleID": 22
      }
    },
    {
      "type": "Feature",
      "geometry": {
        "type": "LineString",
        "coordinates": [
          [
            -81.5705760931192,
            36.5949603409661
          ],
          [
            -81.5713612700848,
            36.5918206555077
          ],
          [
            -81.5766432822087,
            36.5910946068734
          ],
          [
            -81.5822796913904,
            36.5857861232528
          ]
        ]
      },
      "properties": {
        "STATE": "VA",
        "DESCRIPTION": "Fault, sense of displacement unknown or undefined, certain",
        "RuleID": 22
      }
    },
    {
      "type": "Feature",
      "geometry": {
        "type": "LineString",
        "coordinates": [
          [
            -81.1808650021785,
            36.5808090125717
          ],
          [
            -81.1650626930999,
            36.5865402922929
          ],
          [
            -81.1439872220994,
            36.5938819267825
          ]
        ]
      },
      "properties": {
        "STATE": "VA",
        "DESCRIPTION": "Fault, sense of displacement unknown or undefined, certain",
        "RuleID": 22
      }
    },
    {
      "type": "Feature",
      "geometry": {
        "type": "LineString",
        "coordinates": [
          [
            -81.6266905556943,
            36.6355237081546
          ],
          [
            -81.6249928323338,
            36.6339764529958
          ],
          [
            -81.6219314376259,
            36.6342324196448
          ],
          [
            -81.616626264239,
            36.6336176839032
          ],
          [
            -81.6121422731926,
            36.6320995840757
          ]
        ]
      },
      "properties": {
        "STATE": "VA",
        "DESCRIPTION": "Fault, sense of displacement unknown or undefined, certain",
        "RuleID": 22
      }
    }
  ]
}