{
  "type": "FeatureCollection",
  "features": [
    {
      "type": "Feature",
      "geometry": {
        "type": "LineString",
        "coordinates": [
          [
            -114.69621877098541,
            37.96819550892626
          ],
          [
            -114.69667086881337,
            37.9689926272583
          ],
          [
            -114.69733076044133,
            37.97005852090699
          ],
          [
            -114.69788023474779,
            37.97167961270583
          ],
          [
            -114.69887973357056,
            37.97425069717952
          ],
          [
            -114.70016147586908,
            37.97814954432815
          ],
          [
            -114.70068039308285,
            37.97960674978522
          ],
          [
            -114.70130598793153,
            37.982257832887505
          ],
          [
            -114.70164156258909,
            37.983314488666245
          ],
          [
            -114.70209158620708,
            37.98393614719653
          ]
        ]
      },
      "properties": {
        "fault_name": "Dry Lake fault",
        "age": "late Quaternary",
        "slip_rate": "Less than 0.2 mm/yr"
      }
    },
    {
      "type": "Feature",
      "geometry": {
        "type": "LineString",
        "coordinates": [
          [
            -114.69994817809138,
            38.08084695672094
          ],
          [
            -114.69919259612276,
            38.07992752871122
          ],
          [
            -114.69833034640067,
            38.07866144101009
          ],
          [
            -114.69717863973109,
            38.07721146773139
          ],
          [
            -114.69662917800103,
            38.07629592785979
          ],
          [
            -114.69582026035906,
            38.0751670597155
          ],
          [
            -114.69453077458279,
            38.072893764865796
          ],
          [
            -114.69354685344533,
            38.071627123299635
          ],
          [
            -114.69224958556379,
            38.06978437681812
          ],
          [
            -114.69086842940769,
            38.06755663778437
          ],
          [
            -114.68948783290206,
            38.064798907708244
          ],
          [
            -114.68810667494932,
            38.06270450196674
          ],
          [
            -114.68747332224986,
            38.06144229973849
          ],
          [
            -114.68670274200923,
            38.06010676892248
          ],
          [
            -114.68591715720844,
            38.059119007899014
          ],
          [
            -114.68563492810573,
            38.058130691027905
          ],
          [
            -114.68548992564583,
            38.057764585909176
          ]
        ]
      },
      "properties": {
        "fault_name": "Dry Lake fault",
        "age": "late Quaternary",
        "slip_rate": "Less than 0.2 mm/yr"
      }
    },
    {
      "type": "Feature",
      "geometry": {
        "type": "LineString",
        "coordinates": [
          [
            -114.73304093007714,
            37.79968366620231
          ],
          [
            -114.73316942240044,
            37.80031184303953
          ],
          [
            -114.73312659072766,
            37.80175379777808
          ],
          [
            -114.73331218895358,
            37.80296731970641
          ],
          [
            -114.73304093007714,
            37.80385248080197
          ],
          [
            -114.73311231380283,
            37.805537140682
          ],
          [
            -114.73274111735105,
            37.80660789929101
          ],
          [
            -114.73299810020099,
            37.8078928072976
          ],
          [
            -114.73276967209898,
            37.8087351349926
          ],
          [
            -114.73276967209898,
            37.80972023366233
          ],
          [
            -114.7327982259486,
            37.81099086365337
          ],
          [
            -114.73298382237788,
            37.811718978123444
          ],
          [
            -114.73293385089525,
            37.81215839909999
          ],
          [
            -114.73236455705867,
            37.812450205204776
          ],
          [
            -114.73194581277886,
            37.812664841713996
          ],
          [
            -114.73047111235731,
            37.81306099622993
          ],
          [
            -114.72935752569683,
            37.813189486317455
          ],
          [
            -114.72842953456731,
            37.8131609322743
          ],
          [
            -114.72585722042932,
            37.813934854711576
          ],
          [
            -114.72465161304606,
            37.81440429928393
          ],
          [
            -114.72335890321624,
            37.8154392667816
          ],
          [
            -114.72294249725111,
            37.81622448925948
          ],
          [
            -114.7225141948967,
            37.81772354870828
          ],
          [
            -114.72205763244175,
            37.81892815431115
          ],
          [
            -114.72068201080614,
            37.819805578007085
          ],
          [
            -114.71870705656919,
            37.820947717727705
          ],
          [
            -114.71786234824962,
            37.821982783658484
          ],
          [
            -114.71788927435196,
            37.822660808310566
          ],
          [
            -114.71757681244836,
            37.82364840693615
          ],
          [
            -114.71714851009393,
            37.82614684126237
          ],
          [
            -114.71686188733119,
            37.82757642368542
          ],
          [
            -114.71610630356594,
            37.82923196676095
          ],
          [
            -114.71573510980905,
            37.8299107506948
          ],
          [
            -114.71573510980905,
            37.83079591231698
          ],
          [
            -114.7159730555615,
            37.83234731983362
          ],
          [
            -114.71579221840662,
            37.83405101264894
          ],
          [
            -114.71535439570681,
            37.835507244183546
          ],
          [
            -114.7155162002558,
            37.83726804501314
          ],
          [
            -114.71548764640616,
            37.83960943634964
          ],
          [
            -114.71569703830902,
            37.84118939682599
          ],
          [
            -114.71556378940629,
            37.84255044928809
          ],
          [
            -114.71574462835781,
            37.843940054248726
          ],
          [
            -114.71615389541137,
            37.84492039276312
          ],
          [
            -114.71662026926585,
            37.8458245861009
          ],
          [
            -114.71681062676616,
            37.84658601467103
          ],
          [
            -114.71797180437373,
            37.84907969076218
          ],
          [
            -114.71859046422846,
            37.850145688743666
          ],
          [
            -114.71966598028722,
            37.85105940230713
          ],
          [
            -114.7203322292924,
            37.85187793584211
          ],
          [
            -114.72091281674871,
            37.85294393521574
          ],
          [
            -114.72108413984647,
            37.85400993265252
          ],
          [
            -114.72165520875404,
            37.85623710973797
          ],
          [
            -114.72171231555495,
            37.857188891735724
          ],
          [
            -114.72148388835126,
            37.858549944648665
          ],
          [
            -114.72127449644844,
            37.85978726378673
          ],
          [
            -114.72090329909828,
            37.86024412074729
          ],
          [
            -114.72078908639476,
            37.86086278074948
          ],
          [
            -114.72121846942247,
            37.86189977814048
          ],
          [
            -114.72118883489955,
            37.862119136002654
          ],
          [
            -114.72106510364725,
            37.862357082283054
          ],
          [
            -114.72100799594803,
            37.86289959868863
          ],
          [
            -114.72122690639961,
            37.86371813266731
          ],
          [
            -114.7214382808843,
            37.86408416391188
          ],
          [
            -114.72140774355451,
            37.86467943605031
          ],
          [
            -114.72128401320055,
            37.86564073824043
          ],
          [
            -114.72119835344832,
            37.86638313014872
          ],
          [
            -114.72096992444797,
            37.86746816422359
          ],
          [
            -114.7211412457491,
            37.86871500073912
          ],
          [
            -114.72117931635081,
            37.86989521482954
          ],
          [
            -114.72205495815716,
            37.87235081874879
          ],
          [
            -114.72274976101197,
            37.87356910295786
          ],
          [
            -114.72310192126459,
            37.87454944031421
          ],
          [
            -114.7227601302653,
            37.87598815628664
          ],
          [
            -114.72185508390476,
            37.87702407931014
          ],
          [
            -114.72048615112475,
            37.87832258534199
          ],
          [
            -114.71921221069447,
            37.8795203560144
          ],
          [
            -114.71728651827105,
            37.87992702324035
          ],
          [
            -114.7166182139205,
            37.88105368276241
          ],
          [
            -114.7163632882125,
            37.882325519715664
          ],
          [
            -114.71658219776577,
            37.883667535308795
          ],
          [
            -114.71780048307266,
            37.88467642699952
          ],
          [
            -114.71822878542707,
            37.88567580093532
          ],
          [
            -114.71860950042765,
            37.887322387763895
          ],
          [
            -114.71883792673302,
            37.88861681297381
          ],
          [
            -114.71860950042765,
            37.8897208837162
          ],
          [
            -114.71815943638545,
            37.89121246821145
          ],
          [
            -114.71711384231051,
            37.89298634371191
          ],
          [
            -114.71614491675011,
            37.89434800076705
          ],
          [
            -114.71513043133344,
            37.89551521569807
          ],
          [
            -114.71400094269578,
            37.89660243076352
          ],
          [
            -114.71318479900565,
            37.89739242823588
          ],
          [
            -114.7120754991057,
            37.89850109476676
          ],
          [
            -114.71156153520242,
            37.89939577364599
          ],
          [
            -114.71152346370236,
            37.90078537790679
          ],
          [
            -114.71220874890673,
            37.902346304335225
          ],
          [
            -114.7129582798236,
            37.90366452527059
          ],
          [
            -114.71263705126115,
            37.90498512471038
          ],
          [
            -114.71201839230476,
            37.905865527000266
          ],
          [
            -114.71105471110901,
            37.90685300419544
          ],
          [
            -114.71042250016824,
            37.90848510580108
          ],
          [
            -114.71020916106805,
            37.909465653071315
          ],
          [
            -114.709585391596,
            37.91148105428215
          ],
          [
            -114.70946642141473,
            37.913051498744075
          ],
          [
            -114.70967509107209,
            37.91383501209873
          ],
          [
            -114.70924037205158,
            37.91480040330966
          ],
          [
            -114.70881206879884,
            37.916097209139316
          ],
          [
            -114.7081815125548,
            37.917358324297304
          ],
          [
            -114.70794356500573,
            37.91951173676419
          ],
          [
            -114.70794356500573,
            37.92097510378965
          ],
          [
            -114.70777700297904,
            37.92250985669927
          ],
          [
            -114.70734870062458,
            37.92409219788653
          ],
          [
            -114.70770561925328,
            37.92523433904772
          ],
          [
            -114.70769372196565,
            37.92620991902498
          ],
          [
            -114.70777700297904,
            37.92679288532749
          ],
          [
            -114.70708696029688,
            37.92837522717497
          ],
          [
            -114.70690850008424,
            37.93042156367336
          ],
          [
            -114.70657537423415,
            37.931587500684664
          ],
          [
            -114.70612327730447,
            37.93281292300835
          ],
          [
            -114.70573066591461,
            37.93418111175941
          ],
          [
            -114.70533805542306,
            37.936048990272496
          ],
          [
            -114.70488595759508,
            37.937643230262324
          ],
          [
            -114.70369622793447,
            37.94008217574381
          ],
          [
            -114.70264926482703,
            37.941807284849666
          ],
          [
            -114.7022269102181,
            37.94318737287384
          ],
          [
            -114.7017034295627,
            37.94466263834958
          ],
          [
            -114.7013451526813,
            37.94630375478033
          ],
          [
            -114.70103236738422,
            37.94812762722739
          ],
          [
            -114.70068026013217,
            37.949207410312226
          ],
          [
            -114.70042778592664,
            37.95019862234474
          ],
          [
            -114.69932396844486,
            37.95161066506411
          ],
          [
            -114.69850305380226,
            37.953347671253745
          ],
          [
            -114.69806285416021,
            37.95451360724295
          ],
          [
            -114.69732522142927,
            37.95598887267115
          ],
          [
            -114.69659948508765,
            37.95760690576376
          ],
          [
            -114.69621877098541,
            37.95955806534228
          ],
          [
            -114.69671845706557,
            37.96052174635287
          ],
          [
            -114.696325846574,
            37.96212788301606
          ],
          [
            -114.69598082523292,
            37.96318674366528
          ],
          [
            -114.69540975542705,
            37.96436457605919
          ],
          [
            -114.6951956033515,
            37.965923123317594
          ]
        ]
      },
      "properties": {
        "fault_name": "Dry Lake fault",
        "age": "late Quaternary",
        "slip_rate": "Less than 0.2 mm/yr"
      }
    },
    {
      "type": "Feature",
      "geometry": {
        "type": "LineString",
        "coordinates": [
          [
            -114.70916898832584,
            37.92061818504328
          ],
          [
            -114.70906191183892,
            37.92174842900226
          ],
          [
            -114.70902621907773,
            37.92278349486734
          ],
          [
            -114.70903811636535,
            37.92419927295676
          ],
          [
            -114.70928796120207,
            37.9254127977103
          ],
          [
            -114.70962108525549,
            37.92637648089239
          ],
          [
            -114.7096329816448,
            37.92745913587991
          ],
          [
            -114.70945452322879,
            37.92877973617199
          ],
          [
            -114.70918088471515,
            37.93011223278599
          ],
          [
            -114.70903420240565,
            37.931540996935276
          ],
          [
            -114.70872141531194,
            37.932689321236296
          ],
          [
            -114.7081947303659,
            37.93386042069381
          ],
          [
            -114.7078208299851,
            37.93501596672966
          ],
          [
            -114.70749304372107,
            37.936286512040226
          ],
          [
            -114.70708858714586,
            37.93780871909107
          ],
          [
            -114.70650134317327,
            37.93916259730241
          ],
          [
            -114.70502850765426,
            37.94099369396448
          ],
          [
            -114.70431125859541,
            37.94225646283966
          ],
          [
            -114.70368568261136,
            37.943637563269874
          ],
          [
            -114.70319010991687,
            37.945075329139954
          ],
          [
            -114.70278565334169,
            37.9465553150197
          ],
          [
            -114.70232008258104,
            37.94795530305962
          ],
          [
            -114.70166395040259,
            37.94959195477312
          ],
          [
            -114.70079391857517,
            37.95189249177399
          ],
          [
            -114.70000833467272,
            37.953235258849276
          ],
          [
            -114.699168859938,
            37.95479524573626
          ],
          [
            -114.69873440142895,
            37.95579857094967
          ],
          [
            -114.69839827790075,
            37.95677522774987
          ],
          [
            -114.69792548468527,
            37.957934663205556
          ],
          [
            -114.69754380579242,
            37.95914409672247
          ],
          [
            -114.69797883113841,
            37.96065074713888
          ],
          [
            -114.69787938673815,
            37.96168073808388
          ],
          [
            -114.69738381314536,
            37.96294350482604
          ],
          [
            -114.69710880829416,
            37.96461015724417
          ],
          [
            -114.69688769337687,
            37.966220140707705
          ]
        ]
      },
      "properties": {
        "fault_name": "Dry Lake fault",
        "age": "late Quaternary",
        "slip_rate": "Less than 0.2 mm/yr"
      }
    },
    {
      "type": "Feature",
      "geometry": {
        "type": "LineString",
        "coordinates": [
          [
            -114.69621877098541,
            37.96819550892626
          ],
          [
            -114.6951956033515,
            37.965923123317594
          ]
        ]
      },
      "properties": {
        "fault_name": "Dry Lake fault",
        "age": "late Quaternary",
        "slip_rate": "Less than 0.2 mm/yr"
      }
    },
    {
      "type": "Feature",
      "geometry": {
        "type": "LineString",
        "coordinates": [
          [
            -114.64869859942961,
            38.13612907071826
          ],
          [
            -114.64887360921325,
            38.13553408028816
          ],
          [
            -114.64917140522152,
            38.134252431767905
          ],
          [
            -114.64920196680579,
            38.133427998722084
          ],
          [
            -114.6490953017473,
            38.13211579778132
          ],
          [
            -114.64843139105677,
            38.13091804097943
          ],
          [
            -114.64768358580353,
            38.130090278105115
          ],
          [
            -114.64711134639116,
            38.12907974075281
          ],
          [
            -114.64670688981595,
            38.128091423257985
          ],
          [
            -114.64671467281956,
            38.12715310505828
          ],
          [
            -114.64706580360289,
            38.1262797841464
          ],
          [
            -114.64885088542984,
            38.12431480569685
          ],
          [
            -114.65004149364277,
            38.12330815080533
          ],
          [
            -114.65112487355353,
            38.12260204726638
          ],
          [
            -114.652055471594,
            38.12212149522761
          ],
          [
            -114.65325330405848,
            38.121095395315955
          ],
          [
            -114.65394777992654,
            38.120385958694904
          ],
          [
            -114.65464947914779,
            38.119607634161206
          ],
          [
            -114.65515339269969,
            38.11884875629016
          ],
          [
            -114.65545063534572,
            38.117063227014434
          ],
          [
            -114.65504618056713,
            38.11598768807109
          ],
          [
            -114.65441338033155,
            38.115087704297935
          ],
          [
            -114.6530322205822,
            38.11349662311324
          ],
          [
            -114.65216218875482,
            38.112741636241324
          ],
          [
            -114.65126993170897,
            38.11218442720043
          ],
          [
            -114.65054490503643,
            38.11158554996514
          ],
          [
            -114.64978932037285,
            38.11100556224743
          ],
          [
            -114.64939264230969,
            38.11006724429102
          ],
          [
            -114.64893485185773,
            38.108827819310356
          ],
          [
            -114.6485303925876,
            38.107793948209505
          ],
          [
            -114.64830928036525,
            38.106760077320345
          ],
          [
            -114.64827872417085,
            38.106481746687734
          ]
        ]
      },
      "properties": {
        "fault_name": "Blind Mountain fault",
        "age": "middle and late Quaternary",
        "slip_rate": "Less than 0.2 mm/yr"
      }
    },
    {
      "type": "Feature",
      "geometry": {
        "type": "LineString",
        "coordinates": [
          [
            -114.64489915337586,
            38.10348736180358
          ],
          [
            -114.64453303510032,
            38.10176294306139
          ],
          [
            -114.64419692325026,
            38.09894409830405
          ],
          [
            -114.64371635870924,
            38.09644136077267
          ],
          [
            -114.64335802074243,
            38.09416417371514
          ],
          [
            -114.64307523737918,
            38.09253531209211
          ],
          [
            -114.6426480076132,
            38.09060867520584
          ],
          [
            -114.64251078276702,
            38.08975813424502
          ],
          [
            -114.64213688058958,
            38.08927369668437
          ]
        ]
      },
      "properties": {
        "fault_name": "Blind Mountain fault",
        "age": "middle and late Quaternary",
        "slip_rate": "Less than 0.2 mm/yr"
      }
    },
    {
      "type": "Feature",
      "geometry": {
        "type": "LineString",
        "coordinates": [
          [
            -114.63712459212128,
            38.05671587625251
          ],
          [
            -114.63652179471786,
            38.05508312464865
          ],
          [
            -114.63662069563739,
            38.05338981720166
          ],
          [
            -114.63646069939709,
            38.05078818966635
          ],
          [
            -114.63624737107668,
            38.04755324123704
          ],
          [
            -114.63608682237245,
            38.04475328377496
          ],
          [
            -114.6359190413319,
            38.043261640182195
          ],
          [
            -114.63595738412316,
            38.04172832965176
          ],
          [
            -114.63610961981772,
            38.040488348080935
          ],
          [
            -114.63629296686553,
            38.03903892430013
          ],
          [
            -114.63638463994026,
            38.038447821913415
          ]
        ]
      },
      "properties": {
        "fault_name": "Blind Mountain fault",
        "age": "middle and late Quaternary",
        "slip_rate": "Less than 0.2 mm/yr"
      }
    },
    {
      "type": "Feature",
      "geometry": {
        "type": "LineString",
        "coordinates": [
          [
            -114.63540002081187,
            38.06838848064707
          ],
          [
            -114.6349116705723,
            38.06753794075542
          ],
          [
            -114.63469055834993,
            38.06588241189104
          ],
          [
            -114.63430166239209,
            38.063540226320505
          ],
          [
            -114.63425555905505,
            38.06129359427817
          ],
          [
            -114.63417945198756,
            38.05945862181402
          ],
          [
            -114.63401167274363,
            38.05812364187022
          ],
          [
            -114.633531106406,
            38.05596423067558
          ],
          [
            -114.63316443117499,
            38.05412981708282
          ],
          [
            -114.63296609394004,
            38.05304983275711
          ],
          [
            -114.63279831559441,
            38.051604300664735
          ],
          [
            -114.6328060959031,
            38.05116541869672
          ]
        ]
      },
      "properties": {
        "fault_name": "Blind Mountain fault",
        "age": "middle and late Quaternary",
        "slip_rate": "Less than 0.2 mm/yr"
      }
    },
    {
      "type": "Feature",
      "geometry": {
        "type": "LineString",
        "coordinates": [
          [
            -114.63506121132099,
            38.026163864227065
          ],
          [
            -114.63739925471435,
            38.02442182674164
          ],
          [
            -114.63943942035273,
            38.021976013106766
          ],
          [
            -114.64105745596103,
            38.01826405305384
          ],
          [
            -114.64141997109394,
            38.01393873489791
          ],
          [
            -114.64168720911115,
            38.01311096922952
          ],
          [
            -114.64190111235335,
            38.01201209621914
          ],
          [
            -114.64219835320277,
            38.010753225659066
          ]
        ]
      },
      "properties": {
        "fault_name": "Blind Mountain fault",
        "age": "middle and late Quaternary",
        "slip_rate": "Less than 0.2 mm/yr"
      }
    },
    {
      "type": "Feature",
      "geometry": {
        "type": "LineString",
        "coordinates": [
          [
            -114.64213688058958,
            38.08927369668437
          ],
          [
            -114.64153408408448,
            38.08768705697394
          ],
          [
            -114.64056517020218,
            38.084173780679514
          ],
          [
            -114.63973347667446,
            38.08230825686379
          ],
          [
            -114.63858955570348,
            38.07904664407584
          ],
          [
            -114.63693339200125,
            38.07467893804792
          ],
          [
            -114.636331150655,
            38.07332840431168
          ],
          [
            -114.63596447722067,
            38.07139843532509
          ],
          [
            -114.63574336230334,
            38.070090121987505
          ],
          [
            -114.63557558126278,
            38.068937918234624
          ],
          [
            -114.63540002081187,
            38.06838848064707
          ]
        ]
      },
      "properties": {
        "fault_name": "Blind Mountain fault",
        "age": "middle and late Quaternary",
        "slip_rate": "Less than 0.2 mm/yr"
      }
    },
    {
      "type": "Feature",
      "geometry": {
        "type": "LineString",
        "coordinates": [
          [
            -114.6328060959031,
            38.05116541869672
          ],
          [
            -114.63201550299459,
            38.048245262337105
          ],
          [
            -114.63179659164469,
            38.04608233166137
          ],
          [
            -114.63093998513922,
            38.04288433575854
          ],
          [
            -114.63133973544065,
            38.03837287808399
          ],
          [
            -114.6323105564463,
            38.0354033112741
          ],
          [
            -114.63339558925718,
            38.03237663572887
          ],
          [
            -114.63499458866626,
            38.030377888864884
          ],
          [
            -114.63632356797571,
            38.02869741629785
          ]
        ]
      },
      "properties": {
        "fault_name": "Blind Mountain fault",
        "age": "middle and late Quaternary",
        "slip_rate": "Less than 0.2 mm/yr"
      }
    },
    {
      "type": "Feature",
      "geometry": {
        "type": "LineString",
        "coordinates": [
          [
            -114.628815847683,
            38.06891516213681
          ],
          [
            -114.62934977305021,
            38.065909096266225
          ],
          [
            -114.6292553277745,
            38.062331670864694
          ],
          [
            -114.62944568527479,
            38.06042810307915
          ],
          [
            -114.6293505060755,
            38.05852453387124
          ],
          [
            -114.62982639758042,
            38.056811321758325
          ],
          [
            -114.63058782578489,
            38.054907753256025
          ],
          [
            -114.63201550299459,
            38.048245262337105
          ]
        ]
      },
      "properties": {
        "fault_name": "Blind Mountain fault",
        "age": "middle and late Quaternary",
        "slip_rate": "Less than 0.2 mm/yr"
      }
    },
    {
      "type": "Feature",
      "geometry": {
        "type": "LineString",
        "coordinates": [
          [
            -114.56559601843435,
            38.02424603515902
          ],
          [
            -114.56499321743765,
            38.02275050279385
          ],
          [
            -114.56431430218696,
            38.021113862965784
          ],
          [
            -114.56362760932254,
            38.01909611711327
          ],
          [
            -114.56311647960395,
            38.017604473261244
          ],
          [
            -114.56252089926552,
            38.01583450133507
          ],
          [
            -114.56226200120739,
            38.01496118232327
          ],
          [
            -114.56189531878987,
            38.01433952486253
          ]
        ]
      },
      "properties": {
        "fault_name": "unnamed fault east of Bristol Range",
        "age": "undifferentiated Quaternary",
        "slip_rate": "Less than 0.2 mm/yr"
      }
    },
    {
      "type": "Feature",
      "geometry": {
        "type": "LineString",
        "coordinates": [
          [
            -114.56516102542768,
            38.011623445938554
          ],
          [
            -114.56499324259048,
            38.01001346974806
          ],
          [
            -114.56506936403102,
            38.00772461304524
          ],
          [
            -114.56461934759956,
            38.00585908823495
          ],
          [
            -114.56435989258594,
            38.00496687790955
          ],
          [
            -114.56421488743106,
            38.00461965965888
          ]
        ]
      },
      "properties": {
        "fault_name": "unnamed fault east of Bristol Range",
        "age": "undifferentiated Quaternary",
        "slip_rate": "Less than 0.2 mm/yr"
      }
    },
    {
      "type": "Feature",
      "geometry": {
        "type": "LineString",
        "coordinates": [
          [
            -114.63903159419691,
            38.12395651428751
          ],
          [
            -114.63787932787692,
            38.12326208377599
          ],
          [
            -114.63640704931336,
            38.1221332179944
          ],
          [
            -114.63495755202541,
            38.12072546688385
          ],
          [
            -114.63371361712225,
            38.11964604400398
          ],
          [
            -114.63230245274411,
            38.1184021800009
          ],
          [
            -114.62986846838011,
            38.11691832178432
          ],
          [
            -114.62741170633375,
            38.11553001785747
          ],
          [
            -114.62616777143062,
            38.11440448372671
          ],
          [
            -114.6229865351756,
            38.11265007687317
          ],
          [
            -114.61948417456273,
            38.11073123067587
          ],
          [
            -114.61589848083418,
            38.10828239022318
          ],
          [
            -114.6127472438181,
            38.106710758940764
          ],
          [
            -114.61039715132185,
            38.10543634384166
          ],
          [
            -114.60811595062474,
            38.1037541548487
          ],
          [
            -114.60655978019342,
            38.10232029168306
          ],
          [
            -114.60352299303612,
            38.100614772202505
          ],
          [
            -114.60231016768955,
            38.09950479378134
          ],
          [
            -114.60057009864487,
            38.09863147871089
          ],
          [
            -114.59840334600989,
            38.097242618666876
          ],
          [
            -114.5960382516484,
            38.09539654526528
          ],
          [
            -114.59514543944371,
            38.09433989568885
          ],
          [
            -114.5944820812171,
            38.09355380034506
          ],
          [
            -114.59419207090743,
            38.09306936319541
          ]
        ]
      },
      "properties": {
        "fault_name": "unnamed fault east of Bristol Range",
        "age": "undifferentiated Quaternary",
        "slip_rate": "Less than 0.2 mm/yr"
      }
    },
    {
      "type": "Feature",
      "geometry": {
        "type": "LineString",
        "coordinates": [
          [
            -114.57437020427582,
            38.06132045927124
          ],
          [
            -114.573652955217,
            38.0601910318263
          ],
          [
            -114.57306515878051,
            38.05707108028369
          ],
          [
            -114.5728134858722,
            38.055095001055456
          ],
          [
            -114.57219568840017,
            38.052497263149924
          ],
          [
            -114.57194401369523,
            38.05068506817081
          ],
          [
            -114.57158511338301,
            38.048777876146296
          ],
          [
            -114.57107398456277,
            38.04696568176212
          ],
          [
            -114.57093675881828,
            38.04600069833158
          ],
          [
            -114.57067730560128,
            38.045100710888526
          ]
        ]
      },
      "properties": {
        "fault_name": "unnamed fault east of Bristol Range",
        "age": "undifferentiated Quaternary",
        "slip_rate": "Less than 0.2 mm/yr"
      }
    },
    {
      "type": "Feature",
      "geometry": {
        "type": "LineString",
        "coordinates": [
          [
            -114.59165863944818,
            38.08996052968576
          ],
          [
            -114.59065193613684,
            38.08816778112117
          ],
          [
            -114.58947689303281,
            38.08602781822818
          ],
          [
            -114.5876912668268,
            38.08404785373235
          ],
          [
            -114.58625732476631,
            38.08169789268049
          ],
          [
            -114.58470059917617,
            38.0789857173133
          ],
          [
            -114.583067759332,
            38.07647964814707
          ],
          [
            -114.5820377195862,
            38.07418357528473
          ],
          [
            -114.57970318680897,
            38.07109751728163
          ],
          [
            -114.57916149909938,
            38.07033808603341
          ],
          [
            -114.57778033396016,
            38.068198123254795
          ],
          [
            -114.57694863414426,
            38.06677148010014
          ],
          [
            -114.57646028300633,
            38.0656459410821
          ],
          [
            -114.5763763911386,
            38.06550483365806
          ]
        ]
      },
      "properties": {
        "fault_name": "unnamed fault east of Bristol Range",
        "age": "undifferentiated Quaternary",
        "slip_rate": "Less than 0.2 mm/yr"
      }
    },
    {
      "type": "Feature",
      "geometry": {
        "type": "LineString",
        "coordinates": [
          [
            -114.52503645543396,
            38.01542684320992
          ],
          [
            -114.52515812864593,
            38.01451130112668
          ],
          [
            -114.52537202919316,
            38.012927988717614
          ],
          [
            -114.5252348034487,
            38.01166523195334
          ],
          [
            -114.52547092382449,
            38.01105134976362
          ]
        ]
      },
      "properties": {
        "fault_name": "unnamed fault east of Bristol Range",
        "age": "undifferentiated Quaternary",
        "slip_rate": "Less than 0.2 mm/yr"
      }
    },
    {
      "type": "Feature",
      "geometry": {
        "type": "LineString",
        "coordinates": [
          [
            -114.52288469568107,
            38.01202023269822
          ],
          [
            -114.52347194594186,
            38.01073858314024
          ],
          [
            -114.52351028334324,
            38.00959415522287
          ],
          [
            -114.52363250901912,
            38.00848750314732
          ],
          [
            -114.52370084835435,
            38.00661086376802
          ],
          [
            -114.52380029904285,
            38.005398104782664
          ],
          [
            -114.52375474277984,
            38.00415812266791
          ]
        ]
      },
      "properties": {
        "fault_name": "unnamed fault east of Bristol Range",
        "age": "undifferentiated Quaternary",
        "slip_rate": "Less than 0.2 mm/yr"
      }
    },
    {
      "type": "Feature",
      "geometry": {
        "type": "LineString",
        "coordinates": [
          [
            -114.52008456339716,
            38.0216673232972
          ],
          [
            -114.51832948889395,
            38.02009957397078
          ],
          [
            -114.51626217437105,
            38.017749614969475
          ],
          [
            -114.51499545459903,
            38.01599520028138
          ],
          [
            -114.51410263790275,
            38.014919107307044
          ],
          [
            -114.51338538435235,
            38.01403801128541
          ],
          [
            -114.51263812707147,
            38.013004139116546
          ],
          [
            -114.51180642456059,
            38.01185249124211
          ],
          [
            -114.5116080828341,
            38.01153193972769
          ]
        ]
      },
      "properties": {
        "fault_name": "unnamed fault east of Bristol Range",
        "age": "undifferentiated Quaternary",
        "slip_rate": "Less than 0.2 mm/yr"
      }
    },
    {
      "type": "Feature",
      "geometry": {
        "type": "LineString",
        "coordinates": [
          [
            -114.51185975843732,
            38.01710519267681
          ],
          [
            -114.5116919729052,
            38.01596465404062
          ],
          [
            -114.51172975424943,
            38.01467522885503
          ],
          [
            -114.5116536399954,
            38.013736907670456
          ],
          [
            -114.51159252581,
            38.013595799273176
          ]
        ]
      },
      "properties": {
        "fault_name": "unnamed fault east of Bristol Range",
        "age": "undifferentiated Quaternary",
        "slip_rate": "Less than 0.2 mm/yr"
      }
    },
    {
      "type": "Feature",
      "geometry": {
        "type": "LineString",
        "coordinates": [
          [
            -114.33169939966204,
            37.71578179068886
          ],
          [
            -114.33262220391913,
            37.714934570668284
          ],
          [
            -114.33320222094525,
            37.71427123907699
          ],
          [
            -114.33372112198934,
            37.713511797684475
          ],
          [
            -114.33404167681533,
            37.71222624765798
          ],
          [
            -114.33510947904072,
            37.7105284766861
          ],
          [
            -114.33617784181487,
            37.70945292376712
          ],
          [
            -114.338405687974,
            37.70771348309513
          ],
          [
            -114.33953461426627,
            37.70711459570394
          ],
          [
            -114.34129744662027,
            37.70569570871334
          ],
          [
            -114.34265525376547,
            37.70321627184874
          ],
          [
            -114.34344136408073,
            37.69975628469932
          ],
          [
            -114.34367023505217,
            37.696910186169404
          ],
          [
            -114.34344132275821,
            37.69532741587475
          ],
          [
            -114.34324297474348,
            37.694659641736166
          ],
          [
            -114.34289961708234,
            37.693580202741856
          ]
        ]
      },
      "properties": {
        "fault_name": "unnamed faults in the Panaca area",
        "age": "undifferentiated Quaternary",
        "slip_rate": "Less than 0.2 mm/yr"
      }
    },
    {
      "type": "Feature",
      "geometry": {
        "type": "LineString",
        "coordinates": [
          [
            -114.31907963388706,
            37.73063951497265
          ],
          [
            -114.31928574065091,
            37.72954118528086
          ],
          [
            -114.31980463900007,
            37.72855341290472
          ],
          [
            -114.3210785596674,
            37.7271339730021
          ],
          [
            -114.32258194239765,
            37.72644341928432
          ],
          [
            -114.32374142308771,
            37.72580286630383
          ],
          [
            -114.32495479820322,
            37.72536786505362
          ],
          [
            -114.32584760591632,
            37.72511620025925
          ],
          [
            -114.32732765490708,
            37.72452119874407
          ],
          [
            -114.32793044961555,
            37.72394897871199
          ],
          [
            -114.32850990070305,
            37.72245731882689
          ],
          [
            -114.32874656276299,
            37.72108010331
          ],
          [
            -114.32894489011646,
            37.719729555091895
          ],
          [
            -114.32903655330973,
            37.719039556944146
          ],
          [
            -114.32897543822601,
            37.71890177995196
          ],
          [
            -114.3288076491006,
            37.71828011681805
          ]
        ]
      },
      "properties": {
        "fault_name": "unnamed faults in the Panaca area",
        "age": "undifferentiated Quaternary",
        "slip_rate": "Less than 0.2 mm/yr"
      }
    },
    {
      "type": "Feature",
      "geometry": {
        "type": "LineString",
        "coordinates": [
          [
            -114.31719534481509,
            37.7615653943454
          ],
          [
            -114.31769147177009,
            37.760485960697196
          ],
          [
            -114.31814926401867,
            37.75929153224476
          ],
          [
            -114.31835538066397,
            37.758399319776466
          ],
          [
            -114.31856149730929,
            37.75759432883307
          ],
          [
            -114.31850038132725,
            37.756632674998755
          ],
          [
            -114.31862205094596,
            37.755671574010385
          ],
          [
            -114.3188509443753,
            37.754408811063726
          ],
          [
            -114.31902650482623,
            37.7535582650332
          ],
          [
            -114.31931651333929,
            37.75259716388105
          ],
          [
            -114.31952262908626,
            37.75165495415355
          ],
          [
            -114.31963707804674,
            37.75105607327607
          ],
          [
            -114.31975152431225,
            37.750575522215364
          ]
        ]
      },
      "properties": {
        "fault_name": "unnamed faults in the Panaca area",
        "age": "undifferentiated Quaternary",
        "slip_rate": "Less than 0.2 mm/yr"
      }
    },
    {
      "type": "Feature",
      "geometry": {
        "type": "LineString",
        "coordinates": [
          [
            -114.31595182942517,
            37.73910447473622
          ],
          [
            -114.31788962125715,
            37.73378283319742
          ]
        ]
      },
      "properties": {
        "fault_name": "unnamed faults in the Panaca area",
        "age": "undifferentiated Quaternary",
        "slip_rate": "Less than 0.2 mm/yr"
      }
    },
    {
      "type": "Feature",
      "geometry": {
        "type": "LineString",
        "coordinates": [
          [
            -114.31561637873514,
            37.751582180292964
          ],
          [
            -114.31576137939841,
            37.7503199718929
          ],
          [
            -114.31593637660565,
            37.748942758191646
          ],
          [
            -114.31588302835587,
            37.74772943167133
          ],
          [
            -114.31608913242478,
            37.746329437980705
          ],
          [
            -114.31614245642002,
            37.74524999868216
          ],
          [
            -114.31617300722453,
            37.74474666770931
          ],
          [
            -114.31620355982565,
            37.74430778064567
          ]
        ]
      },
      "properties": {
        "fault_name": "unnamed faults in the Panaca area",
        "age": "undifferentiated Quaternary",
        "slip_rate": "Less than 0.2 mm/yr"
      }
    },
    {
      "type": "Feature",
      "geometry": {
        "type": "LineString",
        "coordinates": [
          [
            -114.21648404241776,
            37.98155607575294
          ],
          [
            -114.21594235560646,
            37.97866500233465
          ],
          [
            -114.2155990087251,
            37.97726835274406
          ],
          [
            -114.21513343437124,
            37.97597892617081
          ],
          [
            -114.21472897240614,
            37.975040604804555
          ],
          [
            -114.21418728379824,
            37.974026172704924
          ],
          [
            -114.21398171961681,
            37.97331285012631
          ],
          [
            -114.21379060483675,
            37.97035622194619
          ],
          [
            -114.21364559968191,
            37.96911679470599
          ],
          [
            -114.21321836362772,
            37.96645794100437
          ],
          [
            -114.21316502975098,
            37.9648024071151
          ],
          [
            -114.21262334383803,
            37.96253243571637
          ],
          [
            -114.21236389062105,
            37.960514685678575
          ],
          [
            -114.21240222981906,
            37.9588169332581
          ],
          [
            -114.21228778085859,
            37.957298619283016
          ],
          [
            -114.21223444788019,
            37.95626529876503
          ],
          [
            -114.21197499376488,
            37.9551208709467
          ],
          [
            -114.21179943241565,
            37.954044773778726
          ],
          [
            -114.21163164868013,
            37.95342311425989
          ],
          [
            -114.21172332085655,
            37.95193146922281
          ]
        ]
      },
      "properties": {
        "fault_name": "unnamed faults in the Panaca area",
        "age": "undifferentiated Quaternary",
        "slip_rate": "Less than 0.2 mm/yr"
      }
    },
    {
      "type": "Feature",
      "geometry": {
        "type": "LineString",
        "coordinates": [
          [
            -114.20815981641387,
            37.9622963267463
          ],
          [
            -114.20815982000713,
            37.96018302303817
          ],
          [
            -114.20872485043937,
            37.95726861664752
          ],
          [
            -114.20886986188242,
            37.955025314220535
          ],
          [
            -114.20896876010698,
            37.95192813574717
          ],
          [
            -114.20944211926111,
            37.94945205825565
          ],
          [
            -114.20950267828769,
            37.94796041121775
          ],
          [
            -114.20910600291948,
            37.94484045265757
          ],
          [
            -114.20858709468887,
            37.94345936066654
          ],
          [
            -114.20829763863969,
            37.94249437402359
          ],
          [
            -114.20830486558617,
            37.93967552278089
          ],
          [
            -114.20839653955922,
            37.93790499322999
          ],
          [
            -114.20866377757648,
            37.935498356986855
          ],
          [
            -114.20922047433781,
            37.93238173296568
          ],
          [
            -114.20890768993905,
            37.92992510073458
          ],
          [
            -114.20906047809751,
            37.92726235821297
          ],
          [
            -114.20892325414967,
            37.92549627233336
          ],
          [
            -114.20857990906491,
            37.92405406805531
          ],
          [
            -114.20768710314842,
            37.92070133771409
          ],
          [
            -114.20703097186828,
            37.91799304218254
          ],
          [
            -114.20619927744227,
            37.915765295686796
          ],
          [
            -114.20542091509633,
            37.91429642677225
          ],
          [
            -114.20527591263645,
            37.913495327286896
          ],
          [
            -114.20510812890095,
            37.91277811494405
          ],
          [
            -114.20496312733935,
            37.911519243786955
          ],
          [
            -114.20484867837888,
            37.9111303610975
          ]
        ]
      },
      "properties": {
        "fault_name": "unnamed faults in the Panaca area",
        "age": "undifferentiated Quaternary",
        "slip_rate": "Less than 0.2 mm/yr"
      }
    },
    {
      "type": "Feature",
      "geometry": {
        "type": "LineString",
        "coordinates": [
          [
            -114.51541439740652,
            37.80949639420918
          ],
          [
            -114.5156738461319,
            37.80763474670046
          ],
          [
            -114.51581106918145,
            37.805044774112204
          ],
          [
            -114.5161316338889,
            37.80355312279213
          ],
          [
            -114.51668109741559,
            37.802107581132844
          ],
          [
            -114.51694055242922,
            37.80150814280024
          ],
          [
            -114.51736778489011,
            37.79905538677793
          ],
          [
            -114.51782557983363,
            37.797377073318614
          ],
          [
            -114.51852004941351,
            37.795977083777615
          ],
          [
            -114.51906895867965,
            37.79492431428655
          ],
          [
            -114.51978620863677,
            37.793615992772175
          ],
          [
            -114.5202823409817,
            37.793108774956536
          ],
          [
            -114.52057235129136,
            37.79255933427849
          ],
          [
            -114.52045012022562,
            37.79122768428062
          ],
          [
            -114.52038900244693,
            37.79010658425448
          ],
          [
            -114.52090790888091,
            37.788294380304436
          ],
          [
            -114.52148793039864,
            37.78702772521722
          ],
          [
            -114.5222357392451,
            37.785948289110735
          ],
          [
            -114.52275409231687,
            37.785307739252666
          ],
          [
            -114.5232730014458,
            37.784433857973305
          ],
          [
            -114.52399802901667,
            37.783358310814734
          ]
        ]
      },
      "properties": {
        "fault_name": "unnamed faults east of the Highland Range",
        "age": "undifferentiated Quaternary",
        "slip_rate": "Less than 0.2 mm/yr"
      }
    },
    {
      "type": "Feature",
      "geometry": {
        "type": "LineString",
        "coordinates": [
          [
            -114.51559770043686,
            37.79623265025394
          ],
          [
            -114.51571214580405,
            37.79478710872037
          ],
          [
            -114.5160554917871,
            37.79400878320112
          ],
          [
            -114.51652106524266,
            37.792952124646
          ],
          [
            -114.51692552541114,
            37.79196435676036
          ],
          [
            -114.51718442257096,
            37.791139918784864
          ],
          [
            -114.517352760567,
            37.79044992822878
          ],
          [
            -114.5175583238501,
            37.789648823646004
          ]
        ]
      },
      "properties": {
        "fault_name": "unnamed faults east of the Highland Range",
        "age": "undifferentiated Quaternary",
        "slip_rate": "Less than 0.2 mm/yr"
      }
    },
    {
      "type": "Feature",
      "geometry": {
        "type": "LineString",
        "coordinates": [
          [
            -114.51127164669218,
            37.8851411412251
          ],
          [
            -114.51118052787797,
            37.88373726719436
          ],
          [
            -114.5113560892272,
            37.88293616330388
          ],
          [
            -114.51152387116609,
            37.88213117165958
          ],
          [
            -114.51181332631693,
            37.88130729126675
          ],
          [
            -114.51204222423786,
            37.88020452520844
          ],
          [
            -114.5124772406007,
            37.879449530335165
          ],
          [
            -114.51285114277816,
            37.87837009697644
          ],
          [
            -114.51299614523806,
            37.87749621678704
          ],
          [
            -114.51279002230454,
            37.876351785926815
          ],
          [
            -114.51284335258802,
            37.874425695262175
          ],
          [
            -114.51266834010941,
            37.87279293701325
          ],
          [
            -114.51269889181224,
            37.871053512238845
          ],
          [
            -114.51272889284778,
            37.87052296073909
          ],
          [
            -114.51278278098502,
            37.86967630417837
          ],
          [
            -114.51301167710933,
            37.868711311753756
          ],
          [
            -114.51321724039241,
            37.86791021108778
          ],
          [
            -114.5134766936094,
            37.86733410529948
          ],
          [
            -114.5138200413891,
            37.866784663202004
          ],
          [
            -114.51454507075658,
            37.86575078471233
          ]
        ]
      },
      "properties": {
        "fault_name": "unnamed faults east of the Highland Range",
        "age": "undifferentiated Quaternary",
        "slip_rate": "Less than 0.2 mm/yr"
      }
    },
    {
      "type": "Feature",
      "geometry": {
        "type": "LineString",
        "coordinates": [
          [
            -114.49970501634898,
            37.8789995787468
          ],
          [
            -114.49797328726339,
            37.878907914317324
          ],
          [
            -114.49559264306433,
            37.87856458329587
          ],
          [
            -114.49287643319087,
            37.87870569386389
          ],
          [
            -114.4902368936286,
            37.87870569315482
          ],
          [
            -114.48797847780037,
            37.878755136705756
          ],
          [
            -114.48638397805252,
            37.87907568868289
          ],
          [
            -114.48514004314936,
            37.87930457532912
          ],
          [
            -114.48395777759045,
            37.87941901732193
          ]
        ]
      },
      "properties": {
        "fault_name": "unnamed faults east of the Highland Range",
        "age": "undifferentiated Quaternary",
        "slip_rate": "Less than 0.2 mm/yr"
      }
    },
    {
      "type": "Feature",
      "geometry": {
        "type": "LineString",
        "coordinates": [
          [
            -114.47958595827531,
            37.88116622113441
          ],
          [
            -114.47677807802208,
            37.881490105668824
          ],
          [
            -114.47361963022921,
            37.88185676828231
          ],
          [
            -114.4706667457194,
            37.88227620831167
          ],
          [
            -114.46927836441351,
            37.88266509174302
          ],
          [
            -114.46878223476355,
            37.88270731417693
          ]
        ]
      },
      "properties": {
        "fault_name": "unnamed faults east of the Highland Range",
        "age": "undifferentiated Quaternary",
        "slip_rate": "Less than 0.2 mm/yr"
      }
    },
    {
      "type": "Feature",
      "geometry": {
        "type": "LineString",
        "coordinates": [
          [
            -114.46412818365079,
            37.88539672932509
          ],
          [
            -114.4619536596903,
            37.88553394865201
          ],
          [
            -114.45974858043374,
            37.885671169850184
          ],
          [
            -114.4585663130782,
            37.88553394865201
          ],
          [
            -114.45485784390483,
            37.885144508215575
          ],
          [
            -114.45042490321778,
            37.88446173767639
          ],
          [
            -114.4469536638396,
            37.883683969300606
          ],
          [
            -114.44524471243636,
            37.88370285785793
          ],
          [
            -114.44214682277175,
            37.88365730225963
          ],
          [
            -114.439339496779,
            37.88365730225963
          ],
          [
            -114.43679106974275,
            37.883451193897265
          ],
          [
            -114.43418153121605,
            37.88363396894537
          ],
          [
            -114.43073307221516,
            37.88361119077392
          ],
          [
            -114.4284746563869,
            37.88379841086953
          ],
          [
            -114.42665125871814,
            37.883821188274055
          ],
          [
            -114.42442339908429,
            37.883821188274055
          ],
          [
            -114.42410283168189,
            37.883798408742486
          ],
          [
            -114.42329391314158,
            37.88384007608717
          ],
          [
            -114.42219553855212,
            37.88384396567153
          ]
        ]
      },
      "properties": {
        "fault_name": "unnamed faults east of the Highland Range",
        "age": "undifferentiated Quaternary",
        "slip_rate": "Less than 0.2 mm/yr"
      }
    },
    {
      "type": "Feature",
      "geometry": {
        "type": "LineString",
        "coordinates": [
          [
            -114.42321791566854,
            37.93181342319386
          ],
          [
            -114.42109672558479,
            37.930737324769204
          ],
          [
            -114.41918942886174,
            37.929475114729186
          ],
          [
            -114.41622931740551,
            37.92765902297713
          ],
          [
            -114.41437480209532,
            37.92633181689629
          ],
          [
            -114.41168191877485,
            37.923806289217694
          ],
          [
            -114.40994240668563,
            37.92169686786332
          ],
          [
            -114.40907237216328,
            37.92068965708679
          ],
          [
            -114.40843901407389,
            37.919976331700006
          ]
        ]
      },
      "properties": {
        "fault_name": "unnamed faults east of Pioche",
        "age": "undifferentiated Quaternary",
        "slip_rate": "Less than 0.2 mm/yr"
      }
    },
    {
      "type": "Feature",
      "geometry": {
        "type": "LineString",
        "coordinates": [
          [
            -114.40800400579586,
            37.923050740935594
          ],
          [
            -114.40652394422871,
            37.92075465486804
          ],
          [
            -114.4048761034176,
            37.918183574332026
          ],
          [
            -114.40212154715961,
            37.91424306170543
          ],
          [
            -114.40087816472037,
            37.91235863890762
          ],
          [
            -114.39910809374182,
            37.91003922012988
          ],
          [
            -114.39783415510816,
            37.90859368065591
          ],
          [
            -114.39696412058582,
            37.90772757929561
          ]
        ]
      },
      "properties": {
        "fault_name": "unnamed faults east of Pioche",
        "age": "undifferentiated Quaternary",
        "slip_rate": "Less than 0.2 mm/yr"
      }
    },
    {
      "type": "Feature",
      "geometry": {
        "type": "LineString",
        "coordinates": [
          [
            -114.3421905202347,
            37.93761555830486
          ],
          [
            -114.34161105207922,
            37.93621557306813
          ],
          [
            -114.33944430034256,
            37.933621158749396
          ],
          [
            -114.33752922420916,
            37.93130229711174
          ],
          [
            -114.33556025814188,
            37.92903232217227
          ],
          [
            -114.33385908075908,
            37.92705623377546
          ],
          [
            -114.33096008169164,
            37.9245995936626
          ],
          [
            -114.3284116501638,
            37.922417951654666
          ],
          [
            -114.32682436658263,
            37.92094908024285
          ],
          [
            -114.32488651456352,
            37.91940798769375
          ],
          [
            -114.32306311240318,
            37.91798522693662
          ],
          [
            -114.32129304411959,
            37.91706968086713
          ],
          [
            -114.31874461438838,
            37.91531858934869
          ],
          [
            -114.31634118981202,
            37.913506943854834
          ],
          [
            -114.31301495019879,
            37.91031753564663
          ],
          [
            -114.31052763195805,
            37.90783423095555
          ],
          [
            -114.30887978935033,
            37.905652591352094
          ],
          [
            -114.30746029040301,
            37.90385927792295
          ],
          [
            -114.30679637432259,
            37.902695957727836
          ],
          [
            -114.30601856713552,
            37.90168152465028
          ],
          [
            -114.305552990985,
            37.90078486966942
          ]
        ]
      },
      "properties": {
        "fault_name": "unnamed faults east of Pioche",
        "age": "undifferentiated Quaternary",
        "slip_rate": "Less than 0.2 mm/yr"
      }
    }
  ]
}