{
  "type": "FeatureCollection",
  "features": [
    {
      "type": "Feature",
      "geometry": {
        "type": "LineString",
        "coordinates": [
          [
            -118.533545322301,
            48.8105488536722
          ],
          [
            -118.532552176364,
            48.8031231899316
          ],
          [
            -118.532178543681,
            48.7944386263223
          ],
          [
            -118.529855613544,
            48.7861601335035
          ]
        ]
      },
      "properties": {
        "STATE": "WA",
        "DESCRIPTION": "Fault, sense of displacement unknown or undefined, approximate",
        "RuleID": 21
      }
    },
    {
      "type": "Feature",
      "geometry": {
        "type": "LineString",
        "coordinates": [
          [
            -118.610994682144,
            48.7459372129375
          ],
          [
            -118.614585195334,
            48.7383408599218
          ],
          [
            -118.618064765689,
            48.73218598347
          ],
          [
            -118.619859390319,
            48.7290090581117
          ],
          [
            -118.623918595915,
            48.7217983191598
          ],
          [
            -118.627377598442,
            48.7152908097975
          ],
          [
            -118.632307060445,
            48.7067400519321
          ]
        ]
      },
      "properties": {
        "STATE": "WA",
        "DESCRIPTION": "Fault, sense of displacement unknown or undefined, approximate",
        "RuleID": 21
      }
    },
    {
      "type": "Feature",
      "geometry": {
        "type": "LineString",
        "coordinates": [
          [
            -118.81772385541,
            48.6384767511264
          ],
          [
            -118.81536496661,
            48.6361973801172
          ],
          [
            -118.808033991646,
            48.6285972648264
          ],
          [
            -118.799625312328,
            48.6161432363215
          ]
        ]
      },
      "properties": {
        "STATE": "WA",
        "DESCRIPTION": "Fault, sense of displacement unknown or undefined, approximate",
        "RuleID": 21
      }
    },
    {
      "type": "Feature",
      "geometry": {
        "type": "LineString",
        "coordinates": [
          [
            -118.781161693016,
            48.6755692245184
          ],
          [
            -118.78433444109,
            48.6721710534438
          ],
          [
            -118.785474823597,
            48.6707102666866
          ],
          [
            -118.785562224284,
            48.6699006362731
          ],
          [
            -118.786313095487,
            48.6629430004475
          ],
          [
            -118.786274031349,
            48.6620553580287
          ],
          [
            -118.785675668928,
            48.6526206448112
          ],
          [
            -118.784085534992,
            48.6468102440706
          ],
          [
            -118.78375245316,
            48.6455973110203
          ],
          [
            -118.785264338444,
            48.6376976695933
          ],
          [
            -118.791448797204,
            48.6302561142818
          ],
          [
            -118.793920432657,
            48.6264231984254
          ],
          [
            -118.796129830115,
            48.6221621264293
          ],
          [
            -118.796784571701,
            48.6184511611519
          ],
          [
            -118.798952679894,
            48.6164761031019
          ],
          [
            -118.799625312328,
            48.6161432363215
          ]
        ]
      },
      "properties": {
        "STATE": "WA",
        "DESCRIPTION": "Fault, sense of displacement unknown or undefined, approximate",
        "RuleID": 21
      }
    },
    {
      "type": "Feature",
      "geometry": {
        "type": "LineString",
        "coordinates": [
          [
            -118.848190963872,
            48.4442292157044
          ],
          [
            -118.849171165086,
            48.443384066195
          ],
          [
            -118.851320048433,
            48.4419686922798
          ],
          [
            -118.852521706823,
            48.4396910014492
          ],
          [
            -118.853702380567,
            48.4382735680699
          ],
          [
            -118.858249013833,
            48.4326587383419
          ],
          [
            -118.861950275823,
            48.4291804890931
          ],
          [
            -118.868234610174,
            48.4209744068037
          ],
          [
            -118.868649054219,
            48.4139788348354
          ],
          [
            -118.86921174993,
            48.4027932859649
          ],
          [
            -118.87031273682,
            48.3963253853123
          ],
          [
            -118.871296215088,
            48.3912119115796
          ],
          [
            -118.871938400922,
            48.388772917924
          ],
          [
            -118.872326138053,
            48.3870706846553
          ],
          [
            -118.87334282524,
            48.3840758427601
          ],
          [
            -118.875337577448,
            48.3805118238121
          ],
          [
            -118.876947437489,
            48.3766607577222
          ],
          [
            -118.878335763997,
            48.3743900997112
          ],
          [
            -118.878718909839,
            48.3731912792596
          ],
          [
            -118.882176654725,
            48.3669200300264
          ],
          [
            -118.883653012538,
            48.3617195477382
          ]
        ]
      },
      "properties": {
        "STATE": "WA",
        "DESCRIPTION": "Fault, sense of displacement unknown or undefined, approximate",
        "RuleID": 21
      }
    },
    {
      "type": "Feature",
      "geometry": {
        "type": "LineString",
        "coordinates": [
          [
            -118.637792814967,
            48.6273848443701
          ],
          [
            -118.638272297936,
            48.6213581609141
          ],
          [
            -118.638511805859,
            48.6132592347606
          ],
          [
            -118.637876316966,
            48.6068253096426
          ],
          [
            -118.637788353933,
            48.6019695965423
          ],
          [
            -118.637145999216,
            48.5958294314583
          ]
        ]
      },
      "properties": {
        "STATE": "WA",
        "DESCRIPTION": "Fault, sense of displacement unknown or undefined, approximate",
        "RuleID": 21
      }
    },
    {
      "type": "Feature",
      "geometry": {
        "type": "LineString",
        "coordinates": [
          [
            -118.599539614475,
            48.7541269942003
          ],
          [
            -118.59246846463,
            48.751312260122
          ],
          [
            -118.585718069038,
            48.7483737182352
          ],
          [
            -118.577313692649,
            48.7454327547354
          ],
          [
            -118.572682974378,
            48.7436624538976
          ],
          [
            -118.564873744441,
            48.7409801403369
          ],
          [
            -118.555704190281,
            48.7373202722873
          ]
        ]
      },
      "properties": {
        "STATE": "WA",
        "DESCRIPTION": "Fault, sense of displacement unknown or undefined, approximate",
        "RuleID": 21
      }
    },
    {
      "type": "Feature",
      "geometry": {
        "type": "LineString",
        "coordinates": [
          [
            -118.635169031855,
            48.4518542486943
          ],
          [
            -118.636714905796,
            48.4485094962943
          ],
          [
            -118.64032495375,
            48.4419669974752
          ],
          [
            -118.647927342101,
            48.4294540959341
          ],
          [
            -118.652553877817,
            48.420341343401
          ],
          [
            -118.655985106232,
            48.4130810777834
          ],
          [
            -118.658594439943,
            48.4079567422763
          ],
          [
            -118.660974188522,
            48.4048347982266
          ],
          [
            -118.663983869015,
            48.399422534757
          ],
          [
            -118.667990250978,
            48.3921625037916
          ],
          [
            -118.67019951818,
            48.3877532328481
          ],
          [
            -118.675966684338,
            48.379362934377
          ],
          [
            -118.679347545114,
            48.3740987234101
          ],
          [
            -118.682741446732,
            48.3684113491782
          ],
          [
            -118.687107708171,
            48.3621552205981
          ],
          [
            -118.692514714578,
            48.3523301912686
          ],
          [
            -118.693788687348,
            48.3495769455561
          ],
          [
            -118.696739040405,
            48.3432116550202
          ],
          [
            -118.700931034967,
            48.336095467234
          ],
          [
            -118.706711992061,
            48.3265565126187
          ],
          [
            -118.712083815052,
            48.3180185052996
          ],
          [
            -118.716683532463,
            48.3094710662466
          ],
          [
            -118.719063915252,
            48.3060579413908
          ]
        ]
      },
      "properties": {
        "STATE": "WA",
        "DESCRIPTION": "Fault, sense of displacement unknown or undefined, approximate",
        "RuleID": 21
      }
    },
    {
      "type": "Feature",
      "geometry": {
        "type": "LineString",
        "coordinates": [
          [
            -118.570564328323,
            48.7060368632755
          ],
          [
            -118.57206926424,
            48.6999366712886
          ],
          [
            -118.573527321575,
            48.696112413029
          ],
          [
            -118.575417776683,
            48.6900139642453
          ],
          [
            -118.576570488567,
            48.6824806319574
          ]
        ]
      },
      "properties": {
        "STATE": "WA",
        "DESCRIPTION": "Fault, sense of displacement unknown or undefined, approximate",
        "RuleID": 21
      }
    },
    {
      "type": "Feature",
      "geometry": {
        "type": "LineString",
        "coordinates": [
          [
            -118.799625312328,
            48.6161432363215
          ],
          [
            -118.79919800351,
            48.615508334808
          ],
          [
            -118.79629589717,
            48.6129211731806
          ],
          [
            -118.793652649362,
            48.6105652420062
          ],
          [
            -118.792019955943,
            48.6071604456886
          ],
          [
            -118.791578358523,
            48.6024600417321
          ],
          [
            -118.791076229923,
            48.5958773379473
          ],
          [
            -118.79106684702,
            48.5914062634371
          ],
          [
            -118.791120403679,
            48.5884074229637
          ],
          [
            -118.791546002104,
            48.5861230635341
          ],
          [
            -118.791630176043,
            48.581412711117
          ],
          [
            -118.792662843361,
            48.577992721063
          ],
          [
            -118.793120736221,
            48.5738500270956
          ],
          [
            -118.793536914014,
            48.5724258529701
          ],
          [
            -118.79588261285,
            48.5602984044176
          ],
          [
            -118.797104569572,
            48.556738373496
          ],
          [
            -118.797763463171,
            48.552598363884
          ],
          [
            -118.79817821983,
            48.5508890436288
          ],
          [
            -118.797872214118,
            48.5501708192858
          ],
          [
            -118.798331223584,
            48.5437670601986
          ],
          [
            -118.800925427869,
            48.5389092620977
          ],
          [
            -118.802685858128,
            48.5291878810595
          ],
          [
            -118.804445971281,
            48.5232102536329
          ],
          [
            -118.806311967061,
            48.5166730887475
          ],
          [
            -118.809875903593,
            48.5131899386084
          ],
          [
            -118.811224476955,
            48.5074602854223
          ],
          [
            -118.815982488299,
            48.5009685238101
          ]
        ]
      },
      "properties": {
        "STATE": "WA",
        "DESCRIPTION": "Fault, sense of displacement unknown or undefined, approximate",
        "RuleID": 21
      }
    },
    {
      "type": "Feature",
      "geometry": {
        "type": "LineString",
        "coordinates": [
          [
            -118.818528920177,
            48.637348644729
          ],
          [
            -118.821604022278,
            48.6310776998153
          ],
          [
            -118.82381016514,
            48.6274000086004
          ],
          [
            -118.8264683151,
            48.6216347557735
          ],
          [
            -118.828448096883,
            48.6185690425209
          ],
          [
            -118.830129468211,
            48.6138754257231
          ]
        ]
      },
      "properties": {
        "STATE": "WA",
        "DESCRIPTION": "Fault, sense of displacement unknown or undefined, approximate",
        "RuleID": 21
      }
    },
    {
      "type": "Feature",
      "geometry": {
        "type": "LineString",
        "coordinates": [
          [
            -118.601878550793,
            48.7062928689119
          ],
          [
            -118.605267165827,
            48.7029162667005
          ],
          [
            -118.607883494719,
            48.6992455123467
          ]
        ]
      },
      "properties": {
        "STATE": "WA",
        "DESCRIPTION": "Fault, sense of displacement unknown or undefined, approximate",
        "RuleID": 21
      }
    },
    {
      "type": "Feature",
      "geometry": {
        "type": "LineString",
        "coordinates": [
          [
            -118.585949886484,
            48.7749136416871
          ],
          [
            -118.581163035626,
            48.7830215722686
          ],
          [
            -118.575300793575,
            48.7920464628623
          ],
          [
            -118.572257904162,
            48.7968440800016
          ],
          [
            -118.56825497173,
            48.8014863936418
          ],
          [
            -118.565207320348,
            48.806421746642
          ],
          [
            -118.563537779832,
            48.8109539348779
          ],
          [
            -118.563086335978,
            48.8187676855412
          ],
          [
            -118.556552674219,
            48.8176853908417
          ],
          [
            -118.548006034334,
            48.8164287151663
          ],
          [
            -118.541973475299,
            48.8160627233467
          ],
          [
            -118.537879744751,
            48.8160026868566
          ]
        ]
      },
      "properties": {
        "STATE": "WA",
        "DESCRIPTION": "Fault, sense of displacement unknown or undefined, approximate",
        "RuleID": 21
      }
    },
    {
      "type": "Feature",
      "geometry": {
        "type": "LineString",
        "coordinates": [
          [
            -118.597756364313,
            48.5212741127392
          ],
          [
            -118.602014968054,
            48.5064963146663
          ],
          [
            -118.603468119689,
            48.5019383155942
          ],
          [
            -118.605273566323,
            48.4990982928306
          ],
          [
            -118.609895696701,
            48.491139256702
          ],
          [
            -118.614307871033,
            48.4837469889551
          ],
          [
            -118.619093183975,
            48.4770790262766
          ],
          [
            -118.621507758441,
            48.4726704896747
          ],
          [
            -118.62431484099,
            48.4681216534554
          ],
          [
            -118.629506000201,
            48.4601622141628
          ]
        ]
      },
      "properties": {
        "STATE": "WA",
        "DESCRIPTION": "Fault, sense of displacement unknown or undefined, approximate",
        "RuleID": 21
      }
    },
    {
      "type": "Feature",
      "geometry": {
        "type": "LineString",
        "coordinates": [
          [
            -118.529855613544,
            48.7861601335035
          ],
          [
            -118.52900665799,
            48.7810257487269
          ],
          [
            -118.528951718824,
            48.775331210094
          ],
          [
            -118.528316615308,
            48.769497185683
          ],
          [
            -118.528253798815,
            48.7640874516861
          ],
          [
            -118.528358444461,
            48.7622584415129
          ],
          [
            -118.528601616612,
            48.757976709463
          ],
          [
            -118.529373539834,
            48.750309180002
          ],
          [
            -118.530912694377,
            48.7433600691816
          ],
          [
            -118.531279806189,
            48.7363937307977
          ],
          [
            -118.532429323664,
            48.7292943530789
          ],
          [
            -118.535782261208,
            48.7195295031551
          ],
          [
            -118.536976392613,
            48.7162180762327
          ],
          [
            -118.538286796559,
            48.7125873549461
          ],
          [
            -118.54080403858,
            48.7050797119892
          ],
          [
            -118.544532088332,
            48.6955968827272
          ],
          [
            -118.54622264673,
            48.6900701706223
          ],
          [
            -118.548861948239,
            48.6855544967465
          ],
          [
            -118.549256258343,
            48.6848750242383
          ],
          [
            -118.552085355905,
            48.6800188091775
          ],
          [
            -118.554132000193,
            48.6765084954011
          ],
          [
            -118.557565282157,
            48.6712838624574
          ],
          [
            -118.559229445357,
            48.666754678849
          ],
          [
            -118.560271550375,
            48.6637291482289
          ],
          [
            -118.56152535417,
            48.6600883412618
          ],
          [
            -118.563225835358,
            48.6539859732517
          ],
          [
            -118.563770779461,
            48.6524714892883
          ],
          [
            -118.564968998201,
            48.6491497544544
          ],
          [
            -118.565934119396,
            48.6464705672835
          ],
          [
            -118.566809348876,
            48.6423503552143
          ],
          [
            -118.568945851642,
            48.6341071936935
          ],
          [
            -118.571130646939,
            48.6240145874206
          ],
          [
            -118.571870939582,
            48.6173240126636
          ],
          [
            -118.574272321389,
            48.6060851794924
          ],
          [
            -118.576119458836,
            48.5936944022201
          ],
          [
            -118.577277950481,
            48.5855709967263
          ],
          [
            -118.580172950249,
            48.5781684859369
          ],
          [
            -118.583115799678,
            48.5683507476853
          ],
          [
            -118.586443611343,
            48.558677550388
          ],
          [
            -118.588483726676,
            48.5544110861512
          ],
          [
            -118.589219565471,
            48.5475627572935
          ],
          [
            -118.59132468739,
            48.5400158814073
          ],
          [
            -118.594422353374,
            48.5317556786109
          ],
          [
            -118.596112638684,
            48.5254898538855
          ],
          [
            -118.597756364313,
            48.5212741127392
          ]
        ]
      },
      "properties": {
        "STATE": "WA",
        "DESCRIPTION": "Fault, sense of displacement unknown or undefined, certain",
        "RuleID": 22
      }
    },
    {
      "type": "Feature",
      "geometry": {
        "type": "LineString",
        "coordinates": [
          [
            -118.537879744751,
            48.8160026868566
          ],
          [
            -118.534360759916,
            48.8165236961407
          ],
          [
            -118.529470577647,
            48.8171620175426
          ],
          [
            -118.525543984947,
            48.8182448452413
          ],
          [
            -118.523598949998,
            48.8182236939475
          ],
          [
            -118.521900737954,
            48.8159210283602
          ],
          [
            -118.521574919899,
            48.8132157995688
          ]
        ]
      },
      "properties": {
        "STATE": "WA",
        "DESCRIPTION": "Fault, sense of displacement unknown or undefined, certain",
        "RuleID": 22
      }
    },
    {
      "type": "Feature",
      "geometry": {
        "type": "LineString",
        "coordinates": [
          [
            -118.645160032461,
            48.6775952235411
          ],
          [
            -118.646651655346,
            48.6749919339485
          ],
          [
            -118.647666039253,
            48.6709494968311
          ]
        ]
      },
      "properties": {
        "STATE": "WA",
        "DESCRIPTION": "Fault, sense of displacement unknown or undefined, certain",
        "RuleID": 22
      }
    },
    {
      "type": "Feature",
      "geometry": {
        "type": "LineString",
        "coordinates": [
          [
            -118.588937735221,
            48.6312549429928
          ],
          [
            -118.588438288991,
            48.6281442834929
          ],
          [
            -118.587097619006,
            48.6190015212661
          ],
          [
            -118.585897264072,
            48.6122851294215
          ],
          [
            -118.585275054974,
            48.6057130539239
          ],
          [
            -118.587177313945,
            48.5991675147525
          ],
          [
            -118.587384220209,
            48.5984622889276
          ],
          [
            -118.589492427841,
            48.591483200955
          ],
          [
            -118.591102428019,
            48.5884090213694
          ],
          [
            -118.593958344784,
            48.5829622917667
          ],
          [
            -118.598750539719,
            48.5771580615054
          ],
          [
            -118.60349084976,
            48.573496142689
          ],
          [
            -118.609051754644,
            48.567838239079
          ],
          [
            -118.610839347262,
            48.5661664528158
          ]
        ]
      },
      "properties": {
        "STATE": "WA",
        "DESCRIPTION": "Fault, sense of displacement unknown or undefined, certain",
        "RuleID": 22
      }
    },
    {
      "type": "Feature",
      "geometry": {
        "type": "LineString",
        "coordinates": [
          [
            -118.604422225742,
            48.6512790072506
          ],
          [
            -118.60588639162,
            48.6467366551751
          ],
          [
            -118.606554130032,
            48.6430356637726
          ],
          [
            -118.605719149569,
            48.6373207080323
          ],
          [
            -118.601095421987,
            48.6355595631395
          ],
          [
            -118.598557891515,
            48.6344991044931
          ],
          [
            -118.595130313853,
            48.6330661652735
          ],
          [
            -118.588937735221,
            48.6312549429928
          ]
        ]
      },
      "properties": {
        "STATE": "WA",
        "DESCRIPTION": "Fault, sense of displacement unknown or undefined, certain",
        "RuleID": 22
      }
    },
    {
      "type": "Feature",
      "geometry": {
        "type": "LineString",
        "coordinates": [
          [
            -118.649765465852,
            48.6632444809191
          ],
          [
            -118.650035480562,
            48.6599648208594
          ],
          [
            -118.649332378172,
            48.6566725583988
          ],
          [
            -118.647844463533,
            48.6536654872416
          ],
          [
            -118.646940545456,
            48.6505081525449
          ],
          [
            -118.64704937815,
            48.6456568865703
          ]
        ]
      },
      "properties": {
        "STATE": "WA",
        "DESCRIPTION": "Fault, sense of displacement unknown or undefined, certain",
        "RuleID": 22
      }
    },
    {
      "type": "Feature",
      "geometry": {
        "type": "LineString",
        "coordinates": [
          [
            -118.649347135696,
            48.7520691501715
          ],
          [
            -118.649042054351,
            48.7468826908728
          ],
          [
            -118.648833406253,
            48.7390465888503
          ],
          [
            -118.649769351066,
            48.7320809525999
          ],
          [
            -118.649878406541,
            48.7272394640905
          ],
          [
            -118.64998507699,
            48.7225409074497
          ],
          [
            -118.650892118508,
            48.7168487408593
          ],
          [
            -118.651611856799,
            48.7107344435062
          ]
        ]
      },
      "properties": {
        "STATE": "WA",
        "DESCRIPTION": "Fault, sense of displacement unknown or undefined, certain",
        "RuleID": 22
      }
    },
    {
      "type": "Feature",
      "geometry": {
        "type": "LineString",
        "coordinates": [
          [
            -118.596857150713,
            48.7381121523256
          ],
          [
            -118.598790205729,
            48.7385648210716
          ],
          [
            -118.599893656698,
            48.7414264629248
          ],
          [
            -118.599248385151,
            48.7438392206936
          ],
          [
            -118.597038632858,
            48.7467991256526
          ],
          [
            -118.593901192169,
            48.7477511450238
          ],
          [
            -118.590411213035,
            48.747284508885
          ],
          [
            -118.58792205235,
            48.7453966625774
          ],
          [
            -118.588392898018,
            48.7421300881885
          ],
          [
            -118.590592775131,
            48.7395980073824
          ],
          [
            -118.593543629448,
            48.738214818612
          ],
          [
            -118.596857150713,
            48.7381121523256
          ]
        ]
      },
      "properties": {
        "STATE": "WA",
        "DESCRIPTION": "Fault, sense of displacement unknown or undefined, certain",
        "RuleID": 22
      }
    },
    {
      "type": "Feature",
      "geometry": {
        "type": "LineString",
        "coordinates": [
          [
            -118.632307060445,
            48.7067400519321
          ],
          [
            -118.633851144044,
            48.7040844174708
          ],
          [
            -118.635371679206,
            48.7005279377784
          ],
          [
            -118.637143867514,
            48.6966057909513
          ],
          [
            -118.640391883629,
            48.6906549256367
          ]
        ]
      },
      "properties": {
        "STATE": "WA",
        "DESCRIPTION": "Fault, sense of displacement unknown or undefined, certain",
        "RuleID": 22
      }
    },
    {
      "type": "Feature",
      "geometry": {
        "type": "LineString",
        "coordinates": [
          [
            -118.610839347262,
            48.5661664528158
          ],
          [
            -118.611888395359,
            48.5598851449896
          ],
          [
            -118.614249264944,
            48.5497707421406
          ],
          [
            -118.615129451327,
            48.5443382042276
          ],
          [
            -118.615356572381,
            48.5428930808091
          ],
          [
            -118.615502120118,
            48.5415491647154
          ]
        ]
      },
      "properties": {
        "STATE": "WA",
        "DESCRIPTION": "Fault, sense of displacement unknown or undefined, certain",
        "RuleID": 22
      }
    },
    {
      "type": "Feature",
      "geometry": {
        "type": "LineString",
        "coordinates": [
          [
            -118.653415090883,
            48.6994960498664
          ],
          [
            -118.655079693359,
            48.6946671947256
          ],
          [
            -118.656361895595,
            48.6896939338467
          ]
        ]
      },
      "properties": {
        "STATE": "WA",
        "DESCRIPTION": "Fault, sense of displacement unknown or undefined, certain",
        "RuleID": 22
      }
    },
    {
      "type": "Feature",
      "geometry": {
        "type": "LineString",
        "coordinates": [
          [
            -118.906332430869,
            48.4118196365631
          ],
          [
            -118.897081742668,
            48.4220417833333
          ],
          [
            -118.895317363415,
            48.4234817511688
          ],
          [
            -118.891008544747,
            48.4269964425157
          ],
          [
            -118.885119964991,
            48.4325249617493
          ],
          [
            -118.879619149315,
            48.4377777575327
          ],
          [
            -118.873533096502,
            48.4430163323141
          ],
          [
            -118.8699594393,
            48.4454626221011
          ],
          [
            -118.862374888796,
            48.4513644424491
          ],
          [
            -118.855117889198,
            48.4573063114497
          ],
          [
            -118.851798546849,
            48.458997870166
          ],
          [
            -118.848478260372,
            48.4612551593134
          ],
          [
            -118.84069904764,
            48.463620891561
          ],
          [
            -118.835251925167,
            48.4654343900378
          ],
          [
            -118.831752297229,
            48.4662614237662
          ],
          [
            -118.829825715474,
            48.46638736586
          ]
        ]
      },
      "properties": {
        "STATE": "WA",
        "DESCRIPTION": "Fault, sense of displacement unknown or undefined, certain",
        "RuleID": 22
      }
    },
    {
      "type": "Feature",
      "geometry": {
        "type": "LineString",
        "coordinates": [
          [
            -118.588937735221,
            48.6312549429928
          ],
          [
            -118.589288087165,
            48.6334276714719
          ],
          [
            -118.588573566289,
            48.6391242396541
          ]
        ]
      },
      "properties": {
        "STATE": "WA",
        "DESCRIPTION": "Fault, sense of displacement unknown or undefined, certain",
        "RuleID": 22
      }
    },
    {
      "type": "Feature",
      "geometry": {
        "type": "LineString",
        "coordinates": [
          [
            -118.830129468211,
            48.6138754257231
          ],
          [
            -118.832760816934,
            48.6081093609823
          ],
          [
            -118.834844145724,
            48.6024370613814
          ],
          [
            -118.83718509876,
            48.5971253372203
          ],
          [
            -118.838027192982,
            48.5928465895848
          ],
          [
            -118.8392506445,
            48.589143672998
          ],
          [
            -118.841734099985,
            48.5803079859941
          ]
        ]
      },
      "properties": {
        "STATE": "WA",
        "DESCRIPTION": "Fault, sense of displacement unknown or undefined, certain",
        "RuleID": 22
      }
    },
    {
      "type": "Feature",
      "geometry": {
        "type": "LineString",
        "coordinates": [
          [
            -118.610839347262,
            48.5661664528158
          ],
          [
            -118.615390391256,
            48.5619036557994
          ],
          [
            -118.624675961938,
            48.5539999679715
          ],
          [
            -118.627635234368,
            48.5514521956364
          ],
          [
            -118.629801174027,
            48.549541058899
          ],
          [
            -118.632323955959,
            48.5471818578279
          ]
        ]
      },
      "properties": {
        "STATE": "WA",
        "DESCRIPTION": "Fault, sense of displacement unknown or undefined, certain",
        "RuleID": 22
      }
    },
    {
      "type": "Feature",
      "geometry": {
        "type": "LineString",
        "coordinates": [
          [
            -118.604095514761,
            48.7459105519252
          ],
          [
            -118.605722922493,
            48.7429762312052
          ],
          [
            -118.610631230069,
            48.7327963187849
          ],
          [
            -118.613315184135,
            48.7259945904891
          ],
          [
            -118.617473098412,
            48.7147984655716
          ],
          [
            -118.619958412511,
            48.7082783299661
          ],
          [
            -118.624250517124,
            48.6990704700334
          ],
          [
            -118.625245846866,
            48.6965033237243
          ],
          [
            -118.627744108383,
            48.6909943189483
          ],
          [
            -118.627991737076,
            48.6902946076785
          ],
          [
            -118.630653182057,
            48.6827606062572
          ],
          [
            -118.632406918969,
            48.6740873871165
          ],
          [
            -118.633536312385,
            48.6672574885769
          ],
          [
            -118.634874476968,
            48.6598606129119
          ],
          [
            -118.636042910268,
            48.6513101438834
          ],
          [
            -118.636292282591,
            48.6460604463766
          ],
          [
            -118.636407917328,
            48.6436109414708
          ],
          [
            -118.636562155367,
            48.636754423385
          ],
          [
            -118.637792814967,
            48.6273848443701
          ]
        ]
      },
      "properties": {
        "STATE": "WA",
        "DESCRIPTION": "Fault, sense of displacement unknown or undefined, certain",
        "RuleID": 22
      }
    },
    {
      "type": "Feature",
      "geometry": {
        "type": "LineString",
        "coordinates": [
          [
            -118.599539614475,
            48.7541269942003
          ],
          [
            -118.594794053781,
            48.7604821644323
          ],
          [
            -118.590728775573,
            48.7676861406186
          ],
          [
            -118.585949886484,
            48.7749136416871
          ]
        ]
      },
      "properties": {
        "STATE": "WA",
        "DESCRIPTION": "Fault, sense of displacement unknown or undefined, certain",
        "RuleID": 22
      }
    },
    {
      "type": "Feature",
      "geometry": {
        "type": "LineString",
        "coordinates": [
          [
            -118.676491001325,
            48.8802572776958
          ],
          [
            -118.681239619884,
            48.8731049001376
          ],
          [
            -118.689315501238,
            48.8609624367989
          ],
          [
            -118.696224701905,
            48.8483806452832
          ],
          [
            -118.69975431381,
            48.841892235008
          ],
          [
            -118.701916123914,
            48.8379152673065
          ],
          [
            -118.706187152254,
            48.8299963030216
          ],
          [
            -118.710467656024,
            48.8212213724466
          ],
          [
            -118.713547891997,
            48.8142793465989
          ],
          [
            -118.716869984089,
            48.8049225695311
          ],
          [
            -118.719786395201,
            48.7964137080917
          ],
          [
            -118.721116642033,
            48.7948499820314
          ],
          [
            -118.722472877127,
            48.7863199066918
          ],
          [
            -118.723758161483,
            48.7807815721458
          ],
          [
            -118.723822697351,
            48.7777888405348
          ],
          [
            -118.725478305894,
            48.7732500321055
          ],
          [
            -118.726776059764,
            48.7721221595889
          ],
          [
            -118.732958973422,
            48.7465984132455
          ],
          [
            -118.733810030136,
            48.7426028240214
          ],
          [
            -118.739060112541,
            48.7338053208541
          ],
          [
            -118.739483287312,
            48.7323821958626
          ],
          [
            -118.743111783069,
            48.7258568727468
          ],
          [
            -118.745113712816,
            48.7233050601159
          ],
          [
            -118.745964156878,
            48.7224906274234
          ],
          [
            -118.749784744782,
            48.7166627315249
          ],
          [
            -118.762787378819,
            48.6968110200572
          ],
          [
            -118.76297425445,
            48.6960207605528
          ],
          [
            -118.763165640521,
            48.6952129943682
          ],
          [
            -118.768491325141,
            48.6888564916182
          ],
          [
            -118.768738841544,
            48.6884906124477
          ],
          [
            -118.769562129536,
            48.6872697290829
          ],
          [
            -118.780006164015,
            48.6767354337671
          ],
          [
            -118.781161693016,
            48.6755692245184
          ]
        ]
      },
      "properties": {
        "STATE": "WA",
        "DESCRIPTION": "Fault, sense of displacement unknown or undefined, certain",
        "RuleID": 22
      }
    },
    {
      "type": "Feature",
      "geometry": {
        "type": "LineString",
        "coordinates": [
          [
            -118.871802839756,
            48.4990442712741
          ],
          [
            -118.841856904176,
            48.5087449342803
          ],
          [
            -118.835420061941,
            48.5108328163083
          ],
          [
            -118.827702064006,
            48.5133362607242
          ],
          [
            -118.825272913477,
            48.5140023529498
          ],
          [
            -118.822145109015,
            48.5151159564238
          ],
          [
            -118.820083681152,
            48.5156312835624
          ]
        ]
      },
      "properties": {
        "STATE": "WA",
        "DESCRIPTION": "Fault, sense of displacement unknown or undefined, certain",
        "RuleID": 22
      }
    },
    {
      "type": "Feature",
      "geometry": {
        "type": "LineString",
        "coordinates": [
          [
            -118.538960039847,
            48.8890257768337
          ],
          [
            -118.541496677394,
            48.8820837419743
          ],
          [
            -118.543210824653,
            48.8759864657907
          ],
          [
            -118.546501739814,
            48.8691996565355
          ],
          [
            -118.550365481886,
            48.862846559655
          ],
          [
            -118.554020186889,
            48.8572060247905
          ],
          [
            -118.556511254698,
            48.8511217951546
          ],
          [
            -118.558780714414,
            48.8460310976846
          ],
          [
            -118.560051491877,
            48.8417779521451
          ],
          [
            -118.560405612253,
            48.8377841178172
          ],
          [
            -118.560857344467,
            48.8326835730037
          ],
          [
            -118.562579936788,
            48.8260190526211
          ],
          [
            -118.562650763558,
            48.8250139417169
          ],
          [
            -118.563086335978,
            48.8187676855412
          ]
        ]
      },
      "properties": {
        "STATE": "WA",
        "DESCRIPTION": "Fault, sense of displacement unknown or undefined, certain",
        "RuleID": 22
      }
    },
    {
      "type": "Feature",
      "geometry": {
        "type": "LineString",
        "coordinates": [
          [
            -118.829825715474,
            48.46638736586
          ],
          [
            -118.829986380959,
            48.4683916901218
          ],
          [
            -118.828588900618,
            48.4710939723568
          ],
          [
            -118.826965281082,
            48.4755184625986
          ],
          [
            -118.82650296851,
            48.479800531813
          ],
          [
            -118.824681729493,
            48.4847881909139
          ],
          [
            -118.822860759971,
            48.4893472539543
          ],
          [
            -118.821182081793,
            48.4938732238464
          ],
          [
            -118.815982488299,
            48.5009685238101
          ]
        ]
      },
      "properties": {
        "STATE": "WA",
        "DESCRIPTION": "Fault, sense of displacement unknown or undefined, certain",
        "RuleID": 22
      }
    },
    {
      "type": "Feature",
      "geometry": {
        "type": "LineString",
        "coordinates": [
          [
            -118.848190963872,
            48.4442292157044
          ],
          [
            -118.846222493675,
            48.4459331097621
          ],
          [
            -118.841507283461,
            48.4503268009543
          ],
          [
            -118.837952301335,
            48.4548730700103
          ],
          [
            -118.834773207562,
            48.4598527898587
          ],
          [
            -118.831820504512,
            48.4629718544521
          ],
          [
            -118.829825715474,
            48.46638736586
          ]
        ]
      },
      "properties": {
        "STATE": "WA",
        "DESCRIPTION": "Fault, sense of displacement unknown or undefined, certain",
        "RuleID": 22
      }
    },
    {
      "type": "Feature",
      "geometry": {
        "type": "LineString",
        "coordinates": [
          [
            -118.651611856799,
            48.7107344435062
          ],
          [
            -118.651119732737,
            48.7067421984978
          ],
          [
            -118.651193726967,
            48.7034594614499
          ],
          [
            -118.653415090883,
            48.6994960498664
          ]
        ]
      },
      "properties": {
        "STATE": "WA",
        "DESCRIPTION": "Fault, sense of displacement unknown or undefined, concealed",
        "RuleID": 23
      }
    },
    {
      "type": "Feature",
      "geometry": {
        "type": "LineString",
        "coordinates": [
          [
            -118.640391883629,
            48.6906549256367
          ],
          [
            -118.642420409796,
            48.6871162555591
          ],
          [
            -118.643883167116,
            48.682573292433
          ],
          [
            -118.645160032461,
            48.6775952235411
          ]
        ]
      },
      "properties": {
        "STATE": "WA",
        "DESCRIPTION": "Fault, sense of displacement unknown or undefined, concealed",
        "RuleID": 23
      }
    },
    {
      "type": "Feature",
      "geometry": {
        "type": "LineString",
        "coordinates": [
          [
            -118.818528920177,
            48.637348644729
          ],
          [
            -118.81772385541,
            48.6384767511264
          ],
          [
            -118.814782719966,
            48.6426058103484
          ],
          [
            -118.810026804391,
            48.647988773513
          ],
          [
            -118.804886523961,
            48.6529424602489
          ],
          [
            -118.800350207846,
            48.6568986182773
          ],
          [
            -118.797188729137,
            48.6598695121578
          ],
          [
            -118.793427421957,
            48.6638285494429
          ],
          [
            -118.791057735408,
            48.6659516635511
          ],
          [
            -118.785562224284,
            48.6699006362731
          ]
        ]
      },
      "properties": {
        "STATE": "WA",
        "DESCRIPTION": "Fault, sense of displacement unknown or undefined, concealed",
        "RuleID": 23
      }
    },
    {
      "type": "Feature",
      "geometry": {
        "type": "LineString",
        "coordinates": [
          [
            -118.599539614475,
            48.7541269942003
          ],
          [
            -118.598723671109,
            48.7501566118201
          ],
          [
            -118.601239508165,
            48.7464135161817
          ],
          [
            -118.604095514761,
            48.7459105519252
          ],
          [
            -118.610994682144,
            48.7459372129375
          ],
          [
            -118.619326918426,
            48.7502387416506
          ],
          [
            -118.622774699199,
            48.7464619123339
          ],
          [
            -118.627318282684,
            48.7437874863597
          ],
          [
            -118.632129047593,
            48.7430280919592
          ],
          [
            -118.636907153352,
            48.7435869639244
          ],
          [
            -118.641375752664,
            48.7469158315342
          ],
          [
            -118.64359506393,
            48.7506744836353
          ],
          [
            -118.644427864182,
            48.7526625113032
          ]
        ]
      },
      "properties": {
        "STATE": "WA",
        "DESCRIPTION": "Thrust fault, certain, (teeth on right from origin)",
        "RuleID": 63
      }
    },
    {
      "type": "Feature",
      "geometry": {
        "type": "LineString",
        "coordinates": [
          [
            -118.601878550793,
            48.7062928689119
          ],
          [
            -118.599255647132,
            48.7105334175636
          ],
          [
            -118.597788943513,
            48.714785678331
          ],
          [
            -118.595264071202,
            48.7228640447422
          ],
          [
            -118.594422604004,
            48.7255583293335
          ],
          [
            -118.591648434828,
            48.7278004320946
          ],
          [
            -118.587723716013,
            48.7291704536577
          ],
          [
            -118.583636014059,
            48.7291209908629
          ],
          [
            -118.579574807915,
            48.7279313828067
          ],
          [
            -118.57497554056,
            48.7248782713787
          ],
          [
            -118.570759793644,
            48.7222593551302
          ],
          [
            -118.568654884626,
            48.7208145219271
          ]
        ]
      },
      "properties": {
        "STATE": "WA",
        "DESCRIPTION": "Thrust fault, certain, (teeth on right from origin)",
        "RuleID": 63
      }
    },
    {
      "type": "Feature",
      "geometry": {
        "type": "LineString",
        "coordinates": [
          [
            -118.521574919899,
            48.8132157995688
          ],
          [
            -118.522450120633,
            48.8093872740121
          ],
          [
            -118.526088985643,
            48.8043167909764
          ],
          [
            -118.528322783141,
            48.8006461147002
          ],
          [
            -118.528408248857,
            48.7972308752074
          ],
          [
            -118.527671115589,
            48.7955159188608
          ],
          [
            -118.525540232684,
            48.7950634229275
          ],
          [
            -118.523142806158,
            48.7974433284175
          ],
          [
            -118.521247135432,
            48.7972488287012
          ],
          [
            -118.519117971003,
            48.7946849301621
          ],
          [
            -118.518373683553,
            48.785712540956
          ],
          [
            -118.519701999905,
            48.7791877936219
          ],
          [
            -118.523926949163,
            48.7738423681017
          ],
          [
            -118.528316615308,
            48.769497185683
          ]
        ]
      },
      "properties": {
        "STATE": "WA",
        "DESCRIPTION": "Thrust fault, certain, (teeth on right from origin)",
        "RuleID": 63
      }
    },
    {
      "type": "Feature",
      "geometry": {
        "type": "LineString",
        "coordinates": [
          [
            -118.570564328323,
            48.7060368632755
          ],
          [
            -118.567986592852,
            48.7137715373784
          ],
          [
            -118.567211146438,
            48.7160968579752
          ],
          [
            -118.564111516736,
            48.7218790208648
          ],
          [
            -118.561910667647,
            48.725988438881
          ],
          [
            -118.557847637922,
            48.7330451712861
          ],
          [
            -118.555704190281,
            48.7373202722873
          ]
        ]
      },
      "properties": {
        "STATE": "WA",
        "DESCRIPTION": "Thrust fault, certain, (teeth on right from origin)",
        "RuleID": 63
      }
    }
  ]
}