{
  "type": "FeatureCollection",
  "features": [
    {
      "type": "Feature",
      "geometry": {
        "type": "LineString",
        "coordinates": [
          [
            -105.69953173744646,
            31.315190591690698
          ],
          [
            -105.69630441043088,
            31.31391228584871
          ],
          [
            -105.69300819520939,
            31.3127545337301
          ],
          [
            -105.69091812725866,
            31.311690669918136
          ],
          [
            -105.68855249211134,
            31.31028847913688
          ],
          [
            -105.68612630242907,
            31.309231837260384
          ],
          [
            -105.6834406604281,
            31.308236303150583
          ]
        ]
      },
      "properties": {
        "fault_name": "Campo Grande fault",
        "age": "late Quaternary",
        "slip_rate": "Less than 0.2 mm/yr"
      }
    },
    {
      "type": "Feature",
      "geometry": {
        "type": "LineString",
        "coordinates": [
          [
            -105.69537385730617,
            31.317547749310457
          ],
          [
            -105.69164261943361,
            31.31484336689042
          ]
        ]
      },
      "properties": {
        "fault_name": "Campo Grande fault",
        "age": "late Quaternary",
        "slip_rate": "Less than 0.2 mm/yr"
      }
    },
    {
      "type": "Feature",
      "geometry": {
        "type": "LineString",
        "coordinates": [
          [
            -105.67432371610174,
            31.306294674022066
          ],
          [
            -105.67195808275109,
            31.305007480694368
          ],
          [
            -105.66933355403722,
            31.30406694688004
          ],
          [
            -105.66261945487386,
            31.30209087831003
          ]
        ]
      },
      "properties": {
        "fault_name": "Campo Grande fault",
        "age": "late Quaternary",
        "slip_rate": "Less than 0.2 mm/yr"
      }
    },
    {
      "type": "Feature",
      "geometry": {
        "type": "LineString",
        "coordinates": [
          [
            -105.65441036144837,
            31.305651887379046
          ],
          [
            -105.65190027091519,
            31.303559712670932
          ],
          [
            -105.65061078244396,
            31.302659180724312
          ],
          [
            -105.64736789301438,
            31.300693116277316
          ]
        ]
      },
      "properties": {
        "fault_name": "Campo Grande fault",
        "age": "late Quaternary",
        "slip_rate": "Less than 0.2 mm/yr"
      }
    },
    {
      "type": "Feature",
      "geometry": {
        "type": "LineString",
        "coordinates": [
          [
            -105.64340054195254,
            31.29896871035539
          ],
          [
            -105.64063100538888,
            31.297454300692586
          ],
          [
            -105.63718977602942,
            31.295487680137107
          ],
          [
            -105.6346341391147,
            31.294606587724605
          ],
          [
            -105.62952230563481,
            31.292434415910186
          ]
        ]
      },
      "properties": {
        "fault_name": "Campo Grande fault",
        "age": "late Quaternary",
        "slip_rate": "Less than 0.2 mm/yr"
      }
    },
    {
      "type": "Feature",
      "geometry": {
        "type": "LineString",
        "coordinates": [
          [
            -105.70325499468603,
            31.293073384711217
          ],
          [
            -105.70108825372915,
            31.29161064165111
          ],
          [
            -105.69816592541376,
            31.288835152120015
          ],
          [
            -105.69515969894242,
            31.285375236909168
          ],
          [
            -105.69208513133918,
            31.281397003336505
          ],
          [
            -105.69023116759458,
            31.27883706510544
          ],
          [
            -105.68865165623724,
            31.27638657001594
          ],
          [
            -105.68673658279879,
            31.27423273384211
          ],
          [
            -105.68391368540895,
            31.26967451272452
          ],
          [
            -105.6812585834327,
            31.266781250722218
          ],
          [
            -105.67938905457916,
            31.263361337290416
          ],
          [
            -105.67774898958514,
            31.26114305733636
          ],
          [
            -105.6767800550416,
            31.259144219145764
          ]
        ]
      },
      "properties": {
        "fault_name": "Arroyo Diablo fault",
        "age": "middle and late Quaternary",
        "slip_rate": "Less than 0.2 mm/yr"
      }
    },
    {
      "type": "Feature",
      "geometry": {
        "type": "LineString",
        "coordinates": [
          [
            -105.67202651820605,
            31.25157051827556
          ],
          [
            -105.66969921057867,
            31.24815282615789
          ],
          [
            -105.66805138414063,
            31.24587899396251
          ],
          [
            -105.66612854656317,
            31.242859627241142
          ],
          [
            -105.6641223731751,
            31.23921138633535
          ],
          [
            -105.66219953559765,
            31.23602035496123
          ],
          [
            -105.66047503795012,
            31.233000990324143
          ],
          [
            -105.65792718224239,
            31.229011091299895
          ],
          [
            -105.6558060083283,
            31.22622616236629
          ],
          [
            -105.65347871417565,
            31.22286958083506
          ],
          [
            -105.65047251375542,
            31.21906023278145
          ],
          [
            -105.6472607536454,
            31.215082001333514
          ],
          [
            -105.64514735734504,
            31.212642618652648
          ],
          [
            -105.6428356229114,
            31.209974354189335
          ],
          [
            -105.64173670124795,
            31.208263287196015
          ]
        ]
      },
      "properties": {
        "fault_name": "Arroyo Diablo fault",
        "age": "middle and late Quaternary",
        "slip_rate": "Less than 0.2 mm/yr"
      }
    },
    {
      "type": "Feature",
      "geometry": {
        "type": "LineString",
        "coordinates": [
          [
            -105.6767800550416,
            31.259144219145764
          ],
          [
            -105.6754599924097,
            31.256462618695345
          ],
          [
            -105.67428494122083,
            31.254353225620953
          ],
          [
            -105.67202651820605,
            31.25157051827556
          ]
        ]
      },
      "properties": {
        "fault_name": "Arroyo Diablo fault",
        "age": "middle and late Quaternary",
        "slip_rate": "Less than 0.2 mm/yr"
      }
    },
    {
      "type": "Feature",
      "geometry": {
        "type": "LineString",
        "coordinates": [
          [
            -105.64173670124795,
            31.208263287196015
          ],
          [
            -105.63755602366233,
            31.202287887157503
          ]
        ]
      },
      "properties": {
        "fault_name": "Arroyo Diablo fault",
        "age": "middle and late Quaternary",
        "slip_rate": "Less than 0.2 mm/yr"
      }
    },
    {
      "type": "Feature",
      "geometry": {
        "type": "LineString",
        "coordinates": [
          [
            -105.52349355167726,
            31.08997477899346
          ],
          [
            -105.52165461944229,
            31.087529291169222
          ],
          [
            -105.51906844699442,
            31.084227717306106
          ],
          [
            -105.5175650777389,
            31.082120552144204
          ],
          [
            -105.51519224439122,
            31.07979728537345
          ],
          [
            -105.51172827418033,
            31.07570406472252
          ],
          [
            -105.5088826503121,
            31.073213581352096
          ],
          [
            -105.50718872233368,
            31.07145307584518
          ],
          [
            -105.50522034286625,
            31.06934924467694
          ]
        ]
      },
      "properties": {
        "fault_name": "Caballo fault",
        "age": "middle and late Quaternary",
        "slip_rate": "Less than 0.2 mm/yr"
      }
    },
    {
      "type": "Feature",
      "geometry": {
        "type": "LineString",
        "coordinates": [
          [
            -105.50009355513184,
            31.06527713809471
          ],
          [
            -105.49806406237734,
            31.063522186062915
          ],
          [
            -105.49610345962535,
            31.061996670749473
          ],
          [
            -105.49455453231018,
            31.06069392764491
          ],
          [
            -105.49252504135231,
            31.058938974931625
          ]
        ]
      },
      "properties": {
        "fault_name": "Caballo fault",
        "age": "middle and late Quaternary",
        "slip_rate": "Less than 0.2 mm/yr"
      }
    },
    {
      "type": "Feature",
      "geometry": {
        "type": "LineString",
        "coordinates": [
          [
            -105.52718585836202,
            31.09544296130794
          ],
          [
            -105.52649195472081,
            31.09401633328352
          ],
          [
            -105.5251335888235,
            31.092539708219135
          ],
          [
            -105.52349355167726,
            31.08997477899346
          ]
        ]
      },
      "properties": {
        "fault_name": "Caballo fault",
        "age": "middle and late Quaternary",
        "slip_rate": "Less than 0.2 mm/yr"
      }
    },
    {
      "type": "Feature",
      "geometry": {
        "type": "LineString",
        "coordinates": [
          [
            -105.50522034286625,
            31.06934924467694
          ],
          [
            -105.5042058754159,
            31.06809983633851
          ],
          [
            -105.5021763826614,
            31.06640044134064
          ],
          [
            -105.50009355513184,
            31.06527713809471
          ]
        ]
      },
      "properties": {
        "fault_name": "Caballo fault",
        "age": "middle and late Quaternary",
        "slip_rate": "Less than 0.2 mm/yr"
      }
    },
    {
      "type": "Feature",
      "geometry": {
        "type": "LineString",
        "coordinates": [
          [
            -105.49252504135231,
            31.058938974931625
          ],
          [
            -105.4901522053097,
            31.056669591926095
          ],
          [
            -105.48772603628866,
            31.054805753366608
          ],
          [
            -105.48549042599052,
            31.052591365359177
          ],
          [
            -105.48345315472399,
            31.0500892091132
          ],
          [
            -105.48204200831215,
            31.049362560708698
          ],
          [
            -105.48082086905764,
            31.047937599258308
          ],
          [
            -105.47973028555661,
            31.046572079657206
          ]
        ]
      },
      "properties": {
        "fault_name": "Caballo fault",
        "age": "middle and late Quaternary",
        "slip_rate": "Less than 0.2 mm/yr"
      }
    }
  ]
}