{
  "type": "FeatureCollection",
  "features": [
    {
      "type": "Feature",
      "geometry": {
        "type": "LineString",
        "coordinates": [
          [
            -109.75338351025091,
            32.795138283832145
          ],
          [
            -109.75054827989054,
            32.794019520710854
          ],
          [
            -109.7462562597187,
            32.79167022496057
          ],
          [
            -109.74450642868182,
            32.79023221688628
          ],
          [
            -109.74322691959512,
            32.78892689180198
          ],
          [
            -109.709580425407,
            32.771765164027244
          ],
          [
            -109.70339042404164,
            32.76838516429513
          ],
          [
            -109.69570042210307,
            32.763975162777534
          ],
          [
            -109.69175042110267,
            32.76134516305654
          ],
          [
            -109.6891004188623,
            32.75870516364245
          ],
          [
            -109.68474041868136,
            32.754975162113965
          ],
          [
            -109.67950041717,
            32.75021516216322
          ],
          [
            -109.67678041640605,
            32.74757516070539
          ],
          [
            -109.67433041597883,
            32.74545516170202
          ]
        ]
      },
      "properties": {
        "fault_name": "Cactus Flats faults",
        "age": "middle and late Quaternary",
        "slip_rate": "Less than 0.2 mm/yr"
      }
    },
    {
      "type": "Feature",
      "geometry": {
        "type": "LineString",
        "coordinates": [
          [
            -109.74785043427644,
            32.79926516609008
          ],
          [
            -109.74070043301136,
            32.794225163720476
          ],
          [
            -109.73246043035357,
            32.788845165334315
          ],
          [
            -109.72804042989817,
            32.78638516501939
          ],
          [
            -109.72368042881894,
            32.783865165347756
          ],
          [
            -109.71939042805988,
            32.78168516408116
          ],
          [
            -109.7167602731974,
            32.78022923762355
          ],
          [
            -109.71447935816454,
            32.77761808590457
          ],
          [
            -109.71248520872658,
            32.77563030687466
          ]
        ]
      },
      "properties": {
        "fault_name": "Cactus Flats faults",
        "age": "middle and late Quaternary",
        "slip_rate": "Less than 0.2 mm/yr"
      }
    },
    {
      "type": "Feature",
      "geometry": {
        "type": "LineString",
        "coordinates": [
          [
            -109.56669720265187,
            32.80744025862912
          ],
          [
            -109.56830938034621,
            32.80676413669947
          ],
          [
            -109.5691947868397,
            32.80631256566364
          ],
          [
            -109.56949928877155,
            32.80599281688573
          ],
          [
            -109.5699943305617,
            32.80559553430704
          ]
        ]
      },
      "properties": {
        "fault_name": "Buena Vista fault",
        "age": "middle and late Quaternary",
        "slip_rate": "Less than 0.2 mm/yr"
      }
    },
    {
      "type": "Feature",
      "geometry": {
        "type": "LineString",
        "coordinates": [
          [
            -109.55429039598975,
            32.81834517795
          ],
          [
            -109.55552317561371,
            32.81664434604292
          ],
          [
            -109.55597737280453,
            32.81623975025964
          ],
          [
            -109.5571627052118,
            32.81570284289702
          ],
          [
            -109.55823803801424,
            32.8151297309562
          ],
          [
            -109.56001039700182,
            32.81317517677173
          ],
          [
            -109.56198245686696,
            32.81127019732806
          ],
          [
            -109.56329939425999,
            32.80948437031683
          ],
          [
            -109.56494740485269,
            32.80758011435265
          ],
          [
            -109.56530186838567,
            32.807051861719536
          ],
          [
            -109.56573528844228,
            32.80674121228215
          ]
        ]
      },
      "properties": {
        "fault_name": "Buena Vista fault",
        "age": "middle and late Quaternary",
        "slip_rate": "Less than 0.2 mm/yr"
      }
    },
    {
      "type": "Feature",
      "geometry": {
        "type": "LineString",
        "coordinates": [
          [
            -109.55173813943543,
            32.82468167336582
          ],
          [
            -109.55180886469607,
            32.823686769008724
          ],
          [
            -109.55183489158479,
            32.82309135907391
          ],
          [
            -109.55240737264401,
            32.82126360171607
          ],
          [
            -109.55307039579903,
            32.81926517910972
          ]
        ]
      },
      "properties": {
        "fault_name": "Buena Vista fault",
        "age": "middle and late Quaternary",
        "slip_rate": "Less than 0.2 mm/yr"
      }
    }
  ]
}