{
  "type": "FeatureCollection",
  "features": [
    {
      "type": "Feature",
      "geometry": {
        "type": "LineString",
        "coordinates": [
          [
            -113.1522208405674,
            38.67105909582524
          ],
          [
            -113.15369823413816,
            38.66948205804765
          ],
          [
            -113.15710029425632,
            38.6670450300118
          ],
          [
            -113.16024171358467,
            38.66486952482814
          ],
          [
            -113.16047916885698,
            38.66471646078638
          ],
          [
            -113.1628679095717,
            38.66305037932379
          ],
          [
            -113.16513935186988,
            38.66079622333769
          ],
          [
            -113.16671107303706,
            38.65913618084114
          ],
          [
            -113.1689947611692,
            38.65726017203807
          ],
          [
            -113.17194348108933,
            38.6553762719205
          ],
          [
            -113.17588667106327,
            38.65300524182349
          ],
          [
            -113.17957523356992,
            38.65100826379093
          ],
          [
            -113.18290806861394,
            38.64932868095303
          ],
          [
            -113.18654771336182,
            38.64768381317098
          ],
          [
            -113.19012550730574,
            38.64611207688031
          ],
          [
            -113.19346178918552,
            38.64454926925572
          ],
          [
            -113.19659199394586,
            38.64344977972904
          ]
        ]
      },
      "properties": {
        "fault_name": "Cricket Mountains (west side) fault",
        "age": "latest Quaternary",
        "slip_rate": "Less than 0.2 mm/yr"
      }
    },
    {
      "type": "Feature",
      "geometry": {
        "type": "LineString",
        "coordinates": [
          [
            -113.14809800011304,
            38.668090707679035
          ],
          [
            -113.15211090204798,
            38.666545674653015
          ],
          [
            -113.15881778594297,
            38.66134621168683
          ],
          [
            -113.16465407386858,
            38.66043058809434
          ]
        ]
      },
      "properties": {
        "fault_name": "Cricket Mountains (west side) fault",
        "age": "middle and late Quaternary",
        "slip_rate": "Less than 0.2 mm/yr"
      }
    },
    {
      "type": "Feature",
      "geometry": {
        "type": "LineString",
        "coordinates": [
          [
            -113.38862768911174,
            38.213830563881466
          ],
          [
            -113.38892494702917,
            38.21697383269689
          ],
          [
            -113.3895127820932,
            38.222058727279055
          ],
          [
            -113.39003115672453,
            38.22531254812446
          ],
          [
            -113.38967283223243,
            38.227429732698425
          ],
          [
            -113.38974896984264,
            38.230229677949865
          ],
          [
            -113.3901228962746,
            38.233544609934285
          ],
          [
            -113.39019958814536,
            38.236176225047345
          ],
          [
            -113.39056572169223,
            38.23766008187823
          ],
          [
            -113.39210697559824,
            38.24994704975618
          ]
        ]
      },
      "properties": {
        "fault_name": "Wah Wah Mountains (south end near Lund) fault\u000b",
        "age": "late Quaternary",
        "slip_rate": "Less than 0.2 mm/yr"
      }
    },
    {
      "type": "Feature",
      "geometry": {
        "type": "LineString",
        "coordinates": [
          [
            -113.3540808521419,
            38.22621285498834
          ],
          [
            -113.35249364581587,
            38.232094977150915
          ]
        ]
      },
      "properties": {
        "fault_name": "Wah Wah Mountains (south end near Lund) fault\u000b",
        "age": "late Quaternary",
        "slip_rate": "Less than 0.2 mm/yr"
      }
    },
    {
      "type": "Feature",
      "geometry": {
        "type": "LineString",
        "coordinates": [
          [
            -113.41966460524726,
            38.22013571827608
          ],
          [
            -113.41930627985685,
            38.22213068169663
          ],
          [
            -113.41887907165044,
            38.22493451893776
          ],
          [
            -113.41838297972973,
            38.22870722678762
          ],
          [
            -113.4186041171049,
            38.23116384431635
          ],
          [
            -113.41933692318783,
            38.2325332540886
          ],
          [
            -113.42020640255132,
            38.2343604326943
          ],
          [
            -113.4228231563464,
            38.23704202331984
          ],
          [
            -113.42587547717162,
            38.24018137815551
          ]
        ]
      },
      "properties": {
        "fault_name": "Wah Wah Mountains (south end near Lund) fault\u000b",
        "age": "undifferentiated Quaternary",
        "slip_rate": "Less than 0.2 mm/yr"
      }
    },
    {
      "type": "Feature",
      "geometry": {
        "type": "LineString",
        "coordinates": [
          [
            -113.41700997668316,
            38.284305575280555
          ],
          [
            -113.41788723455873,
            38.28727328518912
          ],
          [
            -113.418765052983,
            38.29081709673917
          ],
          [
            -113.4196500965571,
            38.295104223716834
          ],
          [
            -113.42023735400444,
            38.29909858477159
          ],
          [
            -113.42104628422285,
            38.30310349680404
          ],
          [
            -113.42090128266125,
            38.30344682394621
          ],
          [
            -113.42127520460164,
            38.30807394974322
          ],
          [
            -113.4217252443893,
            38.313387727713625
          ]
        ]
      },
      "properties": {
        "fault_name": "Wah Wah Mountains (south end near Lund) fault\u000b",
        "age": "undifferentiated Quaternary",
        "slip_rate": "Less than 0.2 mm/yr"
      }
    },
    {
      "type": "Feature",
      "geometry": {
        "type": "LineString",
        "coordinates": [
          [
            -113.38010566216714,
            38.26589239066081
          ],
          [
            -113.3788773094409,
            38.26766625367294
          ],
          [
            -113.37684782566956,
            38.269382901759066
          ],
          [
            -113.3743911112339,
            38.27132843967869
          ],
          [
            -113.37207162074613,
            38.27327397696236
          ],
          [
            -113.37221662859592,
            38.27407895875903
          ],
          [
            -113.3730938891664,
            38.27733610727168
          ],
          [
            -113.37375782321311,
            38.28304709510312
          ]
        ]
      },
      "properties": {
        "fault_name": "Wah Wah Mountains (south end near Lund) fault\u000b",
        "age": "undifferentiated Quaternary",
        "slip_rate": "Less than 0.2 mm/yr"
      }
    },
    {
      "type": "Feature",
      "geometry": {
        "type": "LineString",
        "coordinates": [
          [
            -113.37607732268405,
            38.28270374829338
          ],
          [
            -113.37745066888705,
            38.27903769966875
          ],
          [
            -113.37940347965227,
            38.27651995517555
          ],
          [
            -113.38164685229277,
            38.273552220333414
          ],
          [
            -113.38490469507857,
            38.27120223769005
          ],
          [
            -113.38780364384037,
            38.26942447130328
          ]
        ]
      },
      "properties": {
        "fault_name": "Wah Wah Mountains (south end near Lund) fault\u000b",
        "age": "undifferentiated Quaternary",
        "slip_rate": "Less than 0.2 mm/yr"
      }
    },
    {
      "type": "Feature",
      "geometry": {
        "type": "LineString",
        "coordinates": [
          [
            -113.37519946383557,
            38.20012816996298
          ],
          [
            -113.3720177703381,
            38.20578919922496
          ],
          [
            -113.36933994996834,
            38.20836417320616
          ],
          [
            -113.36463987457029,
            38.21271302088785
          ],
          [
            -113.36044369475782,
            38.21631798826863
          ],
          [
            -113.35820088805596,
            38.21923573001694
          ],
          [
            -113.35443194339936,
            38.22295513505774
          ],
          [
            -113.35363805008049,
            38.22455344618026
          ],
          [
            -113.35269970227404,
            38.22564065565751
          ],
          [
            -113.34719905009143,
            38.229363967222724
          ]
        ]
      },
      "properties": {
        "fault_name": "Wah Wah Mountains (south end near Lund) fault\u000b",
        "age": "late Quaternary",
        "slip_rate": "Less than 0.2 mm/yr"
      }
    },
    {
      "type": "Feature",
      "geometry": {
        "type": "LineString",
        "coordinates": [
          [
            -113.4013765868105,
            38.243584311679044
          ],
          [
            -113.40151434705257,
            38.24101324967318
          ],
          [
            -113.4015143183065,
            38.23770220369808
          ],
          [
            -113.40129263116236,
            38.23604668167347
          ],
          [
            -113.40120872042998,
            38.233528955005156
          ],
          [
            -113.40135370761853,
            38.231758987811205
          ],
          [
            -113.40084256083196,
            38.2289590470969
          ],
          [
            -113.40082696158706,
            38.22416025221918
          ],
          [
            -113.40002636683619,
            38.22170364092191
          ],
          [
            -113.39965241884465,
            38.21587097965809
          ],
          [
            -113.3995757449402,
            38.215245437969564
          ],
          [
            -113.39956849463755,
            38.21204494413253
          ]
        ]
      },
      "properties": {
        "fault_name": "Wah Wah Mountains (south end near Lund) fault\u000b",
        "age": "undifferentiated Quaternary",
        "slip_rate": "Less than 0.2 mm/yr"
      }
    },
    {
      "type": "Feature",
      "geometry": {
        "type": "LineString",
        "coordinates": [
          [
            -113.30728898161789,
            38.57907318166906
          ],
          [
            -113.30914722044493,
            38.57627928578322
          ]
        ]
      },
      "properties": {
        "fault_name": "San Francisco Mountains (west side) fault",
        "age": "middle and late Quaternary",
        "slip_rate": "Less than 0.2 mm/yr"
      }
    },
    {
      "type": "Feature",
      "geometry": {
        "type": "LineString",
        "coordinates": [
          [
            -113.30207667696337,
            38.58360906584148
          ],
          [
            -113.30359764511364,
            38.58243027801984
          ],
          [
            -113.30532524733881,
            38.5816348522908
          ]
        ]
      },
      "properties": {
        "fault_name": "San Francisco Mountains (west side) fault",
        "age": "middle and late Quaternary",
        "slip_rate": "Less than 0.2 mm/yr"
      }
    },
    {
      "type": "Feature",
      "geometry": {
        "type": "LineString",
        "coordinates": [
          [
            -113.29819801836618,
            38.58827706416946
          ],
          [
            -113.29867336459371,
            38.58730954321717
          ],
          [
            -113.29986868357202,
            38.58509783904156
          ]
        ]
      },
      "properties": {
        "fault_name": "San Francisco Mountains (west side) fault",
        "age": "middle and late Quaternary",
        "slip_rate": "Less than 0.2 mm/yr"
      }
    },
    {
      "type": "Feature",
      "geometry": {
        "type": "LineString",
        "coordinates": [
          [
            -113.36199352398154,
            38.36380997565129
          ],
          [
            -113.36578526788003,
            38.36122777628007
          ],
          [
            -113.36672361568647,
            38.35951113728454
          ],
          [
            -113.36721971299707,
            38.35476178616907
          ],
          [
            -113.37134757233893,
            38.35138182298396
          ]
        ]
      },
      "properties": {
        "fault_name": "San Francisco Mountains (west side) fault",
        "age": "middle and late Quaternary",
        "slip_rate": "Less than 0.2 mm/yr"
      }
    },
    {
      "type": "Feature",
      "geometry": {
        "type": "LineString",
        "coordinates": [
          [
            -113.33991374457825,
            38.40124326116875
          ],
          [
            -113.34750500190417,
            38.39415168377641
          ],
          [
            -113.34807723502834,
            38.393617800978184
          ],
          [
            -113.35082393462088,
            38.387209022718665
          ],
          [
            -113.35231172439441,
            38.38280299189285
          ],
          [
            -113.35283783980853,
            38.38125801872977
          ],
          [
            -113.35506562218728,
            38.371878195688275
          ],
          [
            -113.35629397671018,
            38.37010433532033
          ],
          [
            -113.35672174636362,
            38.36667495787958
          ],
          [
            -113.35947569356385,
            38.36552662821621
          ],
          [
            -113.36010126325971,
            38.365099407773684
          ]
        ]
      },
      "properties": {
        "fault_name": "San Francisco Mountains (west side) fault",
        "age": "middle and late Quaternary",
        "slip_rate": "Less than 0.2 mm/yr"
      }
    },
    {
      "type": "Feature",
      "geometry": {
        "type": "LineString",
        "coordinates": [
          [
            -113.32138899401295,
            38.428658937282194
          ],
          [
            -113.3245323761602,
            38.423269028207685
          ],
          [
            -113.32589849901001,
            38.41903855129779
          ],
          [
            -113.32676795142405,
            38.41634915497534
          ],
          [
            -113.3287974298055,
            38.4137703069355
          ],
          [
            -113.33438254159113,
            38.409532019260276
          ],
          [
            -113.33699148094156,
            38.406843167293765
          ],
          [
            -113.33899818074238,
            38.40382932631644
          ]
        ]
      },
      "properties": {
        "fault_name": "San Francisco Mountains (west side) fault",
        "age": "middle and late Quaternary",
        "slip_rate": "Less than 0.2 mm/yr"
      }
    },
    {
      "type": "Feature",
      "geometry": {
        "type": "LineString",
        "coordinates": [
          [
            -113.32222068664237,
            38.42944835928483
          ],
          [
            -113.3246851768951,
            38.42704172480716
          ],
          [
            -113.32795079280305,
            38.423146782014584
          ],
          [
            -113.33098695383462,
            38.41885907176216
          ],
          [
            -113.3319864122332,
            38.41690188269984
          ],
          [
            -113.33352032331008,
            38.41388471171202
          ],
          [
            -113.33533591461902,
            38.412446394761595
          ],
          [
            -113.33648814590472,
            38.40884590694011
          ]
        ]
      },
      "properties": {
        "fault_name": "San Francisco Mountains (west side) fault",
        "age": "middle and late Quaternary",
        "slip_rate": "Less than 0.2 mm/yr"
      }
    },
    {
      "type": "Feature",
      "geometry": {
        "type": "LineString",
        "coordinates": [
          [
            -113.28063208282278,
            38.598227652183944
          ],
          [
            -113.28136488261747,
            38.596789331231015
          ],
          [
            -113.28361550106905,
            38.59461489470598
          ],
          [
            -113.28572889736942,
            38.59215435204456
          ],
          [
            -113.28702560470227,
            38.588091611943106
          ],
          [
            -113.28790340785517,
            38.586664956891234
          ],
          [
            -113.29052014817555,
            38.58477329314393
          ],
          [
            -113.29145851574492,
            38.57905502131534
          ]
        ]
      },
      "properties": {
        "fault_name": "San Francisco Mountains (west side) fault",
        "age": "middle and late Quaternary",
        "slip_rate": "Less than 0.2 mm/yr"
      }
    },
    {
      "type": "Feature",
      "geometry": {
        "type": "LineString",
        "coordinates": [
          [
            -113.2770841910997,
            38.60742812478443
          ],
          [
            -113.28494274842662,
            38.601130360753615
          ],
          [
            -113.28498108313305,
            38.601069252294415
          ],
          [
            -113.28711725711575,
            38.59804038202224
          ],
          [
            -113.28813228870811,
            38.59529374014705
          ],
          [
            -113.28994790427154,
            38.588771026729745
          ]
        ]
      },
      "properties": {
        "fault_name": "San Francisco Mountains (west side) fault",
        "age": "middle and late Quaternary",
        "slip_rate": "Less than 0.2 mm/yr"
      }
    },
    {
      "type": "Feature",
      "geometry": {
        "type": "LineString",
        "coordinates": [
          [
            -113.28434004714295,
            38.54887710175562
          ],
          [
            -113.28965074157556,
            38.54589432068594
          ],
          [
            -113.29428142391455,
            38.54162156229537
          ],
          [
            -113.29727983773788,
            38.53845546671277
          ],
          [
            -113.30671008029934,
            38.534453781651074
          ],
          [
            -113.30782399843817,
            38.53398100228075
          ],
          [
            -113.3180781497271,
            38.52876210379635
          ]
        ]
      },
      "properties": {
        "fault_name": "San Francisco Mountains (west side) fault",
        "age": "undifferentiated Quaternary",
        "slip_rate": "Less than 0.2 mm/yr"
      }
    },
    {
      "type": "Feature",
      "geometry": {
        "type": "LineString",
        "coordinates": [
          [
            -113.22885001699655,
            38.615527464929016
          ],
          [
            -113.24276655837629,
            38.61054508796469
          ],
          [
            -113.24961010656875,
            38.607226132114015
          ],
          [
            -113.25434080194155,
            38.60373223799773
          ],
          [
            -113.25950595223016,
            38.59949780333756
          ]
        ]
      },
      "properties": {
        "fault_name": "San Francisco Mountains (west side) fault",
        "age": "undifferentiated Quaternary",
        "slip_rate": "Less than 0.2 mm/yr"
      }
    },
    {
      "type": "Feature",
      "geometry": {
        "type": "LineString",
        "coordinates": [
          [
            -113.32893176566975,
            38.5172463287788
          ],
          [
            -113.32830761980358,
            38.51546113302196
          ]
        ]
      },
      "properties": {
        "fault_name": "San Francisco Mountains (west side) fault",
        "age": "latest Quaternary",
        "slip_rate": "Less than 0.2 mm/yr"
      }
    },
    {
      "type": "Feature",
      "geometry": {
        "type": "LineString",
        "coordinates": [
          [
            -113.32830761980358,
            38.51546113302196
          ],
          [
            -113.3279968862586,
            38.514570758993564
          ],
          [
            -113.32772858373774,
            38.512282896235725
          ],
          [
            -113.3276734855698,
            38.51206323122427
          ]
        ]
      },
      "properties": {
        "fault_name": "San Francisco Mountains (west side) fault",
        "age": "latest Quaternary",
        "slip_rate": "Less than 0.2 mm/yr"
      }
    },
    {
      "type": "Feature",
      "geometry": {
        "type": "LineString",
        "coordinates": [
          [
            -113.3276734855698,
            38.51206323122427
          ],
          [
            -113.32730805360714,
            38.51061978878204
          ]
        ]
      },
      "properties": {
        "fault_name": "San Francisco Mountains (west side) fault",
        "age": "latest Quaternary",
        "slip_rate": "Less than 0.2 mm/yr"
      }
    },
    {
      "type": "Feature",
      "geometry": {
        "type": "LineString",
        "coordinates": [
          [
            -113.34183654891805,
            38.397573323329915
          ],
          [
            -113.3432860111717,
            38.394197270288245
          ],
          [
            -113.34385043613943,
            38.38790739779527
          ],
          [
            -113.34515488156013,
            38.382196395104685
          ],
          [
            -113.34751266183859,
            38.371836034801994
          ]
        ]
      },
      "properties": {
        "fault_name": "San Francisco Mountains (west side) fault",
        "age": "middle and late Quaternary",
        "slip_rate": "Less than 0.2 mm/yr"
      }
    },
    {
      "type": "Feature",
      "geometry": {
        "type": "LineString",
        "coordinates": [
          [
            -113.32775974629494,
            38.436470948763166
          ],
          [
            -113.32724860759322,
            38.433785453915064
          ],
          [
            -113.32753081962794,
            38.430470521297636
          ]
        ]
      },
      "properties": {
        "fault_name": "San Francisco Mountains (west side) fault",
        "age": "middle and late Quaternary",
        "slip_rate": "Less than 0.2 mm/yr"
      }
    },
    {
      "type": "Feature",
      "geometry": {
        "type": "LineString",
        "coordinates": [
          [
            -113.30198769164795,
            38.57252390927194
          ],
          [
            -113.30251381604525,
            38.57195168928914
          ],
          [
            -113.30490943965168,
            38.56868671196618
          ],
          [
            -113.30629059041785,
            38.566287285731065
          ],
          [
            -113.307961190945,
            38.564456186334866
          ],
          [
            -113.31484359576503,
            38.559733412788425
          ],
          [
            -113.31523249441784,
            38.559466745725665
          ],
          [
            -113.31784923294155,
            38.555751217726
          ],
          [
            -113.3188564824286,
            38.553176243153544
          ],
          [
            -113.3184142516957,
            38.5506051667484
          ],
          [
            -113.31687310558752,
            38.54460080667971
          ],
          [
            -113.3171397812594,
            38.54283860509823
          ],
          [
            -113.3176664644088,
            38.53934030986119
          ],
          [
            -113.31765868859169,
            38.5372270031028
          ],
          [
            -113.3175136861318,
            38.53545313691119
          ],
          [
            -113.31845204471801,
            38.533439265760386
          ],
          [
            -113.31874205143446,
            38.53282093771387
          ],
          [
            -113.32193158183446,
            38.526130442694466
          ],
          [
            -113.32249604273483,
            38.523467694698915
          ],
          [
            -113.32415942260371,
            38.51560555672191
          ],
          [
            -113.32451776685875,
            38.51206171012461
          ],
          [
            -113.3239988676113,
            38.50977285382257
          ],
          [
            -113.32247271977509,
            38.5076062242083
          ],
          [
            -113.3204971178528,
            38.5045201640841
          ],
          [
            -113.32049711875112,
            38.50302851622907
          ],
          [
            -113.3223582339837,
            38.49165316096646
          ],
          [
            -113.3205348452981,
            38.48954044095523
          ],
          [
            -113.32031371870272,
            38.487254933828886
          ],
          [
            -113.32052760128366,
            38.485309973753914
          ],
          [
            -113.3188486536109,
            38.481594507928705
          ],
          [
            -113.31759749086295,
            38.477821816697066
          ],
          [
            -113.31803248027637,
            38.47376301233496
          ],
          [
            -113.3202752959614,
            38.470444176841106
          ],
          [
            -113.32084751471254,
            38.46706813213895
          ],
          [
            -113.32128250682088,
            38.46358153613392
          ],
          [
            -113.32069525835672,
            38.46118214799722
          ],
          [
            -113.31850519533843,
            38.45924442472552
          ],
          [
            -113.31559067158622,
            38.45769947895498
          ],
          [
            -113.31511787926905,
            38.456913944328846
          ],
          [
            -113.31376727840906,
            38.45467455573511
          ],
          [
            -113.31202000757074,
            38.453301265209475
          ],
          [
            -113.30911326412719,
            38.45193575807363
          ],
          [
            -113.30612262701929,
            38.450337480753085
          ],
          [
            -113.30607706985796,
            38.4501774840595
          ],
          [
            -113.30538982003807,
            38.44793809321683
          ],
          [
            -113.30567981417808,
            38.445477587112265
          ],
          [
            -113.30609204207882,
            38.44484426432281
          ],
          [
            -113.30705316936422,
            38.44335651111017
          ],
          [
            -113.31627001712995,
            38.43545272070473
          ],
          [
            -113.3202067536069,
            38.430295578829785
          ]
        ]
      },
      "properties": {
        "fault_name": "San Francisco Mountains (west side) fault",
        "age": "middle and late Quaternary",
        "slip_rate": "Less than 0.2 mm/yr"
      }
    },
    {
      "type": "Feature",
      "geometry": {
        "type": "LineString",
        "coordinates": [
          [
            -113.29351854493085,
            38.59505370092717
          ],
          [
            -113.29476247264749,
            38.59208594994931
          ],
          [
            -113.29722643558918,
            38.5860204483395
          ],
          [
            -113.29933260584139,
            38.584189342773406
          ],
          [
            -113.3012932166782,
            38.58195768769917
          ],
          [
            -113.3020943522149,
            38.57972604333494
          ],
          [
            -113.30198769164795,
            38.57252390927194
          ]
        ]
      },
      "properties": {
        "fault_name": "San Francisco Mountains (west side) fault",
        "age": "middle and late Quaternary",
        "slip_rate": "Less than 0.2 mm/yr"
      }
    },
    {
      "type": "Feature",
      "geometry": {
        "type": "LineString",
        "coordinates": [
          [
            -113.29351854493085,
            38.59505370092717
          ],
          [
            -113.29264130681825,
            38.591234865326136
          ],
          [
            -113.29256519705582,
            38.58877100566486
          ],
          [
            -113.29394579356148,
            38.58590991886831
          ],
          [
            -113.2959064052966,
            38.58310604919924
          ],
          [
            -113.29634141896453,
            38.581904392769964
          ],
          [
            -113.29699032958642,
            38.57795999265997
          ],
          [
            -113.30198769164795,
            38.57252390927194
          ]
        ]
      },
      "properties": {
        "fault_name": "San Francisco Mountains (west side) fault",
        "age": "middle and late Quaternary",
        "slip_rate": "Less than 0.2 mm/yr"
      }
    },
    {
      "type": "Feature",
      "geometry": {
        "type": "LineString",
        "coordinates": [
          [
            -113.29251129364718,
            38.59746034691124
          ],
          [
            -113.29351854493085,
            38.59505370092717
          ]
        ]
      },
      "properties": {
        "fault_name": "San Francisco Mountains (west side) fault",
        "age": "middle and late Quaternary",
        "slip_rate": "Less than 0.2 mm/yr"
      }
    },
    {
      "type": "Feature",
      "geometry": {
        "type": "LineString",
        "coordinates": [
          [
            -113.2770841910997,
            38.60742812478443
          ],
          [
            -113.27961760459263,
            38.600218746653766
          ],
          [
            -113.27983094459113,
            38.59980652929809
          ]
        ]
      },
      "properties": {
        "fault_name": "San Francisco Mountains (west side) fault",
        "age": "middle and late Quaternary",
        "slip_rate": "Less than 0.2 mm/yr"
      }
    },
    {
      "type": "Feature",
      "geometry": {
        "type": "LineString",
        "coordinates": [
          [
            -113.25775078430219,
            38.64803947174493
          ],
          [
            -113.26962281309589,
            38.636247846205066
          ],
          [
            -113.26970670496367,
            38.63601562479212
          ],
          [
            -113.27041617371381,
            38.63413508584103
          ],
          [
            -113.27136232159185,
            38.62887069568724
          ],
          [
            -113.2724456898245,
            38.62676126826082
          ],
          [
            -113.27527633159042,
            38.623244062755084
          ],
          [
            -113.27659637086613,
            38.62160740510076
          ],
          [
            -113.27877032888802,
            38.61697244322906
          ],
          [
            -113.2791292345901,
            38.61279915700293
          ],
          [
            -113.27868644959668,
            38.61022474667645
          ],
          [
            -113.2770841910997,
            38.60742812478443
          ]
        ]
      },
      "properties": {
        "fault_name": "San Francisco Mountains (west side) fault",
        "age": "middle and late Quaternary",
        "slip_rate": "Less than 0.2 mm/yr"
      }
    },
    {
      "type": "Feature",
      "geometry": {
        "type": "LineString",
        "coordinates": [
          [
            -113.06024879122509,
            38.22079564067342
          ],
          [
            -113.06074489392559,
            38.2185867773237
          ],
          [
            -113.06114156120896,
            38.21733956693705
          ],
          [
            -113.06146933759152,
            38.216405131986086
          ],
          [
            -113.06149267402596,
            38.216381797213856
          ],
          [
            -113.06231658005846,
            38.21554291134776
          ],
          [
            -113.06237769334555,
            38.21548568675404
          ],
          [
            -113.06301826400835,
            38.21502791026404
          ],
          [
            -113.06330826802984,
            38.21456624472658
          ],
          [
            -113.06330826263995,
            38.21393680915008
          ],
          [
            -113.06339992583321,
            38.213303483305836
          ],
          [
            -113.06334658207503,
            38.21243016279034
          ],
          [
            -113.0634376874145,
            38.211610173152586
          ],
          [
            -113.0638193564259,
            38.21069073721642
          ],
          [
            -113.06416269342581,
            38.209931297782546
          ],
          [
            -113.06416269162918,
            38.20989741128198
          ],
          [
            -113.06413212106176,
            38.20860798390838
          ],
          [
            -113.06417043959851,
            38.20717744723716
          ],
          [
            -113.06435321441948,
            38.206193013710795
          ],
          [
            -113.0646054344018,
            38.205220245932026
          ],
          [
            -113.06498655005097,
            38.20437358716539
          ],
          [
            -113.06522322109404,
            38.204186364016444
          ],
          [
            -113.06598601743273,
            38.20358414195984
          ],
          [
            -113.06709271132003,
            38.202779140300294
          ],
          [
            -113.06769494637807,
            38.2021496959683
          ],
          [
            -113.06803828607295,
            38.20160803379155
          ],
          [
            -113.06825994896256,
            38.200612488969675
          ],
          [
            -113.06827494094632,
            38.19986472172852
          ],
          [
            -113.0685877190569,
            38.19890306376465
          ],
          [
            -113.06880160792603,
            38.19814418401854
          ],
          [
            -113.06877104364683,
            38.197484193175
          ],
          [
            -113.06882437123535,
            38.196835866871595
          ],
          [
            -113.06938881866097,
            38.19531366016529
          ],
          [
            -113.07007549086417,
            38.193791451291794
          ],
          [
            -113.07024326831146,
            38.19313145771019
          ],
          [
            -113.0705715845815,
            38.19050371289378
          ],
          [
            -113.07062490588181,
            38.18924095203185
          ],
          [
            -113.07063990056054,
            38.1887220686538
          ],
          [
            -113.07018987514591,
            38.18766542329299
          ],
          [
            -113.06962539717756,
            38.186242671311106
          ]
        ]
      },
      "properties": {
        "fault_name": "Mineral Mountains (west side) faults",
        "age": "latest Quaternary",
        "slip_rate": "Less than 0.2 mm/yr"
      }
    },
    {
      "type": "Feature",
      "geometry": {
        "type": "LineString",
        "coordinates": [
          [
            -113.04913258155521,
            38.24577766668574
          ],
          [
            -113.04988036524887,
            38.24411101271531
          ],
          [
            -113.05023925478129,
            38.243019911782234
          ],
          [
            -113.05062813726443,
            38.24128048519817
          ],
          [
            -113.0509181287095,
            38.23944939596327
          ],
          [
            -113.05104756336551,
            38.23811052330259
          ],
          [
            -113.05123088526048,
            38.23650443033755
          ]
        ]
      },
      "properties": {
        "fault_name": "Mineral Mountains (west side) faults",
        "age": "latest Quaternary",
        "slip_rate": "Less than 0.2 mm/yr"
      }
    },
    {
      "type": "Feature",
      "geometry": {
        "type": "LineString",
        "coordinates": [
          [
            -113.01692848526936,
            38.28059808532261
          ],
          [
            -113.01991133308545,
            38.27739754187389
          ],
          [
            -113.02136858013932,
            38.27453701233924
          ],
          [
            -113.02239080993206,
            38.27116871966884
          ],
          [
            -113.0237030383564,
            38.2665415566917
          ],
          [
            -113.02400853831652,
            38.257901139723785
          ],
          [
            -113.0244662128858,
            38.24451910866061
          ],
          [
            -113.02463389421337,
            38.234803674761146
          ],
          [
            -113.02254319474696,
            38.22776934593511
          ]
        ]
      },
      "properties": {
        "fault_name": "Mineral Mountains (west side) faults",
        "age": "middle and late Quaternary",
        "slip_rate": "Less than 0.2 mm/yr"
      }
    }
  ]
}