{
  "type": "FeatureCollection",
  "features": [
    {
      "type": "Feature",
      "geometry": {
        "type": "LineString",
        "coordinates": [
          [
            -104.55651559720657,
            29.866594190186333
          ],
          [
            -104.55512725362989,
            29.865162042296788
          ],
          [
            -104.55334166425482,
            29.86401766500474
          ],
          [
            -104.55175496278196,
            29.86310049905159
          ],
          [
            -104.5499088314483,
            29.861494473109804
          ],
          [
            -104.54838270876493,
            29.860004547144197
          ],
          [
            -104.54719270421985,
            29.858801276258518
          ],
          [
            -104.54559827813387,
            29.856504711259763
          ]
        ]
      },
      "properties": {
        "fault_name": "unnamed fault southeast of Ruidosa",
        "age": "undifferentiated Quaternary",
        "slip_rate": "Less than 0.2 mm/yr"
      }
    }
  ]
}