{
  "type": "FeatureCollection",
  "features": [
    {
      "type": "Feature",
      "geometry": {
        "type": "LineString",
        "coordinates": [
          [
            -121.2503805956646,
            47.62702451874817
          ],
          [
            -121.25000062267245,
            47.6307844108208
          ],
          [
            -121.2498348637396,
            47.63226200296488
          ],
          [
            -121.24989484065786,
            47.63522768180133
          ],
          [
            -121.25004854240296,
            47.63570247786901
          ],
          [
            -121.25034447530533,
            47.636989146775576
          ],
          [
            -121.25035309733542,
            47.63702541377726
          ],
          [
            -121.2503520193571,
            47.63723684114938
          ],
          [
            -121.25017590015406,
            47.64046428281597
          ],
          [
            -121.250013103865,
            47.641469661798325
          ],
          [
            -121.24975033227138,
            47.64607257016587
          ],
          [
            -121.24955494240884,
            47.65236827291665
          ],
          [
            -121.24937554615168,
            47.65612665613634
          ],
          [
            -121.24958578875909,
            47.66014740079212
          ],
          [
            -121.24973479141694,
            47.66125647589217
          ],
          [
            -121.24980089843869,
            47.66332243377013
          ],
          [
            -121.24985601457296,
            47.667129488154046
          ],
          [
            -121.249998686803,
            47.66940807693861
          ],
          [
            -121.24982409832921,
            47.67221279282724
          ],
          [
            -121.24968933756189,
            47.681523705246406
          ],
          [
            -121.24952398556587,
            47.68289777197254
          ],
          [
            -121.24944506497486,
            47.682950534999094
          ],
          [
            -121.24974185576832,
            47.685649918782865
          ],
          [
            -121.25065798644117,
            47.68951512992364
          ],
          [
            -121.25095963173041,
            47.69147229404307
          ],
          [
            -121.25110475815782,
            47.69337752173429
          ],
          [
            -121.25113826621626,
            47.70067984507403
          ],
          [
            -121.25143125084784,
            47.70406743802548
          ],
          [
            -121.25188774413252,
            47.70634191113207
          ],
          [
            -121.25257677531162,
            47.70883126576528
          ],
          [
            -121.25327268399256,
            47.71047508726482
          ]
        ]
      },
      "properties": {
        "fault_name": "Straight Creek Fault",
        "age": "class B",
        "slip_rate": "Less than 0.2 mm/yr"
      }
    },
    {
      "type": "Feature",
      "geometry": {
        "type": "LineString",
        "coordinates": [
          [
            -121.25083606756479,
            47.609197293048794
          ],
          [
            -121.2506600750242,
            47.612424951768396
          ],
          [
            -121.2506382800988,
            47.615915805812165
          ]
        ]
      },
      "properties": {
        "fault_name": "Straight Creek Fault",
        "age": "class B",
        "slip_rate": "Less than 0.2 mm/yr"
      }
    },
    {
      "type": "Feature",
      "geometry": {
        "type": "LineString",
        "coordinates": [
          [
            -121.25067984514696,
            47.62210710996292
          ],
          [
            -121.25058694587186,
            47.62443626812698
          ],
          [
            -121.25053497923099,
            47.625029235300595
          ],
          [
            -121.25050525577487,
            47.62543822175573
          ]
        ]
      },
      "properties": {
        "fault_name": "Straight Creek Fault",
        "age": "class B",
        "slip_rate": "Less than 0.2 mm/yr"
      }
    }
  ]
}