{
  "type": "FeatureCollection",
  "features": [
    {
      "type": "Feature",
      "geometry": {
        "type": "LineString",
        "coordinates": [
          [
            -110.21405045037581,
            31.510534950973188
          ],
          [
            -110.21324044756898,
            31.50603495089633
          ],
          [
            -110.21341044834658,
            31.503284950106906
          ],
          [
            -110.21406044862493,
            31.499204950165222
          ],
          [
            -110.2151204489821,
            31.495304948033816
          ],
          [
            -110.21606044789203,
            31.489914947624758
          ],
          [
            -110.21781044781218,
            31.483094947288386
          ],
          [
            -110.21819044775377,
            31.480044945898715
          ],
          [
            -110.21823044793675,
            31.4768249453059
          ],
          [
            -110.2177904477207,
            31.474524945015364
          ],
          [
            -110.21749044814506,
            31.471874945304762
          ],
          [
            -110.21712044555424,
            31.46940494536171
          ],
          [
            -110.21653044644867,
            31.46824494533972
          ]
        ]
      },
      "properties": {
        "fault_name": "Huachuca fault zone",
        "age": "middle and late Quaternary",
        "slip_rate": "Less than 0.2 mm/yr"
      }
    },
    {
      "type": "Feature",
      "geometry": {
        "type": "LineString",
        "coordinates": [
          [
            -110.21394045077096,
            31.52460495323558
          ],
          [
            -110.21430044972277,
            31.52306495324958
          ],
          [
            -110.21493045080794,
            31.520424952186694
          ],
          [
            -110.21612044996311,
            31.516534952275293
          ],
          [
            -110.2170904499086,
            31.514014952256918
          ],
          [
            -110.21791045006624,
            31.512234950796547
          ]
        ]
      },
      "properties": {
        "fault_name": "Huachuca fault zone",
        "age": "middle and late Quaternary",
        "slip_rate": "Less than 0.2 mm/yr"
      }
    },
    {
      "type": "Feature",
      "geometry": {
        "type": "LineString",
        "coordinates": [
          [
            -110.21283045108339,
            31.5357649553662
          ],
          [
            -110.21308045132866,
            31.534554954164523
          ],
          [
            -110.21358045092086,
            31.53202495506679
          ],
          [
            -110.2134804495651,
            31.529094954093967
          ],
          [
            -110.21359045006828,
            31.526104953893295
          ],
          [
            -110.21394045077096,
            31.52460495323558
          ]
        ]
      },
      "properties": {
        "fault_name": "Huachuca fault zone",
        "age": "middle and late Quaternary",
        "slip_rate": "Less than 0.2 mm/yr"
      }
    },
    {
      "type": "Feature",
      "geometry": {
        "type": "LineString",
        "coordinates": [
          [
            -110.20661044958084,
            31.552654956930173
          ],
          [
            -110.20779044958859,
            31.55007495561807
          ],
          [
            -110.20943045080219,
            31.547164954685257
          ],
          [
            -110.21066045103868,
            31.545394956269988
          ],
          [
            -110.21137045069315,
            31.542694956367615
          ],
          [
            -110.21207045120022,
            31.539944955096875
          ],
          [
            -110.21250045137052,
            31.537414955050853
          ],
          [
            -110.21283045108339,
            31.5357649553662
          ]
        ]
      },
      "properties": {
        "fault_name": "Huachuca fault zone",
        "age": "middle and late Quaternary",
        "slip_rate": "Less than 0.2 mm/yr"
      }
    },
    {
      "type": "Feature",
      "geometry": {
        "type": "LineString",
        "coordinates": [
          [
            -110.22315045427254,
            31.553964957776483
          ],
          [
            -110.21283045108339,
            31.5357649553662
          ]
        ]
      },
      "properties": {
        "fault_name": "Huachuca fault zone",
        "age": "middle and late Quaternary",
        "slip_rate": "Less than 0.2 mm/yr"
      }
    },
    {
      "type": "Feature",
      "geometry": {
        "type": "LineString",
        "coordinates": [
          [
            -110.27936941516971,
            31.891814504329524
          ],
          [
            -110.27978865711619,
            31.892776293696844
          ],
          [
            -110.28042985031149,
            31.894403937880647
          ],
          [
            -110.28075044556164,
            31.895217760241376
          ],
          [
            -110.28109570585457,
            31.896401501287432
          ],
          [
            -110.28129299475557,
            31.897807194173822
          ],
          [
            -110.28144096255424,
            31.899237545733985
          ],
          [
            -110.28171223580374,
            31.900248659242322
          ],
          [
            -110.28203283285055,
            31.90133375463413
          ]
        ]
      },
      "properties": {
        "fault_name": "California Wash fold and faults",
        "age": "undifferentiated Quaternary",
        "slip_rate": "Less than 0.2 mm/yr"
      }
    },
    {
      "type": "Feature",
      "geometry": {
        "type": "LineString",
        "coordinates": [
          [
            -110.26873177757757,
            31.87082046774489
          ],
          [
            -110.2694096714438,
            31.87233268972818
          ],
          [
            -110.2698789800943,
            31.873427745240008
          ],
          [
            -110.27050472675829,
            31.87447065572144
          ],
          [
            -110.27066116297513,
            31.874992112638424
          ],
          [
            -110.27091059907839,
            31.87667248570347
          ],
          [
            -110.27115721177671,
            31.87785622713394
          ],
          [
            -110.2714778079252,
            31.879064628983457
          ],
          [
            -110.27224230657133,
            31.881308804293166
          ],
          [
            -110.27271087141678,
            31.882591190265074
          ],
          [
            -110.27298214466629,
            31.883133738728084
          ]
        ]
      },
      "properties": {
        "fault_name": "California Wash fold and faults",
        "age": "undifferentiated Quaternary",
        "slip_rate": "Less than 0.2 mm/yr"
      }
    },
    {
      "type": "Feature",
      "geometry": {
        "type": "LineString",
        "coordinates": [
          [
            -110.26414297020555,
            31.860391361719504
          ],
          [
            -110.26346507723768,
            31.858983433746033
          ],
          [
            -110.26268289525514,
            31.856532591671314
          ],
          [
            -110.26200500318555,
            31.854446771083193
          ],
          [
            -110.26195285598331,
            31.852673822654577
          ],
          [
            -110.2613792574199,
            31.849805817650708
          ],
          [
            -110.26106638139296,
            31.84568632205661
          ],
          [
            -110.26059707274246,
            31.84130609572555
          ],
          [
            -110.26050245229524,
            31.83926667964622
          ],
          [
            -110.2607908609088,
            31.837132454855603
          ],
          [
            -110.26119109899543,
            31.834948660841416
          ],
          [
            -110.26221358301137,
            31.831815609072716
          ],
          [
            -110.26310005760176,
            31.830303388097942
          ],
          [
            -110.26539446083858,
            31.82764396530647
          ],
          [
            -110.27085939061563,
            31.82190795785412
          ]
        ]
      },
      "properties": {
        "fault_name": "California Wash fold and faults",
        "age": "undifferentiated Quaternary",
        "slip_rate": "Less than 0.2 mm/yr"
      }
    },
    {
      "type": "Feature",
      "geometry": {
        "type": "LineString",
        "coordinates": [
          [
            -110.29450512220534,
            31.926836161691952
          ],
          [
            -110.29513330060878,
            31.92854937388635
          ],
          [
            -110.2958756944107,
            31.92997704882174
          ],
          [
            -110.29627544201722,
            31.931062086371945
          ],
          [
            -110.29678940681882,
            31.931975799333742
          ],
          [
            -110.29724626212453,
            31.933289260291712
          ],
          [
            -110.2977031192269,
            31.934774043677965
          ],
          [
            -110.29815997632926,
            31.935573542753435
          ]
        ]
      },
      "properties": {
        "fault_name": "California Wash fold and faults",
        "age": "undifferentiated Quaternary",
        "slip_rate": "Less than 0.2 mm/yr"
      }
    },
    {
      "type": "Feature",
      "geometry": {
        "type": "LineString",
        "coordinates": [
          [
            -110.28260004259567,
            31.902690124378935
          ],
          [
            -110.28299462309265,
            31.90367657516565
          ],
          [
            -110.28343852559028,
            31.904663028343986
          ],
          [
            -110.28382609922805,
            31.905934971732968
          ],
          [
            -110.28428295543208,
            31.907134220920607
          ],
          [
            -110.28462559803428,
            31.9081050423372
          ],
          [
            -110.28485402613629,
            31.90924718278836
          ],
          [
            -110.28508245513665,
            31.910674859958824
          ],
          [
            -110.28553931134068,
            31.91181700130173
          ],
          [
            -110.28651013234632,
            31.91370153364087
          ],
          [
            -110.2873667379535,
            31.916042925280692
          ],
          [
            -110.28896573556598,
            31.918270100784923
          ],
          [
            -110.28999366427087,
            31.920211740842397
          ],
          [
            -110.29090737667893,
            31.921353882730692
          ],
          [
            -110.2917068763835,
            31.92266734521852
          ],
          [
            -110.293020339093,
            31.92380948634781
          ],
          [
            -110.29393405239941,
            31.92552269774954
          ]
        ]
      },
      "properties": {
        "fault_name": "California Wash fold and faults",
        "age": "undifferentiated Quaternary",
        "slip_rate": "Less than 0.2 mm/yr"
      }
    },
    {
      "type": "Feature",
      "geometry": {
        "type": "LineString",
        "coordinates": [
          [
            -110.27384529090702,
            31.884761381723695
          ],
          [
            -110.2746344527993,
            31.88589580130517
          ],
          [
            -110.27594149884276,
            31.88759742926761
          ],
          [
            -110.27677998183738,
            31.888731846714133
          ],
          [
            -110.27771710973165,
            31.889619652204896
          ]
        ]
      },
      "properties": {
        "fault_name": "California Wash fold and faults",
        "age": "undifferentiated Quaternary",
        "slip_rate": "Less than 0.2 mm/yr"
      }
    }
  ]
}