{
  "type": "FeatureCollection",
  "features": [
    {
      "type": "Feature",
      "geometry": {
        "type": "LineString",
        "coordinates": [
          [
            -94.5204660209943,
            37.026574500434
          ],
          [
            -94.5118545389154,
            37.0293121551567
          ],
          [
            -94.5046022599636,
            37.0316231553522
          ],
          [
            -94.5000833415207,
            37.0330101614509
          ]
        ]
      },
      "properties": {
        "STATE": "MO",
        "DESCRIPTION": "Fault, sense of displacement unknown or undefined, certain",
        "RuleID": 22
      }
    },
    {
      "type": "Feature",
      "geometry": {
        "type": "LineString",
        "coordinates": [
          [
            -94.5495383512478,
            37.0188179142236
          ],
          [
            -94.5486996050468,
            37.0193890745806
          ],
          [
            -94.5482042227952,
            37.0198232896837
          ],
          [
            -94.5470486488783,
            37.0207519297187
          ],
          [
            -94.5465874960323,
            37.0211972483059
          ],
          [
            -94.545569210742,
            37.0220766123054
          ],
          [
            -94.5450322930865,
            37.0226044127254
          ],
          [
            -94.5445778255028,
            37.0230883263673
          ]
        ]
      },
      "properties": {
        "STATE": "MO",
        "DESCRIPTION": "Fault, sense of displacement unknown or undefined, certain",
        "RuleID": 22
      }
    },
    {
      "type": "Feature",
      "geometry": {
        "type": "LineString",
        "coordinates": [
          [
            -94.5337159908737,
            37.1093630896819
          ],
          [
            -94.5337782351397,
            37.1091094767254
          ],
          [
            -94.5338479731518,
            37.1085139833768
          ],
          [
            -94.5338829382777,
            37.1081666031692
          ],
          [
            -94.5340622896191,
            37.1076925510363
          ],
          [
            -94.534317101241,
            37.1072461724198
          ],
          [
            -94.5344893522984,
            37.1068989504566
          ],
          [
            -94.5346889561579,
            37.1066069255993
          ],
          [
            -94.5349091278441,
            37.1063314396513
          ],
          [
            -94.535115416966,
            37.1061386760505
          ]
        ]
      },
      "properties": {
        "STATE": "MO",
        "DESCRIPTION": "Fault, sense of displacement unknown or undefined, certain",
        "RuleID": 22
      }
    },
    {
      "type": "Feature",
      "geometry": {
        "type": "LineString",
        "coordinates": [
          [
            -94.5003295661468,
            37.0328121693557
          ],
          [
            -94.4996355403347,
            37.0330479770613
          ],
          [
            -94.4988794912422,
            37.033360879306
          ],
          [
            -94.4979585734472,
            37.0337120587933
          ],
          [
            -94.4970651710493,
            37.0340412215314
          ],
          [
            -94.495738989992,
            37.0344687921277
          ],
          [
            -94.4944678639835,
            37.0348468189313
          ],
          [
            -94.4931487266164,
            37.0352081807383
          ],
          [
            -94.4918634826849,
            37.0357019837821
          ],
          [
            -94.4910043168791,
            37.0360422068391
          ],
          [
            -94.4902551048642,
            37.0363440350184
          ],
          [
            -94.4895059934606,
            37.0366127658546
          ],
          [
            -94.4890457389298,
            37.0367110969401
          ]
        ]
      },
      "properties": {
        "STATE": "MO",
        "DESCRIPTION": "Fault, sense of displacement unknown or undefined, certain",
        "RuleID": 22
      }
    },
    {
      "type": "Feature",
      "geometry": {
        "type": "LineString",
        "coordinates": [
          [
            -94.5566338059106,
            37.0137312149677
          ],
          [
            -94.5559955016972,
            37.0139005319956
          ],
          [
            -94.5552133529524,
            37.0140309089129
          ],
          [
            -94.5543486005239,
            37.0142492729995
          ],
          [
            -94.5535454859986,
            37.0144843191864
          ],
          [
            -94.5527768164746,
            37.0146753489988
          ],
          [
            -94.5516442771583,
            37.0149867367062
          ],
          [
            -94.5509920571429,
            37.0152056051653
          ],
          [
            -94.5502094035449,
            37.0154627255759
          ],
          [
            -94.549275821301,
            37.0157415133685
          ],
          [
            -94.5485823614275,
            37.01598231036
          ],
          [
            -94.5478955221377,
            37.0162837548978
          ],
          [
            -94.5471465652443,
            37.0166897696732
          ],
          [
            -94.5465348574516,
            37.0170630505945
          ],
          [
            -94.5459436213659,
            37.0174639413924
          ],
          [
            -94.5454690414013,
            37.0178375649463
          ],
          [
            -94.5448290348805,
            37.0184312472331
          ],
          [
            -94.5440650374943,
            37.0191679280059
          ],
          [
            -94.5436865098914,
            37.0195252524605
          ],
          [
            -94.5434732938604,
            37.0196900723901
          ],
          [
            -94.5431288294748,
            37.0201026022745
          ],
          [
            -94.5429015503181,
            37.020355577714
          ],
          [
            -94.5427017901517,
            37.0205865763201
          ]
        ]
      },
      "properties": {
        "STATE": "MO",
        "DESCRIPTION": "Fault, sense of displacement unknown or undefined, certain",
        "RuleID": 22
      }
    },
    {
      "type": "Feature",
      "geometry": {
        "type": "LineString",
        "coordinates": [
          [
            -94.4792383081536,
            36.9455832824456
          ],
          [
            -94.4610748276562,
            36.9597101832888
          ],
          [
            -94.4439319554925,
            36.9725310207751
          ],
          [
            -94.4331871057678,
            36.9803073274255
          ],
          [
            -94.4229480497689,
            36.9887717052229
          ],
          [
            -94.3992283616785,
            37.0082185653981
          ],
          [
            -94.390811742151,
            37.0151691772228
          ],
          [
            -94.3737720468876,
            37.0281773166221
          ],
          [
            -94.3629025918498,
            37.0367431303288
          ],
          [
            -94.3433170189689,
            37.0534502256441
          ],
          [
            -94.3256913355776,
            37.069337825548
          ],
          [
            -94.312506011161,
            37.080804594257
          ],
          [
            -94.2920270745098,
            37.0973145651239
          ]
        ]
      },
      "properties": {
        "STATE": "MO",
        "DESCRIPTION": "Fault, sense of displacement unknown or undefined, certain",
        "RuleID": 22
      }
    },
    {
      "type": "Feature",
      "geometry": {
        "type": "LineString",
        "coordinates": [
          [
            -94.6183392813044,
            36.8327112566519
          ],
          [
            -94.5725196654972,
            36.8671731875691
          ],
          [
            -94.5052209314964,
            36.9182272897441
          ],
          [
            -94.4761131537217,
            36.9398038489325
          ]
        ]
      },
      "properties": {
        "STATE": "MO",
        "DESCRIPTION": "Fault, sense of displacement unknown or undefined, certain",
        "RuleID": 22
      }
    },
    {
      "type": "Feature",
      "geometry": {
        "type": "LineString",
        "coordinates": [
          [
            -94.492830378951,
            37.0185768909594
          ],
          [
            -94.4934116922461,
            37.0170446391054
          ],
          [
            -94.4938405641324,
            37.0159699000556
          ],
          [
            -94.4939029871632,
            37.0157604193777
          ],
          [
            -94.4939656671122,
            37.0154682005782
          ],
          [
            -94.4940625423307,
            37.0152146615797
          ],
          [
            -94.4941317386587,
            37.0150327763506
          ],
          [
            -94.4942284908081,
            37.0148178524704
          ]
        ]
      },
      "properties": {
        "STATE": "MO",
        "DESCRIPTION": "Fault, sense of displacement unknown or undefined, certain",
        "RuleID": 22
      }
    },
    {
      "type": "Feature",
      "geometry": {
        "type": "LineString",
        "coordinates": [
          [
            -94.4941878303634,
            37.0147157617107
          ],
          [
            -94.4968145725261,
            37.0070002073406
          ]
        ]
      },
      "properties": {
        "STATE": "MO",
        "DESCRIPTION": "Fault, sense of displacement unknown or undefined, certain",
        "RuleID": 22
      }
    },
    {
      "type": "Feature",
      "geometry": {
        "type": "LineString",
        "coordinates": [
          [
            -94.524225637545,
            37.1095254055975
          ],
          [
            -94.5248563554857,
            37.1074805001008
          ]
        ]
      },
      "properties": {
        "STATE": "MO",
        "DESCRIPTION": "Fault, sense of displacement unknown or undefined, certain",
        "RuleID": 22
      }
    },
    {
      "type": "Feature",
      "geometry": {
        "type": "LineString",
        "coordinates": [
          [
            -94.287414334222,
            37.0957759555515
          ],
          [
            -94.3036785192906,
            37.0827886578967
          ],
          [
            -94.3108817978385,
            37.0764533991891
          ],
          [
            -94.3211519589025,
            37.0683954899531
          ],
          [
            -94.3260280699602,
            37.0637733061145
          ],
          [
            -94.3294928756043,
            37.0599611437131
          ],
          [
            -94.3353362701021,
            37.0540368403696
          ],
          [
            -94.344493136458,
            37.0463866510755
          ],
          [
            -94.3577296405913,
            37.0349157613757
          ],
          [
            -94.3633354890869,
            37.0297872008792
          ],
          [
            -94.3721259101806,
            37.0227349016554
          ],
          [
            -94.3853631742886,
            37.0117574407503
          ],
          [
            -94.3934140204936,
            37.0051094053796
          ],
          [
            -94.4007335823618,
            36.9991645597971
          ],
          [
            -94.4177290993779,
            36.9843656788825
          ],
          [
            -94.4307843576229,
            36.9742790330409
          ],
          [
            -94.4521937647538,
            36.957932466014
          ],
          [
            -94.4621894967866,
            36.9500643803971
          ],
          [
            -94.4759094122221,
            36.9397660249952
          ]
        ]
      },
      "properties": {
        "STATE": "MO",
        "DESCRIPTION": "Fault, sense of displacement unknown or undefined, certain",
        "RuleID": 22
      }
    },
    {
      "type": "Feature",
      "geometry": {
        "type": "LineString",
        "coordinates": [
          [
            -94.4790087355979,
            37.0183657620481
          ],
          [
            -94.4792418070916,
            37.0184490049693
          ],
          [
            -94.4796051639459,
            37.0185656258118
          ],
          [
            -94.4800097013695,
            37.018682334697
          ],
          [
            -94.4802770534728,
            37.0187766795738
          ],
          [
            -94.4804347419411,
            37.0188266653768
          ],
          [
            -94.4805993061147,
            37.0188711477002
          ]
        ]
      },
      "properties": {
        "STATE": "MO",
        "DESCRIPTION": "Fault, sense of displacement unknown or undefined, certain",
        "RuleID": 22
      }
    },
    {
      "type": "Feature",
      "geometry": {
        "type": "LineString",
        "coordinates": [
          [
            -94.5160514382784,
            37.1038655962368
          ],
          [
            -94.5153000487472,
            37.104682232696
          ],
          [
            -94.5147313226458,
            37.1050353660903
          ],
          [
            -94.5137324041348,
            37.1054708472232
          ],
          [
            -94.5130243511295,
            37.1060563345558
          ],
          [
            -94.5126490125459,
            37.1064838525365
          ]
        ]
      },
      "properties": {
        "STATE": "MO",
        "DESCRIPTION": "Fault, sense of displacement unknown or undefined, certain",
        "RuleID": 22
      }
    },
    {
      "type": "Feature",
      "geometry": {
        "type": "LineString",
        "coordinates": [
          [
            -94.4591467016967,
            37.1718983708245
          ],
          [
            -94.4729225929541,
            37.1657596772899
          ],
          [
            -94.4828772728767,
            37.1623463866834
          ]
        ]
      },
      "properties": {
        "STATE": "MO",
        "DESCRIPTION": "Fault, sense of displacement unknown or undefined, certain",
        "RuleID": 22
      }
    },
    {
      "type": "Feature",
      "geometry": {
        "type": "LineString",
        "coordinates": [
          [
            -94.6183598527244,
            36.8379209374807
          ],
          [
            -94.5915301746625,
            36.8585048236088
          ],
          [
            -94.5348257273549,
            36.9023659928873
          ],
          [
            -94.4920714130287,
            36.9348449103298
          ],
          [
            -94.4793295904612,
            36.9455011730834
          ]
        ]
      },
      "properties": {
        "STATE": "MO",
        "DESCRIPTION": "Fault, sense of displacement unknown or undefined, certain",
        "RuleID": 22
      }
    },
    {
      "type": "Feature",
      "geometry": {
        "type": "LineString",
        "coordinates": [
          [
            -94.5448567236525,
            37.1140414109033
          ],
          [
            -94.5449188089167,
            37.1138650068871
          ],
          [
            -94.5451736564712,
            37.1133689811247
          ],
          [
            -94.5453595358698,
            37.1130603566901
          ],
          [
            -94.545620921363,
            37.1127573422548
          ],
          [
            -94.5459368795097,
            37.1126639444614
          ],
          [
            -94.5462045819559,
            37.1126862942376
          ],
          [
            -94.5464242793317,
            37.1126810239634
          ],
          [
            -94.5465549545611,
            37.1125377944324
          ],
          [
            -94.5468507922421,
            37.1121575972987
          ],
          [
            -94.5470090852766,
            37.1119206399708
          ]
        ]
      },
      "properties": {
        "STATE": "MO",
        "DESCRIPTION": "Fault, sense of displacement unknown or undefined, certain",
        "RuleID": 22
      }
    },
    {
      "type": "Feature",
      "geometry": {
        "type": "LineString",
        "coordinates": [
          [
            -94.4860171399163,
            37.0378656922871
          ],
          [
            -94.4890604488426,
            37.0366751640555
          ]
        ]
      },
      "properties": {
        "STATE": "MO",
        "DESCRIPTION": "Fault, sense of displacement unknown or undefined, certain",
        "RuleID": 22
      }
    },
    {
      "type": "Feature",
      "geometry": {
        "type": "LineString",
        "coordinates": [
          [
            -94.5420119280309,
            37.1134844489273
          ],
          [
            -94.5406538657642,
            37.1127719209195
          ],
          [
            -94.539866823896,
            37.1118213876861
          ],
          [
            -94.5395247867583,
            37.1115183847696
          ]
        ]
      },
      "properties": {
        "STATE": "MO",
        "DESCRIPTION": "Fault, sense of displacement unknown or undefined, certain",
        "RuleID": 22
      }
    },
    {
      "type": "Feature",
      "geometry": {
        "type": "LineString",
        "coordinates": [
          [
            -94.5229105390033,
            37.115729557369
          ],
          [
            -94.5233633150593,
            37.1143786880432
          ],
          [
            -94.5232565754406,
            37.1138420356662
          ],
          [
            -94.5225703047844,
            37.1131206711693
          ],
          [
            -94.5219143145397,
            37.1115150192497
          ],
          [
            -94.5218586423483,
            37.1111314321018
          ]
        ]
      },
      "properties": {
        "STATE": "MO",
        "DESCRIPTION": "Fault, sense of displacement unknown or undefined, certain",
        "RuleID": 22
      }
    },
    {
      "type": "Feature",
      "geometry": {
        "type": "LineString",
        "coordinates": [
          [
            -94.5479977306541,
            37.014663456363
          ],
          [
            -94.5460110767589,
            37.0159758484234
          ],
          [
            -94.5444091712998,
            37.0170742105269
          ]
        ]
      },
      "properties": {
        "STATE": "MO",
        "DESCRIPTION": "Fault, sense of displacement unknown or undefined, certain",
        "RuleID": 22
      }
    },
    {
      "type": "Feature",
      "geometry": {
        "type": "LineString",
        "coordinates": [
          [
            -94.5419501805332,
            37.1075308308282
          ],
          [
            -94.5420330375418,
            37.1072496799793
          ],
          [
            -94.5423019464255,
            37.106560657791
          ],
          [
            -94.5424948641243,
            37.1061472681203
          ],
          [
            -94.5426395135463,
            37.1058606680114
          ],
          [
            -94.542756607147,
            37.105629188854
          ]
        ]
      },
      "properties": {
        "STATE": "MO",
        "DESCRIPTION": "Fault, sense of displacement unknown or undefined, certain",
        "RuleID": 22
      }
    },
    {
      "type": "Feature",
      "geometry": {
        "type": "LineString",
        "coordinates": [
          [
            -94.7248911925239,
            36.7219214213094
          ],
          [
            -94.7212899920769,
            36.7258656855832
          ],
          [
            -94.7200921353579,
            36.727307591986
          ],
          [
            -94.7191689457236,
            36.728364228923
          ],
          [
            -94.7174217557336,
            36.7305652375717
          ],
          [
            -94.7164985669976,
            36.731778271976
          ],
          [
            -94.7158500471429,
            36.7326136636503
          ],
          [
            -94.7147513788043,
            36.7342005267137
          ],
          [
            -94.7138281927632,
            36.735566145745
          ],
          [
            -94.7122641171574,
            36.737912110686
          ],
          [
            -94.7113485623047,
            36.7394303131877
          ],
          [
            -94.7113485623047,
            36.7395790822464
          ],
          [
            -94.7111654479205,
            36.7397278495771
          ],
          [
            -94.7104253753653,
            36.7410171778803
          ],
          [
            -94.7096013777046,
            36.7423789828157
          ],
          [
            -94.7088689336428,
            36.7437446017607
          ],
          [
            -94.7081288592909,
            36.7449500093931
          ],
          [
            -94.7075795242233,
            36.7457854009735
          ],
          [
            -94.7062901166005,
            36.7476812466533
          ],
          [
            -94.7029711820871,
            36.7518505866781
          ],
          [
            -94.7007509024376,
            36.7543491487253
          ],
          [
            -94.7001023664132,
            36.7550357769013
          ],
          [
            -94.6965010976943,
            36.7585986073847
          ],
          [
            -94.6913128400416,
            36.7631494120844
          ],
          [
            -94.6885355995261,
            36.7654267198748
          ],
          [
            -94.6877955099028,
            36.766185823995
          ],
          [
            -94.6872385346637,
            36.7667961592623
          ],
          [
            -94.6851174559711,
            36.7689170730826
          ],
          [
            -94.683354976655,
            36.7706603400557
          ],
          [
            -94.6785405897387,
            36.7752149621183
          ],
          [
            -94.6753971276414,
            36.7782437457147
          ],
          [
            -94.6741916262594,
            36.7793843071636
          ],
          [
            -94.6730853105628,
            36.7805210548804
          ],
          [
            -94.6727114533011,
            36.7807461145663
          ],
          [
            -94.6719713672712,
            36.7814327409601
          ],
          [
            -94.6710481686537,
            36.7822643198776
          ],
          [
            -94.6702088960399,
            36.7830234220472
          ],
          [
            -94.6648375581391,
            36.7878793915522
          ],
          [
            -94.6547434300399,
            36.7966071571238
          ],
          [
            -94.6536294921381,
            36.7975150263819
          ],
          [
            -94.6462134179707,
            36.803584022097
          ],
          [
            -94.6374926782954,
            36.8104960353541
          ],
          [
            -94.6357302214372,
            36.8118578392393
          ],
          [
            -94.6185329499948,
            36.8247816072767
          ]
        ]
      },
      "properties": {
        "STATE": "OK",
        "DESCRIPTION": "Normal fault, certain",
        "RuleID": 22
      }
    },
    {
      "type": "Feature",
      "geometry": {
        "type": "LineString",
        "coordinates": [
          [
            -94.8961399402872,
            36.7976822307385
          ],
          [
            -94.8969944573113,
            36.7983536168203
          ],
          [
            -94.9076148948607,
            36.8048615340382
          ],
          [
            -94.9163584454561,
            36.8101639973771
          ],
          [
            -94.9169230366121,
            36.8105340254891
          ],
          [
            -94.9170222160094,
            36.8108391973113
          ],
          [
            -94.9176783697474,
            36.8109841627785
          ],
          [
            -94.9193721450123,
            36.8120332111182
          ],
          [
            -94.9200206684603,
            36.812178176482
          ],
          [
            -94.9201198478575,
            36.8124795329097
          ],
          [
            -94.9226605053649,
            36.8142762598643
          ]
        ]
      },
      "properties": {
        "STATE": "OK",
        "DESCRIPTION": "Normal fault, certain",
        "RuleID": 22
      }
    },
    {
      "type": "Feature",
      "geometry": {
        "type": "LineString",
        "coordinates": [
          [
            -94.8861150992459,
            36.7697361524425
          ],
          [
            -94.8854741746469,
            36.7708690840936
          ],
          [
            -94.8851994904942,
            36.7714794195017
          ],
          [
            -94.8846577560723,
            36.7724597678172
          ],
          [
            -94.8842915129309,
            36.7732188706694
          ],
          [
            -94.8839252697896,
            36.7739016824979
          ],
          [
            -94.8831012227216,
            36.7754923666199
          ],
          [
            -94.8827349777836,
            36.7762514703835
          ],
          [
            -94.8819185628023,
            36.7777620450172
          ],
          [
            -94.8812776373049,
            36.7789750859748
          ],
          [
            -94.8803620321465,
            36.7805657669863
          ],
          [
            -94.8802704740561,
            36.7805695788533
          ],
          [
            -94.8800873506889,
            36.781023515599
          ],
          [
            -94.8796295485588,
            36.7818550960789
          ],
          [
            -94.8793472457942,
            36.7820076759673
          ],
          [
            -94.8791717446321,
            36.7826866761695
          ],
          [
            -94.8781645849766,
            36.7842811716908
          ],
          [
            -94.8749523478612,
            36.7895834411989
          ],
          [
            -94.8742274936651,
            36.7909490643193
          ]
        ]
      },
      "properties": {
        "STATE": "OK",
        "DESCRIPTION": "Normal fault, certain",
        "RuleID": 22
      }
    },
    {
      "type": "Feature",
      "geometry": {
        "type": "LineString",
        "coordinates": [
          [
            -94.9005959479141,
            36.7871615795277
          ],
          [
            -94.9075693978865,
            36.7927043387832
          ],
          [
            -94.9093547240552,
            36.7941272216529
          ],
          [
            -94.9099193241944,
            36.7941958935847
          ],
          [
            -94.9101100518006,
            36.794798605804
          ],
          [
            -94.9162366060558,
            36.8000438105038
          ],
          [
            -94.9210508734961,
            36.8041674926179
          ],
          [
            -94.9239729987922,
            36.8067958121736
          ],
          [
            -94.9240721727996,
            36.8072421263779
          ],
          [
            -94.9246367702439,
            36.8073909041539
          ],
          [
            -94.925674392669,
            36.8082911720493
          ]
        ]
      },
      "properties": {
        "STATE": "OK",
        "DESCRIPTION": "Normal fault, certain",
        "RuleID": 22
      }
    },
    {
      "type": "Feature",
      "geometry": {
        "type": "LineString",
        "coordinates": [
          [
            -94.7275234647155,
            36.7235693454376
          ],
          [
            -94.7243800412457,
            36.7269070935853
          ],
          [
            -94.7226252200674,
            36.729031808668
          ],
          [
            -94.7196801742568,
            36.7328196797058
          ],
          [
            -94.7179329851652,
            36.7352457481038
          ],
          [
            -94.7171929117116,
            36.7363786773366
          ],
          [
            -94.7167351329378,
            36.7371377787876
          ],
          [
            -94.7165520212486,
            36.7372865472502
          ],
          [
            -94.7153541672246,
            36.7391061004693
          ],
          [
            -94.713423872732,
            36.7424362288682
          ],
          [
            -94.7120505418003,
            36.744934778595
          ],
          [
            -94.7102117991099,
            36.7478147846082
          ],
          [
            -94.7091055004813,
            36.7494054628274
          ],
          [
            -94.706984417297,
            36.7521290833683
          ],
          [
            -94.7045810178735,
            36.7548603364375
          ],
          [
            -94.7027346026722,
            36.7568324830108
          ],
          [
            -94.6975539645298,
            36.7616884578643
          ],
          [
            -94.6937543316265,
            36.7648011612463
          ],
          [
            -94.6919918523104,
            36.7662430753134
          ],
          [
            -94.6917171834291,
            36.7663193650018
          ],
          [
            -94.6902370059793,
            36.7676125109164
          ],
          [
            -94.6899547014181,
            36.7679901558457
          ],
          [
            -94.6881082943016,
            36.769809715717
          ],
          [
            -94.6865365578631,
            36.7714766937439
          ],
          [
            -94.6807989651428,
            36.7771642476799
          ],
          [
            -94.6788610062242,
            36.7790600999546
          ],
          [
            -94.6769154179138,
            36.780883473002
          ],
          [
            -94.6746951580273,
            36.7830081995282
          ],
          [
            -94.6742297426752,
            36.7834621355
          ],
          [
            -94.6726580143215,
            36.7849040504217
          ],
          [
            -94.670155456162,
            36.7872500204193
          ],
          [
            -94.6682098741398,
            36.7889971013488
          ],
          [
            -94.667286674624,
            36.7899087865902
          ],
          [
            -94.6647841227527,
            36.7921059875346
          ],
          [
            -94.6611676320813,
            36.7952911659601
          ],
          [
            -94.6582072996395,
            36.7978736380035
          ],
          [
            -94.6552393396026,
            36.8004522955409
          ],
          [
            -94.6421620331074,
            36.8112284810006
          ],
          [
            -94.6391940847486,
            36.8135820736451
          ],
          [
            -94.6353945039475,
            36.8165383695052
          ],
          [
            -94.622027330873,
            36.8267080175116
          ],
          [
            -94.6185329481982,
            36.8295689496465
          ]
        ]
      },
      "properties": {
        "STATE": "OK",
        "DESCRIPTION": "Normal fault, certain",
        "RuleID": 22
      }
    }
  ]
}