{
  "type": "FeatureCollection",
  "features": [
    {
      "type": "Feature",
      "geometry": {
        "type": "LineString",
        "coordinates": [
          [
            -108.312448626728,
            32.4991713449285
          ],
          [
            -108.309915604901,
            32.4965697694547
          ],
          [
            -108.304002663732,
            32.4885704945166
          ],
          [
            -108.299699570926,
            32.483390233224
          ],
          [
            -108.292390392684,
            32.4726940215594
          ],
          [
            -108.288621351908,
            32.4663541152212
          ]
        ]
      },
      "properties": {
        "STATE": "NM",
        "DESCRIPTION": "Normal fault, certain",
        "RuleID": 22
      }
    },
    {
      "type": "Feature",
      "geometry": {
        "type": "LineString",
        "coordinates": [
          [
            -108.336331432705,
            32.8744140431043
          ],
          [
            -108.335682936206,
            32.87694694962
          ],
          [
            -108.334302007324,
            32.878430841471
          ],
          [
            -108.332882932381,
            32.8806776565111
          ]
        ]
      },
      "properties": {
        "STATE": "NM",
        "DESCRIPTION": "Normal fault, certain",
        "RuleID": 22
      }
    },
    {
      "type": "Feature",
      "geometry": {
        "type": "LineString",
        "coordinates": [
          [
            -108.579994338515,
            32.4768707669507
          ],
          [
            -108.580433616485,
            32.4744852583443
          ],
          [
            -108.581440397052,
            32.470085956975
          ],
          [
            -108.582054161088,
            32.4692855937678
          ],
          [
            -108.586972453439,
            32.4501149209831
          ]
        ]
      },
      "properties": {
        "STATE": "NM",
        "DESCRIPTION": "Normal fault, certain",
        "RuleID": 22
      }
    },
    {
      "type": "Feature",
      "geometry": {
        "type": "LineString",
        "coordinates": [
          [
            -108.471800519857,
            32.8608410067119
          ],
          [
            -108.471953113081,
            32.8618328024003
          ]
        ]
      },
      "properties": {
        "STATE": "NM",
        "DESCRIPTION": "Normal fault, certain",
        "RuleID": 22
      }
    },
    {
      "type": "Feature",
      "geometry": {
        "type": "LineString",
        "coordinates": [
          [
            -108.408055705275,
            32.7275475130966
          ],
          [
            -108.407605553197,
            32.7256821728121
          ],
          [
            -108.405316676396,
            32.7218904657446
          ],
          [
            -108.403844156186,
            32.7180415368922
          ],
          [
            -108.401822315281,
            32.7145359237089
          ]
        ]
      },
      "properties": {
        "STATE": "NM",
        "DESCRIPTION": "Normal fault, certain",
        "RuleID": 22
      }
    },
    {
      "type": "Feature",
      "geometry": {
        "type": "LineString",
        "coordinates": [
          [
            -108.377682170722,
            32.6581790630925
          ],
          [
            -108.371181824782,
            32.6577709149089
          ],
          [
            -108.364986671579,
            32.6592853244791
          ],
          [
            -108.360424227065,
            32.6597774169267
          ],
          [
            -108.358722851155,
            32.6603991999874
          ]
        ]
      },
      "properties": {
        "STATE": "NM",
        "DESCRIPTION": "Normal fault, certain",
        "RuleID": 22
      }
    },
    {
      "type": "Feature",
      "geometry": {
        "type": "LineString",
        "coordinates": [
          [
            -108.445829615935,
            32.7965764874407
          ],
          [
            -108.442739656598,
            32.7905417927599
          ],
          [
            -108.441396856708,
            32.7863533601234
          ],
          [
            -108.440878041902,
            32.78234039787
          ],
          [
            -108.439405537861,
            32.7776331802513
          ],
          [
            -108.435445807208,
            32.7684476213987
          ],
          [
            -108.434057224679,
            32.7627104576671
          ],
          [
            -108.429212473808,
            32.7550392982258
          ]
        ]
      },
      "properties": {
        "STATE": "NM",
        "DESCRIPTION": "Normal fault, certain",
        "RuleID": 22
      }
    },
    {
      "type": "Feature",
      "geometry": {
        "type": "LineString",
        "coordinates": [
          [
            -108.36192840211,
            32.8883906509387
          ],
          [
            -108.362859222034,
            32.8945207283113
          ],
          [
            -108.36275242672,
            32.8991058896174
          ],
          [
            -108.363202577,
            32.9019744768298
          ],
          [
            -108.363225517277,
            32.9161304986451
          ],
          [
            -108.364286044946,
            32.9240572549451
          ]
        ]
      },
      "properties": {
        "STATE": "NM",
        "DESCRIPTION": "Normal fault, certain",
        "RuleID": 22
      }
    },
    {
      "type": "Feature",
      "geometry": {
        "type": "LineString",
        "coordinates": [
          [
            -108.396702866782,
            32.707005912527
          ],
          [
            -108.39420799371,
            32.7033820483199
          ],
          [
            -108.392521847837,
            32.6996475571627
          ],
          [
            -108.38673863148,
            32.6923998278653
          ],
          [
            -108.377812041959,
            32.6828442722995
          ],
          [
            -108.369457674782,
            32.6750892066334
          ]
        ]
      },
      "properties": {
        "STATE": "NM",
        "DESCRIPTION": "Normal fault, certain",
        "RuleID": 22
      }
    },
    {
      "type": "Feature",
      "geometry": {
        "type": "LineString",
        "coordinates": [
          [
            -108.557731830105,
            32.7907209108252
          ],
          [
            -108.55577102613,
            32.7850180826943
          ],
          [
            -108.555435323013,
            32.7828971656171
          ],
          [
            -108.55540479826,
            32.7793648447176
          ]
        ]
      },
      "properties": {
        "STATE": "NM",
        "DESCRIPTION": "Normal fault, certain",
        "RuleID": 22
      }
    },
    {
      "type": "Feature",
      "geometry": {
        "type": "LineString",
        "coordinates": [
          [
            -108.46520703569,
            32.4770880415247
          ],
          [
            -108.456181295518,
            32.4734031079668
          ],
          [
            -108.454762203507,
            32.4727126596422
          ],
          [
            -108.453411776022,
            32.4715606372968
          ],
          [
            -108.45127550592,
            32.465995064528
          ],
          [
            -108.449528341981,
            32.4639275283245
          ],
          [
            -108.445011652258,
            32.4568589917798
          ],
          [
            -108.439236085056,
            32.4486422516395
          ],
          [
            -108.437160845596,
            32.4434772203865
          ],
          [
            -108.432705184718,
            32.4360119675456
          ]
        ]
      },
      "properties": {
        "STATE": "NM",
        "DESCRIPTION": "Normal fault, certain",
        "RuleID": 22
      }
    },
    {
      "type": "Feature",
      "geometry": {
        "type": "LineString",
        "coordinates": [
          [
            -108.471953113081,
            32.8618328024003
          ],
          [
            -108.476416380892,
            32.8757064882993
          ],
          [
            -108.478239834256,
            32.8800703832564
          ],
          [
            -108.479719956909,
            32.882595642319
          ],
          [
            -108.480513427121,
            32.8848958435583
          ],
          [
            -108.48329056433,
            32.889492422741
          ],
          [
            -108.484160330256,
            32.8929942222473
          ],
          [
            -108.490233411396,
            32.903736104733
          ],
          [
            -108.49393371668,
            32.9121205760824
          ],
          [
            -108.49964820024,
            32.9164997036269
          ],
          [
            -108.504134373294,
            32.9189257850221
          ],
          [
            -108.508727371307,
            32.9220728320605
          ]
        ]
      },
      "properties": {
        "STATE": "NM",
        "DESCRIPTION": "Normal fault, certain",
        "RuleID": 22
      }
    },
    {
      "type": "Feature",
      "geometry": {
        "type": "LineString",
        "coordinates": [
          [
            -108.426388963767,
            32.6571757218752
          ],
          [
            -108.425145352258,
            32.6569506635193
          ]
        ]
      },
      "properties": {
        "STATE": "NM",
        "DESCRIPTION": "Normal fault, certain",
        "RuleID": 22
      }
    },
    {
      "type": "Feature",
      "geometry": {
        "type": "LineString",
        "coordinates": [
          [
            -108.429212473808,
            32.7550392982258
          ],
          [
            -108.424817857048,
            32.748398082173
          ],
          [
            -108.422384026296,
            32.7454074414808
          ],
          [
            -108.420354568576,
            32.7435611784102
          ],
          [
            -108.419187241101,
            32.7415547004944
          ]
        ]
      },
      "properties": {
        "STATE": "NM",
        "DESCRIPTION": "Normal fault, certain",
        "RuleID": 22
      }
    },
    {
      "type": "Feature",
      "geometry": {
        "type": "LineString",
        "coordinates": [
          [
            -108.289585006154,
            32.7632868331621
          ],
          [
            -108.280475396572,
            32.7659113156165
          ]
        ]
      },
      "properties": {
        "STATE": "NM",
        "DESCRIPTION": "Normal fault, certain",
        "RuleID": 22
      }
    },
    {
      "type": "Feature",
      "geometry": {
        "type": "LineString",
        "coordinates": [
          [
            -108.581436744502,
            32.7454416145686
          ],
          [
            -108.565521495632,
            32.7429850107253
          ],
          [
            -108.557067957143,
            32.7430117105702
          ],
          [
            -108.553535476019,
            32.7427370584933
          ]
        ]
      },
      "properties": {
        "STATE": "NM",
        "DESCRIPTION": "Normal fault, certain",
        "RuleID": 22
      }
    },
    {
      "type": "Feature",
      "geometry": {
        "type": "LineString",
        "coordinates": [
          [
            -108.553535476019,
            32.7427370584933
          ],
          [
            -108.546104293087,
            32.7421724973037
          ],
          [
            -108.538139048244,
            32.7426073578378
          ],
          [
            -108.535888331876,
            32.742485289127
          ],
          [
            -108.531257199481,
            32.7429850016583
          ],
          [
            -108.527564502029,
            32.7437708080612
          ]
        ]
      },
      "properties": {
        "STATE": "NM",
        "DESCRIPTION": "Normal fault, certain",
        "RuleID": 22
      }
    },
    {
      "type": "Feature",
      "geometry": {
        "type": "LineString",
        "coordinates": [
          [
            -108.381763957269,
            32.6578891456159
          ],
          [
            -108.377682170722,
            32.6581790630925
          ]
        ]
      },
      "properties": {
        "STATE": "NM",
        "DESCRIPTION": "Normal fault, certain",
        "RuleID": 22
      }
    },
    {
      "type": "Feature",
      "geometry": {
        "type": "LineString",
        "coordinates": [
          [
            -108.146133148926,
            32.8203657683662
          ],
          [
            -108.142371730355,
            32.8214758475676
          ]
        ]
      },
      "properties": {
        "STATE": "NM",
        "DESCRIPTION": "Normal fault, certain",
        "RuleID": 22
      }
    },
    {
      "type": "Feature",
      "geometry": {
        "type": "LineString",
        "coordinates": [
          [
            -108.332882932381,
            32.8806776565111
          ],
          [
            -108.330853498916,
            32.8825391994803
          ],
          [
            -108.325406075507,
            32.888638795987
          ],
          [
            -108.323498710512,
            32.889657308429
          ],
          [
            -108.322163555285,
            32.8907902564458
          ]
        ]
      },
      "properties": {
        "STATE": "NM",
        "DESCRIPTION": "Normal fault, certain",
        "RuleID": 22
      }
    },
    {
      "type": "Feature",
      "geometry": {
        "type": "LineString",
        "coordinates": [
          [
            -108.473027300531,
            32.4834432377964
          ],
          [
            -108.470051787459,
            32.4797621033425
          ],
          [
            -108.468502993095,
            32.4786711143933
          ],
          [
            -108.466618498309,
            32.4780340711626
          ],
          [
            -108.46520703569,
            32.4770880415247
          ]
        ]
      },
      "properties": {
        "STATE": "NM",
        "DESCRIPTION": "Normal fault, certain",
        "RuleID": 22
      }
    },
    {
      "type": "Feature",
      "geometry": {
        "type": "LineString",
        "coordinates": [
          [
            -108.358685481239,
            32.7866664128773
          ],
          [
            -108.361966188844,
            32.7929605116772
          ],
          [
            -108.365758067489,
            32.7980949669767
          ]
        ]
      },
      "properties": {
        "STATE": "NM",
        "DESCRIPTION": "Normal fault, certain",
        "RuleID": 22
      }
    },
    {
      "type": "Feature",
      "geometry": {
        "type": "LineString",
        "coordinates": [
          [
            -108.381665613305,
            32.8124683651835
          ],
          [
            -108.387631884758,
            32.8150203152777
          ]
        ]
      },
      "properties": {
        "STATE": "NM",
        "DESCRIPTION": "Normal fault, certain",
        "RuleID": 22
      }
    },
    {
      "type": "Feature",
      "geometry": {
        "type": "LineString",
        "coordinates": [
          [
            -108.359158839495,
            32.8728880832014
          ],
          [
            -108.359967592745,
            32.8797200489928
          ],
          [
            -108.36192840211,
            32.8883906509387
          ]
        ]
      },
      "properties": {
        "STATE": "NM",
        "DESCRIPTION": "Normal fault, certain",
        "RuleID": 22
      }
    },
    {
      "type": "Feature",
      "geometry": {
        "type": "LineString",
        "coordinates": [
          [
            -108.559974977268,
            32.8295649864662
          ],
          [
            -108.559845271321,
            32.8273296292802
          ],
          [
            -108.560211486614,
            32.8247547755601
          ],
          [
            -108.561455093632,
            32.8186208982357
          ],
          [
            -108.56285129657,
            32.8154166339166
          ],
          [
            -108.563469286281,
            32.812952402471
          ],
          [
            -108.563827870386,
            32.8099770143513
          ],
          [
            -108.563042016091,
            32.8036104470968
          ],
          [
            -108.558380347264,
            32.7939671363134
          ],
          [
            -108.557731830105,
            32.7907209108252
          ]
        ]
      },
      "properties": {
        "STATE": "NM",
        "DESCRIPTION": "Normal fault, certain",
        "RuleID": 22
      }
    },
    {
      "type": "Feature",
      "geometry": {
        "type": "LineString",
        "coordinates": [
          [
            -108.386998210461,
            32.718285708601
          ],
          [
            -108.385823274257,
            32.7193843169501
          ]
        ]
      },
      "properties": {
        "STATE": "NM",
        "DESCRIPTION": "Normal fault, certain",
        "RuleID": 22
      }
    },
    {
      "type": "Feature",
      "geometry": {
        "type": "LineString",
        "coordinates": [
          [
            -108.396702866782,
            32.707005912527
          ],
          [
            -108.394902323153,
            32.7102635863334
          ],
          [
            -108.393841829621,
            32.7113545649694
          ]
        ]
      },
      "properties": {
        "STATE": "NM",
        "DESCRIPTION": "Normal fault, certain",
        "RuleID": 22
      }
    },
    {
      "type": "Feature",
      "geometry": {
        "type": "LineString",
        "coordinates": [
          [
            -108.55540479826,
            32.7793648447176
          ],
          [
            -108.55538190739,
            32.7776215730501
          ]
        ]
      },
      "properties": {
        "STATE": "NM",
        "DESCRIPTION": "Normal fault, certain",
        "RuleID": 22
      }
    },
    {
      "type": "Feature",
      "geometry": {
        "type": "LineString",
        "coordinates": [
          [
            -108.425145352258,
            32.6569506635193
          ],
          [
            -108.412632959414,
            32.6576296879703
          ],
          [
            -108.389691017425,
            32.6575191137179
          ],
          [
            -108.383701855103,
            32.6581218326411
          ],
          [
            -108.381763957269,
            32.6578891456159
          ]
        ]
      },
      "properties": {
        "STATE": "NM",
        "DESCRIPTION": "Normal fault, certain",
        "RuleID": 22
      }
    },
    {
      "type": "Feature",
      "geometry": {
        "type": "LineString",
        "coordinates": [
          [
            -108.60974246417,
            32.7863913524501
          ],
          [
            -108.603951634591,
            32.7860251499094
          ],
          [
            -108.594620691801,
            32.7841674376679
          ],
          [
            -108.591622279775,
            32.7838698968688
          ],
          [
            -108.584831977424,
            32.7816726866059
          ],
          [
            -108.574822003501,
            32.7796929050375
          ],
          [
            -108.571266632404,
            32.7793953658895
          ],
          [
            -108.568207182549,
            32.7787545134921
          ],
          [
            -108.561256662074,
            32.7787354375291
          ],
          [
            -108.55540479826,
            32.7793648447176
          ]
        ]
      },
      "properties": {
        "STATE": "NM",
        "DESCRIPTION": "Normal fault, certain",
        "RuleID": 22
      }
    },
    {
      "type": "Feature",
      "geometry": {
        "type": "LineString",
        "coordinates": [
          [
            -108.393841829621,
            32.7113545649694
          ],
          [
            -108.39127833604,
            32.7143146997918
          ],
          [
            -108.386998210461,
            32.718285708601
          ]
        ]
      },
      "properties": {
        "STATE": "NM",
        "DESCRIPTION": "Normal fault, certain",
        "RuleID": 22
      }
    },
    {
      "type": "Feature",
      "geometry": {
        "type": "LineString",
        "coordinates": [
          [
            -108.365758067489,
            32.7980949669767
          ],
          [
            -108.369458389841,
            32.8031454998829
          ],
          [
            -108.373578335026,
            32.8078069392528
          ],
          [
            -108.376157110745,
            32.8098248595064
          ],
          [
            -108.381665613305,
            32.8124683651835
          ]
        ]
      },
      "properties": {
        "STATE": "NM",
        "DESCRIPTION": "Normal fault, certain",
        "RuleID": 22
      }
    },
    {
      "type": "Feature",
      "geometry": {
        "type": "LineString",
        "coordinates": [
          [
            -108.385243901323,
            32.8290847897673
          ],
          [
            -108.384725102687,
            32.8308509579999
          ],
          [
            -108.38446570786,
            32.8336737692963
          ]
        ]
      },
      "properties": {
        "STATE": "NM",
        "DESCRIPTION": "Normal fault, certain",
        "RuleID": 22
      }
    },
    {
      "type": "Feature",
      "geometry": {
        "type": "LineString",
        "coordinates": [
          [
            -108.320551251826,
            32.5081394681431
          ],
          [
            -108.312448626728,
            32.4991713449285
          ]
        ]
      },
      "properties": {
        "STATE": "NM",
        "DESCRIPTION": "Normal fault, certain",
        "RuleID": 22
      }
    },
    {
      "type": "Feature",
      "geometry": {
        "type": "LineString",
        "coordinates": [
          [
            -108.385823274257,
            32.7193843169501
          ],
          [
            -108.384823815858,
            32.7204142592444
          ]
        ]
      },
      "properties": {
        "STATE": "NM",
        "DESCRIPTION": "Normal fault, certain",
        "RuleID": 22
      }
    },
    {
      "type": "Feature",
      "geometry": {
        "type": "LineString",
        "coordinates": [
          [
            -108.172241854412,
            32.8164594293118
          ],
          [
            -108.155090371896,
            32.8187979010236
          ],
          [
            -108.150031901039,
            32.8191641361798
          ],
          [
            -108.146133148926,
            32.8203657683662
          ]
        ]
      },
      "properties": {
        "STATE": "NM",
        "DESCRIPTION": "Normal fault, certain",
        "RuleID": 22
      }
    },
    {
      "type": "Feature",
      "geometry": {
        "type": "LineString",
        "coordinates": [
          [
            -108.55538190739,
            32.7776215730501
          ],
          [
            -108.555130110514,
            32.7624356487689
          ],
          [
            -108.555511573811,
            32.7542991074961
          ],
          [
            -108.555114836459,
            32.7526359412368
          ],
          [
            -108.55513771116,
            32.7482796683529
          ]
        ]
      },
      "properties": {
        "STATE": "NM",
        "DESCRIPTION": "Normal fault, certain",
        "RuleID": 22
      }
    },
    {
      "type": "Feature",
      "geometry": {
        "type": "LineString",
        "coordinates": [
          [
            -108.388738113318,
            32.8001776673705
          ],
          [
            -108.387921771998,
            32.8047895330738
          ],
          [
            -108.388188813284,
            32.8070248934136
          ],
          [
            -108.388028603245,
            32.8102329786706
          ],
          [
            -108.387303816423,
            32.814642671307
          ],
          [
            -108.387631884758,
            32.8150203152777
          ]
        ]
      },
      "properties": {
        "STATE": "NM",
        "DESCRIPTION": "Normal fault, certain",
        "RuleID": 22
      }
    },
    {
      "type": "Feature",
      "geometry": {
        "type": "LineString",
        "coordinates": [
          [
            -108.359044388738,
            32.8702560021656
          ],
          [
            -108.359158839495,
            32.8728880832014
          ]
        ]
      },
      "properties": {
        "STATE": "NM",
        "DESCRIPTION": "Normal fault, certain",
        "RuleID": 22
      }
    },
    {
      "type": "Feature",
      "geometry": {
        "type": "LineString",
        "coordinates": [
          [
            -108.387631884758,
            32.8150203152777
          ],
          [
            -108.386739254013,
            32.8210397726961
          ]
        ]
      },
      "properties": {
        "STATE": "NM",
        "DESCRIPTION": "Normal fault, certain",
        "RuleID": 22
      }
    },
    {
      "type": "Feature",
      "geometry": {
        "type": "LineString",
        "coordinates": [
          [
            -108.369457674782,
            32.6750892066334
          ],
          [
            -108.362064634317,
            32.6686120290276
          ],
          [
            -108.358715255001,
            32.6651903397432
          ]
        ]
      },
      "properties": {
        "STATE": "NM",
        "DESCRIPTION": "Normal fault, certain",
        "RuleID": 22
      }
    },
    {
      "type": "Feature",
      "geometry": {
        "type": "LineString",
        "coordinates": [
          [
            -108.358715255001,
            32.6651903397432
          ],
          [
            -108.353145675985,
            32.6601398184487
          ],
          [
            -108.350811033613,
            32.6584385115806
          ]
        ]
      },
      "properties": {
        "STATE": "NM",
        "DESCRIPTION": "Normal fault, certain",
        "RuleID": 22
      }
    },
    {
      "type": "Feature",
      "geometry": {
        "type": "LineString",
        "coordinates": [
          [
            -108.401822315281,
            32.7145359237089
          ],
          [
            -108.399335065312,
            32.7100537735742
          ],
          [
            -108.396962274185,
            32.7076925415902
          ],
          [
            -108.396702866782,
            32.707005912527
          ]
        ]
      },
      "properties": {
        "STATE": "NM",
        "DESCRIPTION": "Normal fault, certain",
        "RuleID": 22
      }
    },
    {
      "type": "Feature",
      "geometry": {
        "type": "LineString",
        "coordinates": [
          [
            -108.38446570786,
            32.8336737692963
          ],
          [
            -108.383588331407,
            32.83783551233
          ],
          [
            -108.381612306378,
            32.8416959061426
          ]
        ]
      },
      "properties": {
        "STATE": "NM",
        "DESCRIPTION": "Normal fault, certain",
        "RuleID": 22
      }
    },
    {
      "type": "Feature",
      "geometry": {
        "type": "LineString",
        "coordinates": [
          [
            -108.386739254013,
            32.8210397726961
          ],
          [
            -108.386296747497,
            32.8222032296315
          ],
          [
            -108.385999208407,
            32.8256974154878
          ],
          [
            -108.385243901323,
            32.8290847897673
          ]
        ]
      },
      "properties": {
        "STATE": "NM",
        "DESCRIPTION": "Normal fault, certain",
        "RuleID": 22
      }
    },
    {
      "type": "Feature",
      "geometry": {
        "type": "LineString",
        "coordinates": [
          [
            -108.414243314426,
            32.7401547545869
          ],
          [
            -108.410954954074,
            32.7332045589409
          ],
          [
            -108.408452449813,
            32.7291229422285
          ],
          [
            -108.408055705275,
            32.7275475130966
          ]
        ]
      },
      "properties": {
        "STATE": "NM",
        "DESCRIPTION": "Normal fault, certain",
        "RuleID": 22
      }
    },
    {
      "type": "Feature",
      "geometry": {
        "type": "LineString",
        "coordinates": [
          [
            -108.121565687464,
            32.8300169246928
          ],
          [
            -108.115431452613,
            32.83231336745
          ],
          [
            -108.112059144697,
            32.8331449773759
          ]
        ]
      },
      "properties": {
        "STATE": "NM",
        "DESCRIPTION": "Normal fault, certain",
        "RuleID": 22
      }
    },
    {
      "type": "Feature",
      "geometry": {
        "type": "LineString",
        "coordinates": [
          [
            -108.142371730355,
            32.8214758475676
          ],
          [
            -108.132430297888,
            32.8251074322793
          ],
          [
            -108.127348965805,
            32.8285635145019
          ],
          [
            -108.12528896267,
            32.829463778619
          ],
          [
            -108.121565687464,
            32.8300169246928
          ]
        ]
      },
      "properties": {
        "STATE": "NM",
        "DESCRIPTION": "Normal fault, certain",
        "RuleID": 22
      }
    },
    {
      "type": "Feature",
      "geometry": {
        "type": "LineString",
        "coordinates": [
          [
            -108.419187241101,
            32.7415547004944
          ],
          [
            -108.418332723179,
            32.7393689374508
          ],
          [
            -108.413404023846,
            32.7331587787417
          ],
          [
            -108.408162491606,
            32.7233323778326
          ],
          [
            -108.404385847489,
            32.7175875989515
          ],
          [
            -108.401822315281,
            32.7145359237089
          ]
        ]
      },
      "properties": {
        "STATE": "NM",
        "DESCRIPTION": "Normal fault, certain",
        "RuleID": 22
      }
    },
    {
      "type": "Feature",
      "geometry": {
        "type": "LineString",
        "coordinates": [
          [
            -108.349192134724,
            32.6527495753403
          ],
          [
            -108.343134324046,
            32.6462326032555
          ],
          [
            -108.331311097128,
            32.638027287427
          ],
          [
            -108.323092472577,
            32.6308309457594
          ]
        ]
      },
      "properties": {
        "STATE": "NM",
        "DESCRIPTION": "Normal fault, concealed",
        "RuleID": 23
      }
    },
    {
      "type": "Feature",
      "geometry": {
        "type": "LineString",
        "coordinates": [
          [
            -108.451703298929,
            32.8372840664141
          ],
          [
            -108.422619058812,
            32.8144812451048
          ],
          [
            -108.398781788437,
            32.7940943993092
          ],
          [
            -108.388108186793,
            32.7869553304594
          ],
          [
            -108.37344249628,
            32.7802662643207
          ],
          [
            -108.350314389228,
            32.7729141284482
          ],
          [
            -108.325837618983,
            32.7634098198888
          ],
          [
            -108.304923772868,
            32.7532193203719
          ],
          [
            -108.271969220401,
            32.7372345404326
          ],
          [
            -108.210981476461,
            32.7018384848561
          ],
          [
            -108.18748850608,
            32.689415929741
          ],
          [
            -108.166721507565,
            32.6811795862351
          ],
          [
            -108.120270056313,
            32.657517594308
          ],
          [
            -108.102364534236,
            32.6455389231708
          ],
          [
            -108.076447205838,
            32.6223498522128
          ],
          [
            -108.054881462203,
            32.6064460404442
          ],
          [
            -108.025484596689,
            32.5856099176269
          ],
          [
            -108.013418920764,
            32.5773759669078
          ],
          [
            -108.000710354727,
            32.5678961444429
          ],
          [
            -107.985458637459,
            32.5560199079163
          ],
          [
            -107.967886317588,
            32.5441364496082
          ],
          [
            -107.949974264759,
            32.535519845687
          ],
          [
            -107.933656223893,
            32.5289694789787
          ],
          [
            -107.926330369326,
            32.5256323610353
          ],
          [
            -107.913172165048,
            32.5178989925334
          ]
        ]
      },
      "properties": {
        "STATE": "NM",
        "DESCRIPTION": "Normal fault, concealed",
        "RuleID": 23
      }
    },
    {
      "type": "Feature",
      "geometry": {
        "type": "LineString",
        "coordinates": [
          [
            -108.608622246146,
            32.6676303646494
          ],
          [
            -108.600333147863,
            32.6507833679182
          ],
          [
            -108.587409584436,
            32.6362242904186
          ],
          [
            -108.565596431297,
            32.6205470114405
          ],
          [
            -108.539633516093,
            32.604359702138
          ],
          [
            -108.518976666303,
            32.5885259930719
          ],
          [
            -108.499482726073,
            32.5686726533998
          ],
          [
            -108.478590883293,
            32.5449809261658
          ],
          [
            -108.47329403639,
            32.5400262809618
          ],
          [
            -108.461442356234,
            32.5308705138328
          ],
          [
            -108.421379215735,
            32.5091793489584
          ],
          [
            -108.387147355951,
            32.490849822693
          ],
          [
            -108.360290599073,
            32.4753696325798
          ],
          [
            -108.326716578267,
            32.4542283473934
          ],
          [
            -108.304157128147,
            32.4386423029237
          ],
          [
            -108.292326714707,
            32.4289863670939
          ],
          [
            -108.281623359064,
            32.4139881461476
          ],
          [
            -108.271621638861,
            32.398491110017
          ],
          [
            -108.257007959007,
            32.3712490185568
          ],
          [
            -108.249986650389,
            32.355084348144
          ],
          [
            -108.239967235172,
            32.3384992191253
          ],
          [
            -108.231055838858,
            32.3256361762511
          ],
          [
            -108.223114915002,
            32.3117860220892
          ],
          [
            -108.215003499889,
            32.2968518525534
          ],
          [
            -108.206070693128,
            32.2779476332793
          ]
        ]
      },
      "properties": {
        "STATE": "NM",
        "DESCRIPTION": "Normal fault, concealed",
        "RuleID": 23
      }
    }
  ]
}