{
  "type": "FeatureCollection",
  "features": [
    {
      "type": "Feature",
      "geometry": {
        "type": "LineString",
        "coordinates": [
          [
            -108.53937381224604,
            32.40849649437001
          ],
          [
            -108.53876850225475,
            32.40811013889719
          ],
          [
            -108.53747903713975,
            32.407705696018255
          ],
          [
            -108.53395453575006,
            32.40574849086989
          ],
          [
            -108.53104004343889,
            32.404192393121576
          ],
          [
            -108.52866722895584,
            32.402406852139606
          ],
          [
            -108.52643163842065,
            32.40085464384164
          ],
          [
            -108.52554662538924,
            32.400160206086554
          ]
        ]
      },
      "properties": {
        "fault_name": "Gold Hill fault zone",
        "age": "late Quaternary",
        "slip_rate": "Less than 0.2 mm/yr"
      }
    },
    {
      "type": "Feature",
      "geometry": {
        "type": "LineString",
        "coordinates": [
          [
            -108.5281060019905,
            32.38193891484152
          ],
          [
            -108.52741358865434,
            32.38196056825442
          ],
          [
            -108.52697216820182,
            32.38193546006601
          ],
          [
            -108.52650409203989,
            32.381832572331454
          ]
        ]
      },
      "properties": {
        "fault_name": "Gold Hill fault zone",
        "age": "middle and late Quaternary",
        "slip_rate": "Less than 0.2 mm/yr"
      }
    },
    {
      "type": "Feature",
      "geometry": {
        "type": "LineString",
        "coordinates": [
          [
            -108.5078709148198,
            32.37519816826006
          ],
          [
            -108.50725170699276,
            32.37453658617039
          ],
          [
            -108.50646433005298,
            32.373780733973874
          ],
          [
            -108.50601830124305,
            32.37295661070939
          ],
          [
            -108.50591961681751,
            32.37278427416455
          ]
        ]
      },
      "properties": {
        "fault_name": "Gold Hill fault zone",
        "age": "middle and late Quaternary",
        "slip_rate": "Less than 0.2 mm/yr"
      }
    },
    {
      "type": "Feature",
      "geometry": {
        "type": "LineString",
        "coordinates": [
          [
            -108.49440834695032,
            32.36549989798337
          ],
          [
            -108.49328920061654,
            32.3651725339153
          ]
        ]
      },
      "properties": {
        "fault_name": "Gold Hill fault zone",
        "age": "middle and late Quaternary",
        "slip_rate": "Less than 0.2 mm/yr"
      }
    },
    {
      "type": "Feature",
      "geometry": {
        "type": "LineString",
        "coordinates": [
          [
            -108.47898307516941,
            32.34851205818791
          ],
          [
            -108.4784504909869,
            32.34828496091676
          ],
          [
            -108.47768146483175,
            32.34807780036464
          ],
          [
            -108.47707104701978,
            32.34797426620418
          ]
        ]
      },
      "properties": {
        "fault_name": "Gold Hill fault zone",
        "age": "middle and late Quaternary",
        "slip_rate": "Less than 0.2 mm/yr"
      }
    },
    {
      "type": "Feature",
      "geometry": {
        "type": "LineString",
        "coordinates": [
          [
            -108.44798527976619,
            32.32817727017009
          ],
          [
            -108.44604845362313,
            32.328234600085636
          ],
          [
            -108.44400851795343,
            32.328199088273614
          ],
          [
            -108.44310427468677,
            32.328195966955974
          ],
          [
            -108.44252531407942,
            32.32810646510105
          ],
          [
            -108.44229219766991,
            32.327995586033964
          ]
        ]
      },
      "properties": {
        "fault_name": "Gold Hill fault zone",
        "age": "middle and late Quaternary",
        "slip_rate": "Less than 0.2 mm/yr"
      }
    },
    {
      "type": "Feature",
      "geometry": {
        "type": "LineString",
        "coordinates": [
          [
            -108.43147588876104,
            32.32139983362514
          ],
          [
            -108.43113094018352,
            32.321282051137864
          ],
          [
            -108.43087614023972,
            32.321199918194374
          ]
        ]
      },
      "properties": {
        "fault_name": "Gold Hill fault zone",
        "age": "middle and late Quaternary",
        "slip_rate": "Less than 0.2 mm/yr"
      }
    },
    {
      "type": "Feature",
      "geometry": {
        "type": "LineString",
        "coordinates": [
          [
            -108.54045122285171,
            32.383976433277276
          ],
          [
            -108.53917053787028,
            32.38321443334189
          ],
          [
            -108.5372619152339,
            32.38250914822485
          ],
          [
            -108.53513155335106,
            32.38202726191701
          ],
          [
            -108.5327402012338,
            32.38192732002582
          ],
          [
            -108.52956647309796,
            32.38195086924357
          ],
          [
            -108.5281060019905,
            32.38193891484152
          ]
        ]
      },
      "properties": {
        "fault_name": "Gold Hill fault zone",
        "age": "middle and late Quaternary",
        "slip_rate": "Less than 0.2 mm/yr"
      }
    },
    {
      "type": "Feature",
      "geometry": {
        "type": "LineString",
        "coordinates": [
          [
            -108.5214512617045,
            32.37975935465767
          ],
          [
            -108.51999769235336,
            32.37931917013964
          ],
          [
            -108.51749914157833,
            32.37837729893406
          ],
          [
            -108.51626773637673,
            32.37778782794759
          ],
          [
            -108.5149036383296,
            32.37734024975851
          ],
          [
            -108.51324135171042,
            32.37696125280012
          ],
          [
            -108.51235499390103,
            32.376832513129145
          ],
          [
            -108.51135205722566,
            32.37668786627454
          ],
          [
            -108.51059926901758,
            32.37643686425843
          ],
          [
            -108.50908660040224,
            32.37576643672763
          ],
          [
            -108.5078709148198,
            32.37519816826006
          ]
        ]
      },
      "properties": {
        "fault_name": "Gold Hill fault zone",
        "age": "middle and late Quaternary",
        "slip_rate": "Less than 0.2 mm/yr"
      }
    },
    {
      "type": "Feature",
      "geometry": {
        "type": "LineString",
        "coordinates": [
          [
            -108.50591961681751,
            32.37278427416455
          ],
          [
            -108.50569888817581,
            32.37234548431041
          ],
          [
            -108.50512475870805,
            32.37175865525869
          ],
          [
            -108.50381845557135,
            32.3706479670248
          ],
          [
            -108.50093988419343,
            32.36908776974642
          ],
          [
            -108.49880481603684,
            32.367903729945546
          ],
          [
            -108.49720875142377,
            32.36706952698268
          ],
          [
            -108.49634917418966,
            32.36641703825024
          ],
          [
            -108.49501658005951,
            32.3657937547933
          ],
          [
            -108.49440834695032,
            32.36549989798337
          ]
        ]
      },
      "properties": {
        "fault_name": "Gold Hill fault zone",
        "age": "middle and late Quaternary",
        "slip_rate": "Less than 0.2 mm/yr"
      }
    },
    {
      "type": "Feature",
      "geometry": {
        "type": "LineString",
        "coordinates": [
          [
            -108.49328920061654,
            32.3651725339153
          ],
          [
            -108.49188043743514,
            32.3646244807566
          ],
          [
            -108.49001147362193,
            32.36378312717227
          ],
          [
            -108.488880405746,
            32.36303721768082
          ],
          [
            -108.48772667786704,
            32.361727459119514
          ],
          [
            -108.48703902021198,
            32.36059887418023
          ],
          [
            -108.48654557472813,
            32.35971095665292
          ]
        ]
      },
      "properties": {
        "fault_name": "Gold Hill fault zone",
        "age": "middle and late Quaternary",
        "slip_rate": "Less than 0.2 mm/yr"
      }
    },
    {
      "type": "Feature",
      "geometry": {
        "type": "LineString",
        "coordinates": [
          [
            -108.48654557472813,
            32.35971095665292
          ],
          [
            -108.48609284268954,
            32.3591965261281
          ],
          [
            -108.48538358234853,
            32.35867200416964
          ],
          [
            -108.48405176975271,
            32.35806816380572
          ],
          [
            -108.48269782626154,
            32.357484429915104
          ],
          [
            -108.48206511675579,
            32.35715235103523
          ]
        ]
      },
      "properties": {
        "fault_name": "Gold Hill fault zone",
        "age": "middle and late Quaternary",
        "slip_rate": "Less than 0.2 mm/yr"
      }
    },
    {
      "type": "Feature",
      "geometry": {
        "type": "LineString",
        "coordinates": [
          [
            -108.47764283817283,
            32.35946622309307
          ],
          [
            -108.47599909457774,
            32.358521023968486
          ],
          [
            -108.47368488438721,
            32.356874988250425
          ],
          [
            -108.47184533680627,
            32.35562400103961
          ],
          [
            -108.47112044757597,
            32.35471061613011
          ],
          [
            -108.46994509365484,
            32.352291932859075
          ],
          [
            -108.46947615241528,
            32.35146847275247
          ],
          [
            -108.46901439590137,
            32.35061509209421
          ]
        ]
      },
      "properties": {
        "fault_name": "Gold Hill fault zone",
        "age": "middle and late Quaternary",
        "slip_rate": "Less than 0.2 mm/yr"
      }
    },
    {
      "type": "Feature",
      "geometry": {
        "type": "LineString",
        "coordinates": [
          [
            -108.47356588815477,
            32.347779167832904
          ],
          [
            -108.47283872888174,
            32.346535974921395
          ],
          [
            -108.47173193797639,
            32.34505239113275
          ],
          [
            -108.47045560263754,
            32.34386757516334
          ],
          [
            -108.46963721405751,
            32.34311559525905
          ]
        ]
      },
      "properties": {
        "fault_name": "Gold Hill fault zone",
        "age": "middle and late Quaternary",
        "slip_rate": "Less than 0.2 mm/yr"
      }
    },
    {
      "type": "Feature",
      "geometry": {
        "type": "LineString",
        "coordinates": [
          [
            -108.46420951585576,
            32.33249579267491
          ],
          [
            -108.46253788675762,
            32.33176986814986
          ],
          [
            -108.46026485444138,
            32.33095055773016
          ],
          [
            -108.45727586125044,
            32.33005819712808
          ],
          [
            -108.45397145339356,
            32.32901345473337
          ],
          [
            -108.45103268231523,
            32.3283644177557
          ],
          [
            -108.44973706823208,
            32.3282333172489
          ],
          [
            -108.44798527976619,
            32.32817727017009
          ]
        ]
      },
      "properties": {
        "fault_name": "Gold Hill fault zone",
        "age": "middle and late Quaternary",
        "slip_rate": "Less than 0.2 mm/yr"
      }
    },
    {
      "type": "Feature",
      "geometry": {
        "type": "LineString",
        "coordinates": [
          [
            -108.43766932079245,
            32.32578485813636
          ],
          [
            -108.43592509883621,
            32.324697857943136
          ],
          [
            -108.43440562638088,
            32.32352660884484
          ],
          [
            -108.43301822513698,
            32.32216780199084
          ],
          [
            -108.43221190901603,
            32.32166711308065
          ],
          [
            -108.43175093044314,
            32.32146005329194
          ],
          [
            -108.43147588876104,
            32.32139983362514
          ]
        ]
      },
      "properties": {
        "fault_name": "Gold Hill fault zone",
        "age": "middle and late Quaternary",
        "slip_rate": "Less than 0.2 mm/yr"
      }
    },
    {
      "type": "Feature",
      "geometry": {
        "type": "LineString",
        "coordinates": [
          [
            -108.43087614023972,
            32.321199918194374
          ],
          [
            -108.42989436607579,
            32.320792178834374
          ],
          [
            -108.42803706329325,
            32.31977823587198
          ],
          [
            -108.42644937906348,
            32.3188460758499
          ],
          [
            -108.4247480902896,
            32.318067712983186
          ],
          [
            -108.42312666443944,
            32.31746376409549
          ],
          [
            -108.42192633825175,
            32.31703876415501
          ],
          [
            -108.42125167113402,
            32.31681543083066
          ],
          [
            -108.41987269788409,
            32.31636946400711
          ]
        ]
      },
      "properties": {
        "fault_name": "Gold Hill fault zone",
        "age": "middle and late Quaternary",
        "slip_rate": "Less than 0.2 mm/yr"
      }
    },
    {
      "type": "Feature",
      "geometry": {
        "type": "LineString",
        "coordinates": [
          [
            -108.52650409203989,
            32.381832572331454
          ],
          [
            -108.52465689979587,
            32.38148451894048
          ],
          [
            -108.52305437090602,
            32.380887337753116
          ],
          [
            -108.52195565675338,
            32.38015597369464
          ],
          [
            -108.5214512617045,
            32.37975935465767
          ]
        ]
      },
      "properties": {
        "fault_name": "Gold Hill fault zone",
        "age": "middle and late Quaternary",
        "slip_rate": "Less than 0.2 mm/yr"
      }
    },
    {
      "type": "Feature",
      "geometry": {
        "type": "LineString",
        "coordinates": [
          [
            -108.48447941094707,
            32.35230059311976
          ],
          [
            -108.48230981514422,
            32.3507177907338
          ],
          [
            -108.47995370393559,
            32.34908299877407
          ],
          [
            -108.47898307516941,
            32.34851205818791
          ]
        ]
      },
      "properties": {
        "fault_name": "Gold Hill fault zone",
        "age": "middle and late Quaternary",
        "slip_rate": "Less than 0.2 mm/yr"
      }
    },
    {
      "type": "Feature",
      "geometry": {
        "type": "LineString",
        "coordinates": [
          [
            -108.47707104701978,
            32.34797426620418
          ],
          [
            -108.47623535419243,
            32.34734001300934
          ],
          [
            -108.47598122798506,
            32.34684144334548
          ],
          [
            -108.47573780520432,
            32.34608873606301
          ],
          [
            -108.47545317490486,
            32.34543507972984
          ],
          [
            -108.47478480767221,
            32.34493157635725
          ],
          [
            -108.4738220526395,
            32.344048038178066
          ],
          [
            -108.47218998893975,
            32.342641509708116
          ],
          [
            -108.4714278941853,
            32.342102265851985
          ],
          [
            -108.46995433911574,
            32.34111959495578
          ],
          [
            -108.46788978870897,
            32.33980637530056
          ],
          [
            -108.46635206697864,
            32.338923562758545
          ]
        ]
      },
      "properties": {
        "fault_name": "Gold Hill fault zone",
        "age": "middle and late Quaternary",
        "slip_rate": "Less than 0.2 mm/yr"
      }
    },
    {
      "type": "Feature",
      "geometry": {
        "type": "LineString",
        "coordinates": [
          [
            -108.44229219766991,
            32.327995586033964
          ],
          [
            -108.44072138829274,
            32.3273402512428
          ],
          [
            -108.43918707027906,
            32.32662798085091
          ],
          [
            -108.43766932079245,
            32.32578485813636
          ]
        ]
      },
      "properties": {
        "fault_name": "Gold Hill fault zone",
        "age": "middle and late Quaternary",
        "slip_rate": "Less than 0.2 mm/yr"
      }
    }
  ]
}