{
  "type": "FeatureCollection",
  "features": [
    {
      "type": "Feature",
      "geometry": {
        "type": "LineString",
        "coordinates": [
          [
            -83.3207895302415,
            35.4572570320865
          ],
          [
            -83.3163088512836,
            35.4608186165119
          ],
          [
            -83.3108519991576,
            35.4645211789528
          ],
          [
            -83.306735027397,
            35.4666968684797
          ],
          [
            -83.3035698467311,
            35.4681585561085
          ],
          [
            -83.3001617643073,
            35.4705441446545
          ],
          [
            -83.2968888585708,
            35.4728110682989
          ],
          [
            -83.2955393527571,
            35.4741086508104
          ],
          [
            -83.294735948076,
            35.4750475529556
          ],
          [
            -83.2940729509721,
            35.4759825961783
          ],
          [
            -83.2934096089152,
            35.4769177938549
          ],
          [
            -83.2930219274796,
            35.4777310023868
          ],
          [
            -83.2920830361924,
            35.4787881631555
          ],
          [
            -83.2912752109018,
            35.4796124250245
          ],
          [
            -83.2900424052267,
            35.4803335822138
          ],
          [
            -83.2875767238079,
            35.4817759956858
          ],
          [
            -83.2847048278109,
            35.4835731688921
          ],
          [
            -83.2801796795515,
            35.4861029067112
          ],
          [
            -83.2763220370404,
            35.4878118501413
          ]
        ]
      },
      "properties": {
        "STATE": "NC",
        "DESCRIPTION": "Fault, sense of displacement unknown or undefined, certain",
        "RuleID": 22
      }
    },
    {
      "type": "Feature",
      "geometry": {
        "type": "LineString",
        "coordinates": [
          [
            -83.0024738898492,
            35.2317471006166
          ],
          [
            -82.9966340940024,
            35.2325791137005
          ],
          [
            -82.9729994422334,
            35.2360264436653
          ]
        ]
      },
      "properties": {
        "STATE": "NC",
        "DESCRIPTION": "Fault, sense of displacement unknown or undefined, certain",
        "RuleID": 22
      }
    },
    {
      "type": "Feature",
      "geometry": {
        "type": "LineString",
        "coordinates": [
          [
            -83.2397016889688,
            35.579017707512
          ],
          [
            -83.2392055233862,
            35.5841898028368
          ],
          [
            -83.2372567774977,
            35.5881394509038
          ],
          [
            -83.2357058667023,
            35.5915052490348
          ],
          [
            -83.2336747767433,
            35.5933933210524
          ],
          [
            -83.2294679644711,
            35.5970587907286
          ],
          [
            -83.2266359249266,
            35.5999997513532
          ],
          [
            -83.2234101196571,
            35.6036388735942
          ],
          [
            -83.2220574302141,
            35.6049355991254
          ],
          [
            -83.2211117449684,
            35.6058778543081
          ],
          [
            -83.2196139066401,
            35.607063566712
          ],
          [
            -83.2105818638879,
            35.6130336135985
          ],
          [
            -83.2070110696166,
            35.6150763192483
          ],
          [
            -83.2021954654832,
            35.6176101033552
          ],
          [
            -83.1950576040508,
            35.6218096363035
          ],
          [
            -83.1888833025417,
            35.6255248298253
          ],
          [
            -83.1821379447014,
            35.6290253421789
          ],
          [
            -83.1786934787119,
            35.6316658640766
          ],
          [
            -83.1764100582778,
            35.6334160757876
          ],
          [
            -83.1734391472752,
            35.6364739055327
          ]
        ]
      },
      "properties": {
        "STATE": "NC",
        "DESCRIPTION": "Normal fault, certain, (U/D designated in source)",
        "RuleID": 43
      }
    },
    {
      "type": "Feature",
      "geometry": {
        "type": "LineString",
        "coordinates": [
          [
            -83.3298062207855,
            35.4583867931634
          ],
          [
            -83.3265673827578,
            35.464895906313
          ],
          [
            -83.3246956602184,
            35.4671254630723
          ],
          [
            -83.323660125478,
            35.4685098803231
          ],
          [
            -83.321105960902,
            35.4719242598423
          ],
          [
            -83.3147515624497,
            35.4811546176656
          ],
          [
            -83.3110207404972,
            35.485956951266
          ],
          [
            -83.3059769040944,
            35.4929730325719
          ],
          [
            -83.3042672277507,
            35.4957709575474
          ],
          [
            -83.3000442440068,
            35.5023059135891
          ],
          [
            -83.2977445964054,
            35.507871161546
          ],
          [
            -83.2939593194786,
            35.5148527505786
          ],
          [
            -83.2926553699279,
            35.5172955085866
          ],
          [
            -83.2902672786952,
            35.5206847471544
          ],
          [
            -83.2862664986267,
            35.5258372872056
          ],
          [
            -83.2810686864926,
            35.5326267659998
          ],
          [
            -83.2791943139231,
            35.5348554399911
          ],
          [
            -83.2778479827556,
            35.5362672586392
          ],
          [
            -83.2767728781253,
            35.5374429637789
          ],
          [
            -83.2751555530844,
            35.539091269482
          ],
          [
            -83.2736690730545,
            35.5405071318276
          ],
          [
            -83.2714954590874,
            35.5422850695575
          ],
          [
            -83.2695975219113,
            35.5439409132642
          ],
          [
            -83.268097076672,
            35.5450130753602
          ],
          [
            -83.266881471938,
            35.5461919216705
          ],
          [
            -83.2659369931297,
            35.5471345501846
          ],
          [
            -83.2649878314039,
            35.5479625764448
          ],
          [
            -83.2643146204552,
            35.5486684005627
          ],
          [
            -83.2633702260886,
            35.5496107156518
          ],
          [
            -83.2622945573163,
            35.5507861469877
          ],
          [
            -83.261237400127,
            35.5524195080082
          ],
          [
            -83.2603156136611,
            35.5539344878265
          ],
          [
            -83.258472110798,
            35.5569644193083
          ],
          [
            -83.2555434592413,
            35.5609406333507
          ],
          [
            -83.2516561220202,
            35.5655156515591
          ],
          [
            -83.2487268236765,
            35.5694914165065
          ],
          [
            -83.2426955043162,
            35.5766453326128
          ],
          [
            -83.2397016889688,
            35.579017707512
          ]
        ]
      },
      "properties": {
        "STATE": "NC",
        "DESCRIPTION": "Normal fault, certain, (U/D designated in source)",
        "RuleID": 43
      }
    },
    {
      "type": "Feature",
      "geometry": {
        "type": "LineString",
        "coordinates": [
          [
            -83.4462405038354,
            35.6103178158567
          ],
          [
            -83.4435698250722,
            35.6098950271753
          ],
          [
            -83.432672933689,
            35.6079086860853
          ],
          [
            -83.4260032391485,
            35.6062617219667
          ],
          [
            -83.4193339883757,
            35.6046142462784
          ],
          [
            -83.4153779857308,
            35.6040369893707
          ],
          [
            -83.4073113166004,
            35.6025428486044
          ],
          [
            -83.3999222475871,
            35.6004557722382
          ],
          [
            -83.393544263867,
            35.5990282791614
          ],
          [
            -83.3864175298661,
            35.5964745685037
          ],
          [
            -83.3811807865443,
            35.595473130146
          ],
          [
            -83.3729562762319,
            35.5935223020024
          ],
          [
            -83.3661490442315,
            35.5918758197699
          ],
          [
            -83.3646851433563,
            35.5916784872648
          ],
          [
            -83.3640310782013,
            35.5915903345169
          ],
          [
            -83.3621938698333,
            35.5912969749145
          ],
          [
            -83.360356683025,
            35.59100373477
          ],
          [
            -83.3583696599222,
            35.590485059201
          ],
          [
            -83.3526707549462,
            35.5884635209815
          ],
          [
            -83.3468269103925,
            35.5863308866765
          ],
          [
            -83.3384124863475,
            35.5831218300667
          ],
          [
            -83.3317935897397,
            35.5791753026207
          ]
        ]
      },
      "properties": {
        "STATE": "NC",
        "DESCRIPTION": "Right lateral fault, certain",
        "RuleID": 50
      }
    },
    {
      "type": "Feature",
      "geometry": {
        "type": "LineString",
        "coordinates": [
          [
            -83.4093472098513,
            35.3492099033355
          ],
          [
            -83.4132296943733,
            35.3449732565184
          ],
          [
            -83.4153660264595,
            35.3425054483553
          ],
          [
            -83.4177677298637,
            35.3396859982623
          ],
          [
            -83.421639784047,
            35.3352200409237
          ],
          [
            -83.4278062818912,
            35.3287401286079
          ],
          [
            -83.4312484967026,
            35.3246232614166
          ]
        ]
      },
      "properties": {
        "STATE": "NC",
        "DESCRIPTION": "Thrust fault, certain, (teeth on right from origin)",
        "RuleID": 63
      }
    },
    {
      "type": "Feature",
      "geometry": {
        "type": "LineString",
        "coordinates": [
          [
            -83.4081509287773,
            35.350733996424
          ],
          [
            -83.4093472098513,
            35.3492099033355
          ]
        ]
      },
      "properties": {
        "STATE": "NC",
        "DESCRIPTION": "Thrust fault, certain, (teeth on right from origin)",
        "RuleID": 63
      }
    },
    {
      "type": "Feature",
      "geometry": {
        "type": "LineString",
        "coordinates": [
          [
            -83.3740524858816,
            35.393424780324
          ],
          [
            -83.3752747129959,
            35.3918956346764
          ],
          [
            -83.3760714018719,
            35.3908416136196
          ],
          [
            -83.3771339004439,
            35.3894360779679
          ],
          [
            -83.3785920350333,
            35.3874466493111
          ],
          [
            -83.3818117335555,
            35.3840321228715
          ],
          [
            -83.3850217410524,
            35.3803886105779
          ],
          [
            -83.3870345386174,
            35.3782687253641
          ],
          [
            -83.3891632619731,
            35.3755721970658
          ],
          [
            -83.3912916834949,
            35.3728757756967
          ],
          [
            -83.3952493731758,
            35.3670324852236
          ],
          [
            -83.3994673218626,
            35.3607232112458
          ],
          [
            -83.401850981706,
            35.3574458640018
          ],
          [
            -83.4039881474288,
            35.3549781108571
          ],
          [
            -83.4081509287773,
            35.350733996424
          ]
        ]
      },
      "properties": {
        "STATE": "NC",
        "DESCRIPTION": "Thrust fault, certain, (teeth on right from origin)",
        "RuleID": 63
      }
    },
    {
      "type": "Feature",
      "geometry": {
        "type": "LineString",
        "coordinates": [
          [
            -83.3015665156126,
            35.5953594920678
          ],
          [
            -83.3032654534954,
            35.5887787810986
          ],
          [
            -83.3053232243167,
            35.5841371239611
          ],
          [
            -83.308592072363,
            35.5782014194602
          ],
          [
            -83.3097794646073,
            35.5763349097632
          ],
          [
            -83.3113177621577,
            35.5727389834005
          ],
          [
            -83.3115377191466,
            35.5712427379021
          ],
          [
            -83.3114958208234,
            35.5702118541664
          ],
          [
            -83.3108884231474,
            35.569082069009
          ],
          [
            -83.3104491559566,
            35.5686351114014
          ],
          [
            -83.3098790985521,
            35.5684214699284
          ],
          [
            -83.3093229874923,
            35.5685511706607
          ],
          [
            -83.3079257209499,
            35.5687036663022
          ],
          [
            -83.3069627988306,
            35.5691883840209
          ],
          [
            -83.3059953348291,
            35.5695584990478
          ],
          [
            -83.3044764390922,
            35.5701730229594
          ],
          [
            -83.3025691199113,
            35.5716004744893
          ],
          [
            -83.3009561687675,
            35.5733637070965
          ],
          [
            -83.3003013202816,
            35.5745279515949
          ],
          [
            -83.2987254731523,
            35.5772074511646
          ],
          [
            -83.2978228675144,
            35.5791807741652
          ],
          [
            -83.2972004257523,
            35.5811467075507
          ],
          [
            -83.2967044946301,
            35.5827650325857
          ],
          [
            -83.2963578706945,
            35.5846088429293
          ],
          [
            -83.295889690328,
            35.5869144173264
          ],
          [
            -83.296248798151,
            35.5888537911899
          ],
          [
            -83.2958929179748,
            35.590468418965
          ],
          [
            -83.2957757282544,
            35.5910447773366
          ],
          [
            -83.2955139151632,
            35.5915103756721
          ],
          [
            -83.2952474074763,
            35.5918616693503
          ],
          [
            -83.2947049984195,
            35.592334784799
          ],
          [
            -83.2938773149712,
            35.5927009746135
          ],
          [
            -83.2927739187993,
            35.5931895494282
          ],
          [
            -83.2917920332443,
            35.5932159337391
          ],
          [
            -83.2899689320196,
            35.5932651142058
          ],
          [
            -83.2835175460594,
            35.5934388015254
          ],
          [
            -83.2822552657615,
            35.5934728813656
          ],
          [
            -83.2814044965088,
            35.5932663202321
          ],
          [
            -83.2806803708465,
            35.5927124381522
          ],
          [
            -83.2802226828025,
            35.5918077295732
          ],
          [
            -83.2802090221219,
            35.5914640912854
          ],
          [
            -83.2800455646728,
            35.5908952403998
          ],
          [
            -83.2803078080571,
            35.5904295332935
          ],
          [
            -83.280696151551,
            35.5896165195839
          ],
          [
            -83.2814638499962,
            35.5877617321462
          ],
          [
            -83.2816843962799,
            35.586265269046
          ],
          [
            -83.2818817525546,
            35.5841962836796
          ],
          [
            -83.2819481802749,
            35.5823604279093
          ],
          [
            -83.2818698067579,
            35.5804133759806
          ],
          [
            -83.281805300534,
            35.5788100869553
          ],
          [
            -83.2816048477666,
            35.5773250815856
          ],
          [
            -83.2816807706795,
            35.5757179759676
          ],
          [
            -83.282046022979,
            35.5743322875306
          ],
          [
            -83.2822895373879,
            35.5734086297599
          ],
          [
            -83.2829397784148,
            35.5721298978577
          ],
          [
            -83.2835900248315,
            35.5708514378192
          ],
          [
            -83.2850355219215,
            35.5684048521439
          ],
          [
            -83.2856948583906,
            35.5673551356191
          ],
          [
            -83.2860738755752,
            35.5663132044041
          ],
          [
            -83.286177244715,
            35.5653933555821
          ],
          [
            -83.2859585534523,
            35.5634501230224
          ],
          [
            -83.2862019825213,
            35.562526318601
          ],
          [
            -83.2867120234817,
            35.5612515155827
          ],
          [
            -83.2871048558572,
            35.560553066939
          ],
          [
            -83.2881570929736,
            35.5588050241098
          ],
          [
            -83.2897559890765,
            35.5566983348181
          ],
          [
            -83.2909485151925,
            35.5549464324436
          ],
          [
            -83.2917433849801,
            35.5537784099934
          ],
          [
            -83.2922669940946,
            35.5528470744953
          ],
          [
            -83.2930526220146,
            35.5514499895691
          ],
          [
            -83.2942354669868,
            35.5494691702946
          ],
          [
            -83.2951610820724,
            35.5480683917677
          ],
          [
            -83.2958109431119,
            35.5467898563079
          ],
          [
            -83.2960496757885,
            35.5457514314582
          ],
          [
            -83.2961666202688,
            35.5451749335684
          ],
          [
            -83.29626983939,
            35.5442549240181
          ],
          [
            -83.2963912997012,
            35.5437931639684
          ],
          [
            -83.2962095893838,
            35.5427662353231
          ],
          [
            -83.2960556711447,
            35.5424265676586
          ],
          [
            -83.2957611962081,
            35.5420904699724
          ],
          [
            -83.295602582475,
            35.5416360800872
          ],
          [
            -83.2953084659661,
            35.5413002458873
          ],
          [
            -83.295005137234,
            35.5407349523381
          ],
          [
            -83.2944120551104,
            35.5399484157911
          ],
          [
            -83.2937912204344,
            35.5384749020219
          ],
          [
            -83.2937634606955,
            35.5377877782385
          ],
          [
            -83.2937265120895,
            35.5368716108606
          ],
          [
            -83.2938340871414,
            35.5360662065024
          ],
          [
            -83.2939511915219,
            35.5354897040528
          ],
          [
            -83.2944701356851,
            35.5344437561787
          ],
          [
            -83.2950029678026,
            35.5337415913835
          ],
          [
            -83.2955404558883,
            35.5331537295609
          ],
          [
            -83.295937585804,
            35.5325698431895
          ],
          [
            -83.2972882270882,
            35.5312722690777
          ],
          [
            -83.2981057092681,
            35.5306768717438
          ],
          [
            -83.2989188328223,
            35.5299668669967
          ],
          [
            -83.2994609723844,
            35.5294937165974
          ],
          [
            -83.3002785911083,
            35.528898300217
          ],
          [
            -83.3017642383999,
            35.5274824018546
          ],
          [
            -83.3027174739855,
            35.52676867465
          ],
          [
            -83.3036613069051,
            35.5258258945187
          ],
          [
            -83.3046098101658,
            35.5249977069871
          ],
          [
            -83.3050021251116,
            35.5242990609782
          ],
          [
            -83.3055349689072,
            35.5235968315293
          ],
          [
            -83.3057872760262,
            35.5229020234234
          ],
          [
            -83.306170516191,
            35.5219743315759
          ],
          [
            -83.3062547862495,
            35.520596234077
          ],
          [
            -83.306199068244,
            35.5192219851262
          ],
          [
            -83.3062789841683,
            35.5177294297456
          ],
          [
            -83.3067605620089,
            35.5157672675511
          ],
          [
            -83.3075036268524,
            35.5133396064208
          ],
          [
            -83.3080128413628,
            35.5120644185213
          ],
          [
            -83.3088025206846,
            35.5107819587189
          ],
          [
            -83.3097738016277,
            35.5105262669057
          ],
          [
            -83.3105866296361,
            35.5098163186186
          ],
          [
            -83.3114086797492,
            35.5093354152005
          ],
          [
            -83.3116793852635,
            35.509098816828
          ],
          [
            -83.3122307199809,
            35.5088545081711
          ],
          [
            -83.3126230780459,
            35.5081559658936
          ],
          [
            -83.3130154298226,
            35.5074574321648
          ],
          [
            -83.3126746018173,
            35.5059761515612
          ],
          [
            -83.3126421600592,
            35.5051744277448
          ],
          [
            -83.3126329181915,
            35.5049455314635
          ],
          [
            -83.3124695694386,
            35.5043765673878
          ],
          [
            -83.3120167260089,
            35.5035865415634
          ],
          [
            -83.3118628131597,
            35.5032466144341
          ],
          [
            -83.3116994805764,
            35.5026777867783
          ],
          [
            -83.3115220309684,
            35.501765475558
          ],
          [
            -83.3114848820382,
            35.5008490183344
          ],
          [
            -83.3118726802548,
            35.500036166582
          ],
          [
            -83.3122695155231,
            35.4994519464042
          ],
          [
            -83.3150485077534,
            35.4953636904271
          ],
          [
            -83.3159778571357,
            35.4940771885089
          ],
          [
            -83.3165007907171,
            35.4931457355519
          ],
          [
            -83.3166269465223,
            35.492798527056
          ],
          [
            -83.3164635878879,
            35.4922294184259
          ],
          [
            -83.3161555995944,
            35.4915500027295
          ],
          [
            -83.3158427208725,
            35.4907558608756
          ],
          [
            -83.3155300343901,
            35.4899619876512
          ],
          [
            -83.3153621680096,
            35.4892785752662
          ],
          [
            -83.3154790532011,
            35.4887020351918
          ],
          [
            -83.315721755533,
            35.4877784465788
          ],
          [
            -83.316511064749,
            35.4864954936519
          ],
          [
            -83.317444835639,
            35.485323707543
          ],
          [
            -83.3185233889018,
            35.4842623579828
          ],
          [
            -83.3199942598053,
            35.4825025713741
          ],
          [
            -83.3210398781347,
            35.4806394945889
          ],
          [
            -83.3222260774163,
            35.4787728003873
          ],
          [
            -83.3231549506914,
            35.4774863737483
          ],
          [
            -83.323957883757,
            35.4765472989089
          ],
          [
            -83.3255869632534,
            35.475241522072
          ],
          [
            -83.3286538978716,
            35.4713742472191
          ],
          [
            -83.3296561069116,
            35.4700057770661
          ],
          [
            -83.3313096017191,
            35.4677472868044
          ],
          [
            -83.3326398233986,
            35.4659912051383
          ],
          [
            -83.3336944293725,
            35.464357326778
          ],
          [
            -83.3348284751635,
            35.4612304224502
          ],
          [
            -83.3368439811491,
            35.4556718979869
          ],
          [
            -83.3386869872438,
            35.4527548718772
          ],
          [
            -83.3420878067886,
            35.4468143503245
          ],
          [
            -83.3458800357773,
            35.4401749201853
          ],
          [
            -83.3467799222149,
            35.4382010347814
          ],
          [
            -83.3477917531099,
            35.4355359741861
          ],
          [
            -83.348174116519,
            35.4346084087933
          ],
          [
            -83.3487199068345,
            35.4342493339743
          ],
          [
            -83.3491258653928,
            35.433894293437
          ],
          [
            -83.3496762281331,
            35.4336498213242
          ],
          [
            -83.3500819845706,
            35.4332944992747
          ],
          [
            -83.3507630243369,
            35.4328172185781
          ],
          [
            -83.3513040419033,
            35.4323438341391
          ],
          [
            -83.3521204640712,
            35.4317479092444
          ],
          [
            -83.3526426008469,
            35.4308164266737
          ],
          [
            -83.3534401269528,
            35.4297624102019
          ],
          [
            -83.3539530559969,
            35.4286020179124
          ],
          [
            -83.354581965629,
            35.426864779227
          ],
          [
            -83.3553607142504,
            35.4253526496029
          ],
          [
            -83.3562744985238,
            35.4237223192174
          ],
          [
            -83.3601762465187,
            35.416231915831
          ]
        ]
      },
      "properties": {
        "STATE": "NC",
        "DESCRIPTION": "Thrust fault, certain, (teeth on right from origin)",
        "RuleID": 63
      }
    },
    {
      "type": "Feature",
      "geometry": {
        "type": "LineString",
        "coordinates": [
          [
            -83.3596553880456,
            35.4548156198756
          ],
          [
            -83.3568047668495,
            35.4570727339465
          ],
          [
            -83.3553070605735,
            35.4581457100952
          ],
          [
            -83.3539682815426,
            35.4596731221974
          ],
          [
            -83.3528875399838,
            35.4607243215037
          ],
          [
            -83.3527548740878,
            35.4608532883181
          ],
          [
            -83.351962135104,
            35.4620215963802
          ],
          [
            -83.3513089089755,
            35.4631860089047
          ],
          [
            -83.350655680152,
            35.4643507038205
          ],
          [
            -83.3501426487,
            35.4655110673531
          ],
          [
            -83.3496250484165,
            35.4665574018048
          ],
          [
            -83.3494013283848,
            35.4679394400815
          ],
          [
            -83.3491881815241,
            35.4695415991708
          ],
          [
            -83.3489633628529,
            35.4709324136132
          ],
          [
            -83.3492492507938,
            35.4744790070236
          ],
          [
            -83.3519121420618,
            35.481284994241
          ],
          [
            -83.3533854671627,
            35.4898434530237
          ],
          [
            -83.3598505991434,
            35.4867992130868
          ],
          [
            -83.366141999643,
            35.4829566962226
          ],
          [
            -83.3707807775994,
            35.4798472982822
          ],
          [
            -83.3746168695268,
            35.4776772820882
          ],
          [
            -83.3765585708269,
            35.4771648222125
          ],
          [
            -83.3779495060432,
            35.4768970751053
          ],
          [
            -83.3796015671395,
            35.4761633856411
          ],
          [
            -83.3808381385522,
            35.4755556311457
          ],
          [
            -83.3819346123066,
            35.4749519431897
          ],
          [
            -83.3831618978342,
            35.4741154031834
          ],
          [
            -83.3842489078371,
            35.4732827940079
          ],
          [
            -83.3858580465308,
            35.4715181250858
          ],
          [
            -83.3875881254112,
            35.4692915689993
          ],
          [
            -83.389579146017,
            35.4665990275363
          ],
          [
            -83.3905069790431,
            35.4653117988498
          ],
          [
            -83.3917052867163,
            35.4637880533498
          ],
          [
            -83.3930436111996,
            35.4622603586639
          ],
          [
            -83.3942607691208,
            35.4611945384037
          ],
          [
            -83.3964200333996,
            35.4591851833199
          ],
          [
            -83.3979028986088,
            35.457768080032
          ],
          [
            -83.3996704578978,
            35.4564572098269
          ],
          [
            -83.4008636370891,
            35.4548189376009
          ],
          [
            -83.4030225671945,
            35.4528094613272
          ],
          [
            -83.404109066056,
            35.4519762452033
          ],
          [
            -83.4053117539145,
            35.4505668150076
          ],
          [
            -83.4066542798184,
            35.4491535525963
          ],
          [
            -83.4074656274033,
            35.448442814727
          ],
          [
            -83.4091944468457,
            35.4462158064988
          ],
          [
            -83.4105226419258,
            35.4444590125673
          ],
          [
            -83.4109043154288,
            35.4435309630382
          ],
          [
            -83.4114163183098,
            35.442369914357
          ],
          [
            -83.4120252530033,
            35.4401745754713
          ],
          [
            -83.4113565435125,
            35.4342310481509
          ],
          [
            -83.410570497876,
            35.4321891163105
          ],
          [
            -83.4090753158659,
            35.4299376578594
          ],
          [
            -83.4084916166455,
            35.4293808414182
          ],
          [
            -83.4076182466785,
            35.4286026386331
          ],
          [
            -83.4070442259069,
            35.4282745636824
          ],
          [
            -83.4059100633348,
            35.4279624864522
          ],
          [
            -83.4045059013243,
            35.4278871956254
          ],
          [
            -83.4032462315306,
            35.4279222461499
          ],
          [
            -83.4020103688886,
            35.4285299571906
          ],
          [
            -83.4003739717159,
            35.4296078733349
          ],
          [
            -83.3968589286878,
            35.4326871308722
          ],
          [
            -83.393184477816,
            35.4353118690997
          ],
          [
            -83.3911613235741,
            35.437202768215
          ],
          [
            -83.3883121944797,
            35.4394606302439
          ],
          [
            -83.3832326123151,
            35.442009437512
          ],
          [
            -83.3819917640233,
            35.4425026306128
          ],
          [
            -83.3803357799841,
            35.4431219075514
          ],
          [
            -83.3790902730292,
            35.4435004831025
          ],
          [
            -83.3777091653822,
            35.4439974228807
          ],
          [
            -83.3766082773065,
            35.4444864923382
          ],
          [
            -83.3753769304954,
            35.4452085141199
          ],
          [
            -83.3745512871212,
            35.4455753991578
          ],
          [
            -83.3740053575668,
            35.4459344476124
          ],
          [
            -83.3738747317447,
            35.4461672757232
          ],
          [
            -83.3736138214603,
            35.4466330587243
          ],
          [
            -83.3737726939082,
            35.447087495184
          ],
          [
            -83.3737916824967,
            35.4475455830037
          ],
          [
            -83.3739507238279,
            35.4479997347613
          ],
          [
            -83.3739647555126,
            35.4483433672293
          ],
          [
            -83.3738437084264,
            35.4488052320294
          ],
          [
            -83.3737228472914,
            35.4492673656745
          ],
          [
            -83.3733217153811,
            35.4497370787399
          ],
          [
            -83.3724958501229,
            35.4501039621607
          ],
          [
            -83.37152531029,
            35.4503600277251
          ],
          [
            -83.3701490077314,
            35.4509716037094
          ],
          [
            -83.3677974923037,
            35.4517244715005
          ],
          [
            -83.3611764900449,
            35.454314982051
          ],
          [
            -83.3596553880456,
            35.4548156198756
          ]
        ]
      },
      "properties": {
        "STATE": "NC",
        "DESCRIPTION": "Thrust fault, certain, (teeth on right from origin)",
        "RuleID": 63
      }
    },
    {
      "type": "Feature",
      "geometry": {
        "type": "LineString",
        "coordinates": [
          [
            -83.3601762465187,
            35.416231915831
          ],
          [
            -83.3608190090708,
            35.4149975909861
          ],
          [
            -83.3658659455596,
            35.4048831733133
          ],
          [
            -83.3673200026959,
            35.4027790118655
          ],
          [
            -83.372744416657,
            35.3950616200695
          ],
          [
            -83.3740524858816,
            35.393424780324
          ]
        ]
      },
      "properties": {
        "STATE": "NC",
        "DESCRIPTION": "Thrust fault, certain, (teeth on right from origin)",
        "RuleID": 63
      }
    },
    {
      "type": "Feature",
      "geometry": {
        "type": "LineString",
        "coordinates": [
          [
            -83.3000442440068,
            35.5023059135891
          ],
          [
            -83.2948410761171,
            35.505427496668
          ],
          [
            -83.2923977699354,
            35.5074425348429
          ],
          [
            -83.2903980186033,
            35.510019002843
          ],
          [
            -83.2869031768893,
            35.51378199879
          ],
          [
            -83.2850383857506,
            35.5162396777594
          ],
          [
            -83.2837109964592,
            35.5181100844872
          ],
          [
            -83.2816966951145,
            35.5203426324309
          ],
          [
            -83.2791540550253,
            35.5233915524786
          ],
          [
            -83.2757936434987,
            35.5270362328979
          ],
          [
            -83.2732321450767,
            35.5296272248174
          ],
          [
            -83.2703995701363,
            35.5324546581883
          ],
          [
            -83.268240050736,
            35.5345761749871
          ],
          [
            -83.2659446934883,
            35.5368159023243
          ],
          [
            -83.263915691214,
            35.5387047918609
          ],
          [
            -83.2587958321853,
            35.544000783893
          ],
          [
            -83.256518306496,
            35.5466985507266
          ],
          [
            -83.2555827802979,
            35.5478698586454
          ],
          [
            -83.2547692578918,
            35.5485794271974
          ],
          [
            -83.2540911547181,
            35.5491708925146
          ],
          [
            -83.2534041177989,
            35.549533016444
          ],
          [
            -83.2525768619487,
            35.5498990693989
          ],
          [
            -83.2517449680967,
            35.5501505216734
          ],
          [
            -83.2509175307868,
            35.5505165703473
          ],
          [
            -83.250225847781,
            35.5507642289321
          ],
          [
            -83.2493939314711,
            35.5510155286654
          ],
          [
            -83.2487111597529,
            35.5514925177849
          ],
          [
            -83.2477573213977,
            35.5522056712878
          ],
          [
            -83.2468217628602,
            35.5533769031417
          ],
          [
            -83.2454703050074,
            35.5546740363476
          ],
          [
            -83.2446655277006,
            35.5556127253838
          ],
          [
            -83.2437208440764,
            35.5565550253578
          ],
          [
            -83.2426312855531,
            35.5573864972921
          ],
          [
            -83.2419439459017,
            35.5577485709581
          ],
          [
            -83.2412610681823,
            35.5582253694715
          ],
          [
            -83.2408543649206,
            35.5585800261267
          ],
          [
            -83.2400404454591,
            35.5592896372774
          ],
          [
            -83.2393759688299,
            35.560224505073
          ],
          [
            -83.2379111453849,
            35.5622121835612
          ],
          [
            -83.2313419543584,
            35.5735070208407
          ],
          [
            -83.2310842420764,
            35.5740869353866
          ],
          [
            -83.2309621906737,
            35.5745487803244
          ],
          [
            -83.2312653675905,
            35.575113945778
          ],
          [
            -83.2315637708599,
            35.5755646702419
          ],
          [
            -83.2324142068377,
            35.5757714436295
          ],
          [
            -83.2334093515263,
            35.5760890362318
          ],
          [
            -83.234264237758,
            35.5764103947345
          ],
          [
            -83.2348433753334,
            35.5768537157157
          ],
          [
            -83.2351465684199,
            35.5774187319326
          ],
          [
            -83.2353458390045,
            35.5789039649786
          ],
          [
            -83.2352464781475,
            35.5799382130723
          ],
          [
            -83.2345817652615,
            35.5808730584085
          ],
          [
            -83.2340482881536,
            35.5815750836912
          ],
          [
            -83.2336457045657,
            35.5820443191521
          ],
          [
            -83.2335144624994,
            35.5822771261985
          ],
          [
            -83.2331301012371,
            35.5832044434285
          ],
          [
            -83.2331437295782,
            35.5835480733334
          ],
          [
            -83.2332930439515,
            35.5837733657601
          ],
          [
            -83.2334425236148,
            35.5839987810189
          ],
          [
            -83.2337275096471,
            35.5841058542865
          ],
          [
            -83.2338676225769,
            35.5841020977167
          ],
          [
            -83.2341481862031,
            35.5840948468496
          ],
          [
            -83.2346908719409,
            35.5836215753139
          ],
          [
            -83.2397016889688,
            35.579017707512
          ]
        ]
      },
      "properties": {
        "STATE": "NC",
        "DESCRIPTION": "Thrust fault, certain, (teeth on right from origin)",
        "RuleID": 63
      }
    },
    {
      "type": "Feature",
      "geometry": {
        "type": "LineString",
        "coordinates": [
          [
            -83.4754523298762,
            35.2841595337951
          ],
          [
            -83.4689106767047,
            35.2849196420192
          ],
          [
            -83.4640791238816,
            35.2864336599791
          ],
          [
            -83.4618777232262,
            35.2872987965118
          ],
          [
            -83.4600808528077,
            35.2878089024202
          ],
          [
            -83.4581587293909,
            35.2886662063295
          ],
          [
            -83.4566511129008,
            35.2893969666494
          ],
          [
            -83.4539052020291,
            35.2906216685149
          ],
          [
            -83.4522671851939,
            35.2915854407199
          ],
          [
            -83.4509086800577,
            35.29254144842
          ],
          [
            -83.4491407686291,
            35.2937380832646
          ],
          [
            -83.4477772922162,
            35.2945793267367
          ],
          [
            -83.445864476244,
            35.2956656255724
          ],
          [
            -83.4444915235031,
            35.2962779182022
          ],
          [
            -83.4431181925715,
            35.2968900705618
          ],
          [
            -83.4400828642782,
            35.297893406132
          ],
          [
            -83.4369125380623,
            35.2990148330056
          ],
          [
            -83.4331972686423,
            35.3004956471754
          ],
          [
            -83.4310096113123,
            35.3017042809131
          ],
          [
            -83.4285473174404,
            35.3030348587617
          ],
          [
            -83.4266340478191,
            35.3041208505578
          ],
          [
            -83.4251353947188,
            35.3050802715999
          ],
          [
            -83.4236268484723,
            35.3058107693612
          ],
          [
            -83.4222677603295,
            35.3067663157894
          ],
          [
            -83.4211833805938,
            35.3075995798755
          ],
          [
            -83.4203690317376,
            35.3081956860901
          ],
          [
            -83.4182046785028,
            35.3099766287347
          ],
          [
            -83.4160646076284,
            35.312329913056
          ],
          [
            -83.4135573764327,
            35.3159548896294
          ],
          [
            -83.4125013142898,
            35.3174752112688
          ],
          [
            -83.4122739417082,
            35.3177422194807
          ],
          [
            -83.4113010545774,
            35.3188847397393
          ],
          [
            -83.410090742717,
            35.3200652306143
          ],
          [
            -83.4090203892762,
            35.3212420145533
          ],
          [
            -83.4076751980708,
            35.3225408848972
          ],
          [
            -83.4060598097977,
            35.3240767102655
          ],
          [
            -83.4039045385304,
            35.3260862866445
          ],
          [
            -83.401059834537,
            35.3283444946967
          ],
          [
            -83.3984846296204,
            35.3303654234691
          ],
          [
            -83.3961750762963,
            35.3320353086851
          ],
          [
            -83.3911548521108,
            35.3358445896398
          ],
          [
            -83.3882855854826,
            35.337529822451
          ],
          [
            -83.3850110591854,
            35.3395700013219
          ],
          [
            -83.3807671626617,
            35.3418666511265
          ],
          [
            -83.3761176363629,
            35.344518296966
          ],
          [
            -83.3732573295314,
            35.3464320636415
          ],
          [
            -83.3707877889501,
            35.3476471636522
          ],
          [
            -83.3690125652351,
            35.3487283132277
          ],
          [
            -83.3672326819587,
            35.3496948382709
          ],
          [
            -83.3657418783374,
            35.3508827006353
          ],
          [
            -83.3639758803203,
            35.3521925383252
          ],
          [
            -83.3620749059403,
            35.3536211260849
          ],
          [
            -83.3588179713512,
            35.3561189648066
          ],
          [
            -83.3563761599661,
            35.358020904637
          ],
          [
            -83.3544749071083,
            35.3594492347143
          ],
          [
            -83.3529835501248,
            35.3606368041595
          ],
          [
            -83.3497304746982,
            35.3632489941496
          ],
          [
            -83.347973625124,
            35.3647879181857
          ],
          [
            -83.3447486786439,
            35.3680868202858
          ],
          [
            -83.3421850763676,
            35.3704504494278
          ],
          [
            -83.3373417942419,
            35.3752842321691
          ],
          [
            -83.3367957838391,
            35.3759744467341
          ],
          [
            -83.3321484287685,
            35.3818473652916
          ],
          [
            -83.331029118043,
            35.3832490174635
          ],
          [
            -83.3217546442501,
            35.3948583421773
          ],
          [
            -83.3194973594008,
            35.3979010267716
          ],
          [
            -83.3152574810414,
            35.403863689614
          ],
          [
            -83.3111287763848,
            35.4091356292486
          ],
          [
            -83.306336996471,
            35.4153425605648
          ],
          [
            -83.2996223861663,
            35.4225186460637
          ],
          [
            -83.2965330358867,
            35.4258126779416
          ],
          [
            -83.295053314781,
            35.4273430219054
          ],
          [
            -83.2934201982558,
            35.4285339318558
          ],
          [
            -83.2905548177395,
            35.430445728907
          ],
          [
            -83.2864986682118,
            35.4341095007144
          ],
          [
            -83.2801592500653,
            35.4402423647903
          ],
          [
            -83.2774697174608,
            35.4430662283914
          ],
          [
            -83.2749157621923,
            35.4457721646714
          ],
          [
            -83.273575494653,
            35.4472987095559
          ],
          [
            -83.2726506557118,
            35.4486993583193
          ],
          [
            -83.2719919283005,
            35.4497487559081
          ],
          [
            -83.271333194601,
            35.4507985627818
          ],
          [
            -83.2702542856054,
            35.4518592293382
          ],
          [
            -83.264128306272,
            35.4563802846215
          ],
          [
            -83.2600195738592,
            35.4587833064266
          ],
          [
            -83.257473434832,
            35.461717645777
          ],
          [
            -83.2535815404574,
            35.4660637986169
          ],
          [
            -83.2511613398431,
            35.4686508551345
          ],
          [
            -83.248095593696,
            35.4726304768724
          ],
          [
            -83.2461133936479,
            35.4756641982092
          ]
        ]
      },
      "properties": {
        "STATE": "NC",
        "DESCRIPTION": "Thrust fault, certain, (teeth on right from origin)",
        "RuleID": 63
      }
    }
  ]
}